"list_name","name","label::English","label::Portuguese","label::Swahili","Country","Region","District","Ward","Village","Hamlet","code"
"Region","Other","Other","Outro","Nyingine","Mozambique","NA","NA","NA","NA","NA","NA"
"Region","Zambezia","Zambezia","Zambezia","Zambezia","Mozambique","NA","NA","NA","NA","NA","NA"
"Region","Other","Other","Outro","Nyingine","Tanzania","NA","NA","NA","NA","NA","NA"
"Region","Pwani","Pwani","Pwani","Pwani","Tanzania","NA","NA","NA","NA","NA","NA"
"Region","Other","Other","Outro","Nyingine","Other","NA","NA","NA","NA","NA","NA"
"District","Other","Other","Outro","Nyingine","Mozambique","Other","NA","NA","NA","NA","NA"
"District","Mopeia","Mopeia","Mopeia","Mopeia","Mozambique","Zambezia","NA","NA","NA","NA","NA"
"District","Other","Other","Outro","Nyingine","Mozambique","Zambezia","NA","NA","NA","NA","NA"
"District","Other","Other","Outro","Nyingine","Tanzania","Other","NA","NA","NA","NA","NA"
"District","Kibiti DC","Kibiti DC","Kibiti DC","Kibiti DC","Tanzania","Pwani","NA","NA","NA","NA","NA"
"District","Rufiji DC","Rufiji DC","Rufiji DC","Rufiji DC","Tanzania","Pwani","NA","NA","NA","NA","NA"
"District","Other","Other","Outro","Nyingine","Tanzania","Pwani","NA","NA","NA","NA","NA"
"District","Other","Other","Outro","Nyingine","Other","Other","NA","NA","NA","NA","NA"
"Ward","Other","Other","Outro","Nyingine","Mozambique","Other","Other","NA","NA","NA","NA"
"Ward","Campo | Campo sede","Campo | Campo sede","Campo | Campo sede","Campo | Campo sede","Mozambique","Zambezia","Mopeia","NA","NA","NA","NA"
"Ward","Campo | Catale","Campo | Catale","Campo | Catale","Campo | Catale","Mozambique","Zambezia","Mopeia","NA","NA","NA","NA"
"Ward","Campo | Luala","Campo | Luala","Campo | Luala","Campo | Luala","Mozambique","Zambezia","Mopeia","NA","NA","NA","NA"
"Ward","Campo | Mungane","Campo | Mungane","Campo | Mungane","Campo | Mungane","Mozambique","Zambezia","Mopeia","NA","NA","NA","NA"
"Ward","Mopeia sede | Cuacua","Mopeia sede | Cuacua","Mopeia sede | Cuacua","Mopeia sede | Cuacua","Mozambique","Zambezia","Mopeia","NA","NA","NA","NA"
"Ward","Mopeia sede | Nzanza","Mopeia sede | Nzanza","Mopeia sede | Nzanza","Mopeia sede | Nzanza","Mozambique","Zambezia","Mopeia","NA","NA","NA","NA"
"Ward","Mopeia sede | Rovuma/Conho","Mopeia sede | Rovuma/Conho","Mopeia sede | Rovuma/Conho","Mopeia sede | Rovuma/Conho","Mozambique","Zambezia","Mopeia","NA","NA","NA","NA"
"Ward","Mopeia sede | Sambalendo","Mopeia sede | Sambalendo","Mopeia sede | Sambalendo","Mopeia sede | Sambalendo","Mozambique","Zambezia","Mopeia","NA","NA","NA","NA"
"Ward","Other","Other","Outro","Nyingine","Mozambique","Zambezia","Mopeia","NA","NA","NA","NA"
"Ward","Other","Other","Outro","Nyingine","Mozambique","Zambezia","Other","NA","NA","NA","NA"
"Ward","Other","Other","Outro","Nyingine","Tanzania","Other","Other","NA","NA","NA","NA"
"Ward","Bungu","Bungu","Bungu","Bungu","Tanzania","Pwani","Kibiti DC","NA","NA","NA","NA"
"Ward","Dimani","Dimani","Dimani","Dimani","Tanzania","Pwani","Kibiti DC","NA","NA","NA","NA"
"Ward","Kibiti","Kibiti","Kibiti","Kibiti","Tanzania","Pwani","Kibiti DC","NA","NA","NA","NA"
"Ward","Kiongoroni","Kiongoroni","Kiongoroni","Kiongoroni","Tanzania","Pwani","Kibiti DC","NA","NA","NA","NA"
"Ward","Mahege","Mahege","Mahege","Mahege","Tanzania","Pwani","Kibiti DC","NA","NA","NA","NA"
"Ward","Maparoni","Maparoni","Maparoni","Maparoni","Tanzania","Pwani","Kibiti DC","NA","NA","NA","NA"
"Ward","Mbuchi","Mbuchi","Mbuchi","Mbuchi","Tanzania","Pwani","Kibiti DC","NA","NA","NA","NA"
"Ward","Mchukwi","Mchukwi","Mchukwi","Mchukwi","Tanzania","Pwani","Kibiti DC","NA","NA","NA","NA"
"Ward","Mjawa","Mjawa","Mjawa","Mjawa","Tanzania","Pwani","Kibiti DC","NA","NA","NA","NA"
"Ward","Mlanzi","Mlanzi","Mlanzi","Mlanzi","Tanzania","Pwani","Kibiti DC","NA","NA","NA","NA"
"Ward","Msala","Msala","Msala","Msala","Tanzania","Pwani","Kibiti DC","NA","NA","NA","NA"
"Ward","Mtawanya","Mtawanya","Mtawanya","Mtawanya","Tanzania","Pwani","Kibiti DC","NA","NA","NA","NA"
"Ward","Mtunda","Mtunda","Mtunda","Mtunda","Tanzania","Pwani","Kibiti DC","NA","NA","NA","NA"
"Ward","Mwambao","Mwambao","Mwambao","Mwambao","Tanzania","Pwani","Kibiti DC","NA","NA","NA","NA"
"Ward","Ruaruke","Ruaruke","Ruaruke","Ruaruke","Tanzania","Pwani","Kibiti DC","NA","NA","NA","NA"
"Ward","Salale","Salale","Salale","Salale","Tanzania","Pwani","Kibiti DC","NA","NA","NA","NA"
"Ward","Other","Other","Outro","Nyingine","Tanzania","Pwani","Kibiti DC","NA","NA","NA","NA"
"Ward","Chemchem","Chemchem","Chemchem","Chemchem","Tanzania","Pwani","Rufiji DC","NA","NA","NA","NA"
"Ward","Chumbi","Chumbi","Chumbi","Chumbi","Tanzania","Pwani","Rufiji DC","NA","NA","NA","NA"
"Ward","Ikwiriri","Ikwiriri","Ikwiriri","Ikwiriri","Tanzania","Pwani","Rufiji DC","NA","NA","NA","NA"
"Ward","Kipugira","Kipugira","Kipugira","Kipugira","Tanzania","Pwani","Rufiji DC","NA","NA","NA","NA"
"Ward","Mbwara","Mbwara","Mbwara","Mbwara","Tanzania","Pwani","Rufiji DC","NA","NA","NA","NA"
"Ward","Mgomba","Mgomba","Mgomba","Mgomba","Tanzania","Pwani","Rufiji DC","NA","NA","NA","NA"
"Ward","Mkongo","Mkongo","Mkongo","Mkongo","Tanzania","Pwani","Rufiji DC","NA","NA","NA","NA"
"Ward","Mohoro","Mohoro","Mohoro","Mohoro","Tanzania","Pwani","Rufiji DC","NA","NA","NA","NA"
"Ward","Mwaseni","Mwaseni","Mwaseni","Mwaseni","Tanzania","Pwani","Rufiji DC","NA","NA","NA","NA"
"Ward","Ngarambe","Ngarambe","Ngarambe","Ngarambe","Tanzania","Pwani","Rufiji DC","NA","NA","NA","NA"
"Ward","Ngorongo","Ngorongo","Ngorongo","Ngorongo","Tanzania","Pwani","Rufiji DC","NA","NA","NA","NA"
"Ward","Umwe","Umwe","Umwe","Umwe","Tanzania","Pwani","Rufiji DC","NA","NA","NA","NA"
"Ward","Utete","Utete","Utete","Utete","Tanzania","Pwani","Rufiji DC","NA","NA","NA","NA"
"Ward","Other","Other","Outro","Nyingine","Tanzania","Pwani","Rufiji DC","NA","NA","NA","NA"
"Ward","Other","Other","Outro","Nyingine","Tanzania","Pwani","Other","NA","NA","NA","NA"
"Ward","Other","Other","Outro","Nyingine","Other","Other","Other","NA","NA","NA","NA"
"Village","Other","Other","Outro","Nyingine","Mozambique","Other","Other","Other","NA","NA","NA"
"Village","Mongana","Mongana","Mongana","Mongana","Mozambique","Zambezia","Mopeia","Campo | Campo sede","NA","NA","NA"
"Village","Mugurrumba","Mugurrumba","Mugurrumba","Mugurrumba","Mozambique","Zambezia","Mopeia","Campo | Campo sede","NA","NA","NA"
"Village","Sacuane","Sacuane","Sacuane","Sacuane","Mozambique","Zambezia","Mopeia","Campo | Campo sede","NA","NA","NA"
"Village","Samurenge","Samurenge","Samurenge","Samurenge","Mozambique","Zambezia","Mopeia","Campo | Campo sede","NA","NA","NA"
"Village","Samurrenge","Samurrenge","Samurrenge","Samurrenge","Mozambique","Zambezia","Mopeia","Campo | Campo sede","NA","NA","NA"
"Village","Zuze","Zuze","Zuze","Zuze","Mozambique","Zambezia","Mopeia","Campo | Campo sede","NA","NA","NA"
"Village","Other","Other","Outro","Nyingine","Mozambique","Zambezia","Mopeia","Campo | Campo sede","NA","NA","NA"
"Village","Catale","Catale","Catale","Catale","Mozambique","Zambezia","Mopeia","Campo | Catale","NA","NA","NA"
"Village","Other","Other","Outro","Nyingine","Mozambique","Zambezia","Mopeia","Campo | Catale","NA","NA","NA"
"Village","Cadongo","Cadongo","Cadongo","Cadongo","Mozambique","Zambezia","Mopeia","Campo | Luala","NA","NA","NA"
"Village","Caline","Caline","Caline","Caline","Mozambique","Zambezia","Mopeia","Campo | Luala","NA","NA","NA"
"Village","Chiurine","Chiurine","Chiurine","Chiurine","Mozambique","Zambezia","Mopeia","Campo | Luala","NA","NA","NA"
"Village","Cuerelo","Cuerelo","Cuerelo","Cuerelo","Mozambique","Zambezia","Mopeia","Campo | Luala","NA","NA","NA"
"Village","Lima","Lima","Lima","Lima","Mozambique","Zambezia","Mopeia","Campo | Luala","NA","NA","NA"
"Village","Lua lua","Lua lua","Lua lua","Lua lua","Mozambique","Zambezia","Mopeia","Campo | Luala","NA","NA","NA"
"Village","Lua Lua","Lua Lua","Lua Lua","Lua Lua","Mozambique","Zambezia","Mopeia","Campo | Luala","NA","NA","NA"
"Village","Luala","Luala","Luala","Luala","Mozambique","Zambezia","Mopeia","Campo | Luala","NA","NA","NA"
"Village","Mpiaeca","Mpiaeca","Mpiaeca","Mpiaeca","Mozambique","Zambezia","Mopeia","Campo | Luala","NA","NA","NA"
"Village","Rimba","Rimba","Rimba","Rimba","Mozambique","Zambezia","Mopeia","Campo | Luala","NA","NA","NA"
"Village","Simogo","Simogo","Simogo","Simogo","Mozambique","Zambezia","Mopeia","Campo | Luala","NA","NA","NA"
"Village","Sitone","Sitone","Sitone","Sitone","Mozambique","Zambezia","Mopeia","Campo | Luala","NA","NA","NA"
"Village","Other","Other","Outro","Nyingine","Mozambique","Zambezia","Mopeia","Campo | Luala","NA","NA","NA"
"Village","Avalinho","Avalinho","Avalinho","Avalinho","Mozambique","Zambezia","Mopeia","Campo | Mungane","NA","NA","NA"
"Village","Biringuinho","Biringuinho","Biringuinho","Biringuinho","Mozambique","Zambezia","Mopeia","Campo | Mungane","NA","NA","NA"
"Village","Chirama","Chirama","Chirama","Chirama","Mozambique","Zambezia","Mopeia","Campo | Mungane","NA","NA","NA"
"Village","Other","Other","Outro","Nyingine","Mozambique","Zambezia","Mopeia","Campo | Mungane","NA","NA","NA"
"Village","Chamanga","Chamanga","Chamanga","Chamanga","Mozambique","Zambezia","Mopeia","Mopeia sede | Cuacua","NA","NA","NA"
"Village","Dombe","Dombe","Dombe","Dombe","Mozambique","Zambezia","Mopeia","Mopeia sede | Cuacua","NA","NA","NA"
"Village","Marruma","Marruma","Marruma","Marruma","Mozambique","Zambezia","Mopeia","Mopeia sede | Cuacua","NA","NA","NA"
"Village","Maruma","Maruma","Maruma","Maruma","Mozambique","Zambezia","Mopeia","Mopeia sede | Cuacua","NA","NA","NA"
"Village","Mocha","Mocha","Mocha","Mocha","Mozambique","Zambezia","Mopeia","Mopeia sede | Cuacua","NA","NA","NA"
"Village","Sangalaza","Sangalaza","Sangalaza","Sangalaza","Mozambique","Zambezia","Mopeia","Mopeia sede | Cuacua","NA","NA","NA"
"Village","Other","Other","Outro","Nyingine","Mozambique","Zambezia","Mopeia","Mopeia sede | Cuacua","NA","NA","NA"
"Village","Cocorico","Cocorico","Cocorico","Cocorico","Mozambique","Zambezia","Mopeia","Mopeia sede | Nzanza","NA","NA","NA"
"Village","Mefula","Mefula","Mefula","Mefula","Mozambique","Zambezia","Mopeia","Mopeia sede | Nzanza","NA","NA","NA"
"Village","Nhacatundo","Nhacatundo","Nhacatundo","Nhacatundo","Mozambique","Zambezia","Mopeia","Mopeia sede | Nzanza","NA","NA","NA"
"Village","Nhamirere","Nhamirere","Nhamirere","Nhamirere","Mozambique","Zambezia","Mopeia","Mopeia sede | Nzanza","NA","NA","NA"
"Village","Nhanga","Nhanga","Nhanga","Nhanga","Mozambique","Zambezia","Mopeia","Mopeia sede | Nzanza","NA","NA","NA"
"Village","Nzanza","Nzanza","Nzanza","Nzanza","Mozambique","Zambezia","Mopeia","Mopeia sede | Nzanza","NA","NA","NA"
"Village","Veloso","Veloso","Veloso","Veloso","Mozambique","Zambezia","Mopeia","Mopeia sede | Nzanza","NA","NA","NA"
"Village","Other","Other","Outro","Nyingine","Mozambique","Zambezia","Mopeia","Mopeia sede | Nzanza","NA","NA","NA"
"Village","Botao","Botao","Botao","Botao","Mozambique","Zambezia","Mopeia","Mopeia sede | Rovuma/Conho","NA","NA","NA"
"Village","Majambe","Majambe","Majambe","Majambe","Mozambique","Zambezia","Mopeia","Mopeia sede | Rovuma/Conho","NA","NA","NA"
"Village","Ndingo","Ndingo","Ndingo","Ndingo","Mozambique","Zambezia","Mopeia","Mopeia sede | Rovuma/Conho","NA","NA","NA"
"Village","Other","Other","Outro","Nyingine","Mozambique","Zambezia","Mopeia","Mopeia sede | Rovuma/Conho","NA","NA","NA"
"Village","Chimuara","Chimuara","Chimuara","Chimuara","Mozambique","Zambezia","Mopeia","Mopeia sede | Sambalendo","NA","NA","NA"
"Village","Manbucha","Manbucha","Manbucha","Manbucha","Mozambique","Zambezia","Mopeia","Mopeia sede | Sambalendo","NA","NA","NA"
"Village","Noere","Noere","Noere","Noere","Mozambique","Zambezia","Mopeia","Mopeia sede | Sambalendo","NA","NA","NA"
"Village","Noere-Coleche","Noere-Coleche","Noere-Coleche","Noere-Coleche","Mozambique","Zambezia","Mopeia","Mopeia sede | Sambalendo","NA","NA","NA"
"Village","Noere-Nhamizinga","Noere-Nhamizinga","Noere-Nhamizinga","Noere-Nhamizinga","Mozambique","Zambezia","Mopeia","Mopeia sede | Sambalendo","NA","NA","NA"
"Village","Nzero","Nzero","Nzero","Nzero","Mozambique","Zambezia","Mopeia","Mopeia sede | Sambalendo","NA","NA","NA"
"Village","Sambalendo","Sambalendo","Sambalendo","Sambalendo","Mozambique","Zambezia","Mopeia","Mopeia sede | Sambalendo","NA","NA","NA"
"Village","Other","Other","Outro","Nyingine","Mozambique","Zambezia","Mopeia","Mopeia sede | Sambalendo","NA","NA","NA"
"Village","Other","Other","Outro","Nyingine","Mozambique","Zambezia","Mopeia","Other","NA","NA","NA"
"Village","Other","Other","Outro","Nyingine","Mozambique","Zambezia","Other","Other","NA","NA","NA"
"Village","Other","Other","Outro","Nyingine","Tanzania","Other","Other","Other","NA","NA","NA"
"Village","Bungu A","Bungu A","Bungu A","Bungu A","Tanzania","Pwani","Kibiti DC","Bungu","NA","NA","NA"
"Village","Bungu B","Bungu B","Bungu B","Bungu B","Tanzania","Pwani","Kibiti DC","Bungu","NA","NA","NA"
"Village","Mangombela","Mangombela","Mangombela","Mangombela","Tanzania","Pwani","Kibiti DC","Bungu","NA","NA","NA"
"Village","Msafiri","Msafiri","Msafiri","Msafiri","Tanzania","Pwani","Kibiti DC","Bungu","NA","NA","NA"
"Village","Nyambili","Nyambili","Nyambili","Nyambili","Tanzania","Pwani","Kibiti DC","Bungu","NA","NA","NA"
"Village","Nyambunda","Nyambunda","Nyambunda","Nyambunda","Tanzania","Pwani","Kibiti DC","Bungu","NA","NA","NA"
"Village","Pagae","Pagae","Pagae","Pagae","Tanzania","Pwani","Kibiti DC","Bungu","NA","NA","NA"
"Village","Other","Other","Outro","Nyingine","Tanzania","Pwani","Kibiti DC","Bungu","NA","NA","NA"
"Village","Bondeni","Bondeni","Bondeni","Bondeni","Tanzania","Pwani","Kibiti DC","Dimani","NA","NA","NA"
"Village","Dimani","Dimani","Dimani","Dimani","Tanzania","Pwani","Kibiti DC","Dimani","NA","NA","NA"
"Village","Dimani A","Dimani A","Dimani A","Dimani A","Tanzania","Pwani","Kibiti DC","Dimani","NA","NA","NA"
"Village","Dimani B","Dimani B","Dimani B","Dimani B","Tanzania","Pwani","Kibiti DC","Dimani","NA","NA","NA"
"Village","Kilimbili","Kilimbili","Kilimbili","Kilimbili","Tanzania","Pwani","Kibiti DC","Dimani","NA","NA","NA"
"Village","Kimbuga","Kimbuga","Kimbuga","Kimbuga","Tanzania","Pwani","Kibiti DC","Dimani","NA","NA","NA"
"Village","Ng'ambo","Ng'ambo","Ng'ambo","Ng'ambo","Tanzania","Pwani","Kibiti DC","Dimani","NA","NA","NA"
"Village","Ngulakula","Ngulakula","Ngulakula","Ngulakula","Tanzania","Pwani","Kibiti DC","Dimani","NA","NA","NA"
"Village","Nyambangala","Nyambangala","Nyambangala","Nyambangala","Tanzania","Pwani","Kibiti DC","Dimani","NA","NA","NA"
"Village","Penda Kimbuga","Penda Kimbuga","Penda Kimbuga","Penda Kimbuga","Tanzania","Pwani","Kibiti DC","Dimani","NA","NA","NA"
"Village","Penda Miwaga","Penda Miwaga","Penda Miwaga","Penda Miwaga","Tanzania","Pwani","Kibiti DC","Dimani","NA","NA","NA"
"Village","Other","Other","Outro","Nyingine","Tanzania","Pwani","Kibiti DC","Dimani","NA","NA","NA"
"Village","Kibiti Kati","Kibiti Kati","Kibiti Kati","Kibiti Kati","Tanzania","Pwani","Kibiti DC","Kibiti","NA","NA","NA"
"Village","Kibiti Kusini","Kibiti Kusini","Kibiti Kusini","Kibiti Kusini","Tanzania","Pwani","Kibiti DC","Kibiti","NA","NA","NA"
"Village","Kingwira","Kingwira","Kingwira","Kingwira","Tanzania","Pwani","Kibiti DC","Kibiti","NA","NA","NA"
"Village","Kitembo","Kitembo","Kitembo","Kitembo","Tanzania","Pwani","Kibiti DC","Kibiti","NA","NA","NA"
"Village","Lumyonzi","Lumyonzi","Lumyonzi","Lumyonzi","Tanzania","Pwani","Kibiti DC","Kibiti","NA","NA","NA"
"Village","Makaoni","Makaoni","Makaoni","Makaoni","Tanzania","Pwani","Kibiti DC","Kibiti","NA","NA","NA"
"Village","Mbebetini","Mbebetini","Mbebetini","Mbebetini","Tanzania","Pwani","Kibiti DC","Kibiti","NA","NA","NA"
"Village","Mkubuge","Mkubuge","Mkubuge","Mkubuge","Tanzania","Pwani","Kibiti DC","Kibiti","NA","NA","NA"
"Village","Mkundi","Mkundi","Mkundi","Mkundi","Tanzania","Pwani","Kibiti DC","Kibiti","NA","NA","NA"
"Village","Nyamakingili","Nyamakingili","Nyamakingili","Nyamakingili","Tanzania","Pwani","Kibiti DC","Kibiti","NA","NA","NA"
"Village","Nyangwego","Nyangwego","Nyangwego","Nyangwego","Tanzania","Pwani","Kibiti DC","Kibiti","NA","NA","NA"
"Village","Nyatanga","Nyatanga","Nyatanga","Nyatanga","Tanzania","Pwani","Kibiti DC","Kibiti","NA","NA","NA"
"Village","Sokoni","Sokoni","Sokoni","Sokoni","Tanzania","Pwani","Kibiti DC","Kibiti","NA","NA","NA"
"Village","Zimbwini","Zimbwini","Zimbwini","Zimbwini","Tanzania","Pwani","Kibiti DC","Kibiti","NA","NA","NA"
"Village","Other","Other","Outro","Nyingine","Tanzania","Pwani","Kibiti DC","Kibiti","NA","NA","NA"
"Village","Jaja","Jaja","Jaja","Jaja","Tanzania","Pwani","Kibiti DC","Kiongoroni","NA","NA","NA"
"Village","Kiongoroni","Kiongoroni","Kiongoroni","Kiongoroni","Tanzania","Pwani","Kibiti DC","Kiongoroni","NA","NA","NA"
"Village","Pombwe","Pombwe","Pombwe","Pombwe","Tanzania","Pwani","Kibiti DC","Kiongoroni","NA","NA","NA"
"Village","Ruma","Ruma","Ruma","Ruma","Tanzania","Pwani","Kibiti DC","Kiongoroni","NA","NA","NA"
"Village","Other","Other","Outro","Nyingine","Tanzania","Pwani","Kibiti DC","Kiongoroni","NA","NA","NA"
"Village","Hanga","Hanga","Hanga","Hanga","Tanzania","Pwani","Kibiti DC","Mahege","NA","NA","NA"
"Village","Mahege","Mahege","Mahege","Mahege","Tanzania","Pwani","Kibiti DC","Mahege","NA","NA","NA"
"Village","Nyakinyo","Nyakinyo","Nyakinyo","Nyakinyo","Tanzania","Pwani","Kibiti DC","Mahege","NA","NA","NA"
"Village","Nyanjati","Nyanjati","Nyanjati","Nyanjati","Tanzania","Pwani","Kibiti DC","Mahege","NA","NA","NA"
"Village","Tomoni","Tomoni","Tomoni","Tomoni","Tanzania","Pwani","Kibiti DC","Mahege","NA","NA","NA"
"Village","Other","Other","Outro","Nyingine","Tanzania","Pwani","Kibiti DC","Mahege","NA","NA","NA"
"Village","Kiechuru","Kiechuru","Kiechuru","Kiechuru","Tanzania","Pwani","Kibiti DC","Maparoni","NA","NA","NA"
"Village","Maparoni","Maparoni","Maparoni","Maparoni","Tanzania","Pwani","Kibiti DC","Maparoni","NA","NA","NA"
"Village","Other","Other","Outro","Nyingine","Tanzania","Pwani","Kibiti DC","Maparoni","NA","NA","NA"
"Village","Mbuchi","Mbuchi","Mbuchi","Mbuchi","Tanzania","Pwani","Kibiti DC","Mbuchi","NA","NA","NA"
"Village","Mbwera Magharibi","Mbwera Magharibi","Mbwera Magharibi","Mbwera Magharibi","Tanzania","Pwani","Kibiti DC","Mbuchi","NA","NA","NA"
"Village","Mbwera Mashariki","Mbwera Mashariki","Mbwera Mashariki","Mbwera Mashariki","Tanzania","Pwani","Kibiti DC","Mbuchi","NA","NA","NA"
"Village","Other","Other","Outro","Nyingine","Tanzania","Pwani","Kibiti DC","Mbuchi","NA","NA","NA"
"Village","Mangwi","Mangwi","Mangwi","Mangwi","Tanzania","Pwani","Kibiti DC","Mchukwi","NA","NA","NA"
"Village","Mchukwi A","Mchukwi A","Mchukwi A","Mchukwi A","Tanzania","Pwani","Kibiti DC","Mchukwi","NA","NA","NA"
"Village","Mchukwi B","Mchukwi B","Mchukwi B","Mchukwi B","Tanzania","Pwani","Kibiti DC","Mchukwi","NA","NA","NA"
"Village","Mkupuka","Mkupuka","Mkupuka","Mkupuka","Tanzania","Pwani","Kibiti DC","Mchukwi","NA","NA","NA"
"Village","Other","Other","Outro","Nyingine","Tanzania","Pwani","Kibiti DC","Mchukwi","NA","NA","NA"
"Village","Jaribu Magharibi","Jaribu Magharibi","Jaribu Magharibi","Jaribu Magharibi","Tanzania","Pwani","Kibiti DC","Mjawa","NA","NA","NA"
"Village","Jaribu Mpakani","Jaribu Mpakani","Jaribu Mpakani","Jaribu Mpakani","Tanzania","Pwani","Kibiti DC","Mjawa","NA","NA","NA"
"Village","Mjawa","Mjawa","Mjawa","Mjawa","Tanzania","Pwani","Kibiti DC","Mjawa","NA","NA","NA"
"Village","Motomoto","Motomoto","Motomoto","Motomoto","Tanzania","Pwani","Kibiti DC","Mjawa","NA","NA","NA"
"Village","Ngalengwa","Ngalengwa","Ngalengwa","Ngalengwa","Tanzania","Pwani","Kibiti DC","Mjawa","NA","NA","NA"
"Village","Uchembe","Uchembe","Uchembe","Uchembe","Tanzania","Pwani","Kibiti DC","Mjawa","NA","NA","NA"
"Village","Uponda","Uponda","Uponda","Uponda","Tanzania","Pwani","Kibiti DC","Mjawa","NA","NA","NA"
"Village","Other","Other","Outro","Nyingine","Tanzania","Pwani","Kibiti DC","Mjawa","NA","NA","NA"
"Village","Machipi","Machipi","Machipi","Machipi","Tanzania","Pwani","Kibiti DC","Mlanzi","NA","NA","NA"
"Village","Mlanzi","Mlanzi","Mlanzi","Mlanzi","Tanzania","Pwani","Kibiti DC","Mlanzi","NA","NA","NA"
"Village","Ngondae","Ngondae","Ngondae","Ngondae","Tanzania","Pwani","Kibiti DC","Mlanzi","NA","NA","NA"
"Village","Nyamwimbe","Nyamwimbe","Nyamwimbe","Nyamwimbe","Tanzania","Pwani","Kibiti DC","Mlanzi","NA","NA","NA"
"Village","Other","Other","Outro","Nyingine","Tanzania","Pwani","Kibiti DC","Mlanzi","NA","NA","NA"
"Village","Kiasi","Kiasi","Kiasi","Kiasi","Tanzania","Pwani","Kibiti DC","Msala","NA","NA","NA"
"Village","Msala","Msala","Msala","Msala","Tanzania","Pwani","Kibiti DC","Msala","NA","NA","NA"
"Village","Twasalie","Twasalie","Twasalie","Twasalie","Tanzania","Pwani","Kibiti DC","Msala","NA","NA","NA"
"Village","Other","Other","Outro","Nyingine","Tanzania","Pwani","Kibiti DC","Msala","NA","NA","NA"
"Village","Bumba","Bumba","Bumba","Bumba","Tanzania","Pwani","Kibiti DC","Mtawanya","NA","NA","NA"
"Village","Kinyanya Kati","Kinyanya Kati","Kinyanya Kati","Kinyanya Kati","Tanzania","Pwani","Kibiti DC","Mtawanya","NA","NA","NA"
"Village","Magogo Matatu","Magogo Matatu","Magogo Matatu","Magogo Matatu","Tanzania","Pwani","Kibiti DC","Mtawanya","NA","NA","NA"
"Village","Mikendo","Mikendo","Mikendo","Mikendo","Tanzania","Pwani","Kibiti DC","Mtawanya","NA","NA","NA"
"Village","Mkunama","Mkunama","Mkunama","Mkunama","Tanzania","Pwani","Kibiti DC","Mtawanya","NA","NA","NA"
"Village","Msoro","Msoro","Msoro","Msoro","Tanzania","Pwani","Kibiti DC","Mtawanya","NA","NA","NA"
"Village","Mulandecha","Mulandecha","Mulandecha","Mulandecha","Tanzania","Pwani","Kibiti DC","Mtawanya","NA","NA","NA"
"Village","Roja","Roja","Roja","Roja","Tanzania","Pwani","Kibiti DC","Mtawanya","NA","NA","NA"
"Village","Ugezi","Ugezi","Ugezi","Ugezi","Tanzania","Pwani","Kibiti DC","Mtawanya","NA","NA","NA"
"Village","Umatumbi","Umatumbi","Umatumbi","Umatumbi","Tanzania","Pwani","Kibiti DC","Mtawanya","NA","NA","NA"
"Village","Umikendo","Umikendo","Umikendo","Umikendo","Tanzania","Pwani","Kibiti DC","Mtawanya","NA","NA","NA"
"Village","Unyamlani","Unyamlani","Unyamlani","Unyamlani","Tanzania","Pwani","Kibiti DC","Mtawanya","NA","NA","NA"
"Village","Upazi","Upazi","Upazi","Upazi","Tanzania","Pwani","Kibiti DC","Mtawanya","NA","NA","NA"
"Village","Uzomboko","Uzomboko","Uzomboko","Uzomboko","Tanzania","Pwani","Kibiti DC","Mtawanya","NA","NA","NA"
"Village","Other","Other","Outro","Nyingine","Tanzania","Pwani","Kibiti DC","Mtawanya","NA","NA","NA"
"Village","Kikale","Kikale","Kikale","Kikale","Tanzania","Pwani","Kibiti DC","Mtunda","NA","NA","NA"
"Village","Mtunda A","Mtunda A","Mtunda A","Mtunda A","Tanzania","Pwani","Kibiti DC","Mtunda","NA","NA","NA"
"Village","Mtunda B","Mtunda B","Mtunda B","Mtunda B","Tanzania","Pwani","Kibiti DC","Mtunda","NA","NA","NA"
"Village","Muyuyu","Muyuyu","Muyuyu","Muyuyu","Tanzania","Pwani","Kibiti DC","Mtunda","NA","NA","NA"
"Village","Other","Other","Outro","Nyingine","Tanzania","Pwani","Kibiti DC","Mtunda","NA","NA","NA"
"Village","Kigunguli","Kigunguli","Kigunguli","Kigunguli","Tanzania","Pwani","Kibiti DC","Mwambao","NA","NA","NA"
"Village","Kivinja A","Kivinja A","Kivinja A","Kivinja A","Tanzania","Pwani","Kibiti DC","Mwambao","NA","NA","NA"
"Village","Kivinja B","Kivinja B","Kivinja B","Kivinja B","Tanzania","Pwani","Kibiti DC","Mwambao","NA","NA","NA"
"Village","Mchungu","Mchungu","Mchungu","Mchungu","Tanzania","Pwani","Kibiti DC","Mwambao","NA","NA","NA"
"Village","Mkenda","Mkenda","Mkenda","Mkenda","Tanzania","Pwani","Kibiti DC","Mwambao","NA","NA","NA"
"Village","Msindaji","Msindaji","Msindaji","Msindaji","Tanzania","Pwani","Kibiti DC","Mwambao","NA","NA","NA"
"Village","Other","Other","Outro","Nyingine","Tanzania","Pwani","Kibiti DC","Mwambao","NA","NA","NA"
"Village","Kilulatambwe","Kilulatambwe","Kilulatambwe","Kilulatambwe","Tanzania","Pwani","Kibiti DC","Ruaruke","NA","NA","NA"
"Village","Nyamatanga","Nyamatanga","Nyamatanga","Nyamatanga","Tanzania","Pwani","Kibiti DC","Ruaruke","NA","NA","NA"
"Village","Ruaruke A","Ruaruke A","Ruaruke A","Ruaruke A","Tanzania","Pwani","Kibiti DC","Ruaruke","NA","NA","NA"
"Village","Ruaruke B","Ruaruke B","Ruaruke B","Ruaruke B","Tanzania","Pwani","Kibiti DC","Ruaruke","NA","NA","NA"
"Village","Rungungu","Rungungu","Rungungu","Rungungu","Tanzania","Pwani","Kibiti DC","Ruaruke","NA","NA","NA"
"Village","Other","Other","Outro","Nyingine","Tanzania","Pwani","Kibiti DC","Ruaruke","NA","NA","NA"
"Village","Kiomboni","Kiomboni","Kiomboni","Kiomboni","Tanzania","Pwani","Kibiti DC","Salale","NA","NA","NA"
"Village","Mchinga","Mchinga","Mchinga","Mchinga","Tanzania","Pwani","Kibiti DC","Salale","NA","NA","NA"
"Village","Mfisini","Mfisini","Mfisini","Mfisini","Tanzania","Pwani","Kibiti DC","Salale","NA","NA","NA"
"Village","Nyamisati","Nyamisati","Nyamisati","Nyamisati","Tanzania","Pwani","Kibiti DC","Salale","NA","NA","NA"
"Village","Other","Other","Outro","Nyingine","Tanzania","Pwani","Kibiti DC","Salale","NA","NA","NA"
"Village","Other","Other","Outro","Nyingine","Tanzania","Pwani","Kibiti DC","Other","NA","NA","NA"
"Village","Golani","Golani","Golani","Golani","Tanzania","Pwani","Rufiji DC","Chemchem","NA","NA","NA"
"Village","Kindwiti/Kidwitwi","Kindwiti/Kidwitwi","Kindwiti/Kidwitwi","Kindwiti/Kidwitwi","Tanzania","Pwani","Rufiji DC","Chemchem","NA","NA","NA"
"Village","Kipei","Kipei","Kipei","Kipei","Tanzania","Pwani","Rufiji DC","Chemchem","NA","NA","NA"
"Village","Nyandakatundu","Nyandakatundu","Nyandakatundu","Nyandakatundu","Tanzania","Pwani","Rufiji DC","Chemchem","NA","NA","NA"
"Village","Nyandumbi","Nyandumbi","Nyandumbi","Nyandumbi","Tanzania","Pwani","Rufiji DC","Chemchem","NA","NA","NA"
"Village","Nyangwai","Nyangwai","Nyangwai","Nyangwai","Tanzania","Pwani","Rufiji DC","Chemchem","NA","NA","NA"
"Village","Nyawanje/Ngwembele","Nyawanje/Ngwembele","Nyawanje/Ngwembele","Nyawanje/Ngwembele","Tanzania","Pwani","Rufiji DC","Chemchem","NA","NA","NA"
"Village","Other","Other","Outro","Nyingine","Tanzania","Pwani","Rufiji DC","Chemchem","NA","NA","NA"
"Village","Chumbi A","Chumbi A","Chumbi A","Chumbi A","Tanzania","Pwani","Rufiji DC","Chumbi","NA","NA","NA"
"Village","Chumbi B","Chumbi B","Chumbi B","Chumbi B","Tanzania","Pwani","Rufiji DC","Chumbi","NA","NA","NA"
"Village","Chumbi C","Chumbi C","Chumbi C","Chumbi C","Tanzania","Pwani","Rufiji DC","Chumbi","NA","NA","NA"
"Village","Other","Other","Outro","Nyingine","Tanzania","Pwani","Rufiji DC","Chumbi","NA","NA","NA"
"Village","Ikwiriri Kaskazini","Ikwiriri Kaskazini","Ikwiriri Kaskazini","Ikwiriri Kaskazini","Tanzania","Pwani","Rufiji DC","Ikwiriri","NA","NA","NA"
"Village","Ikwiriri Kati","Ikwiriri Kati","Ikwiriri Kati","Ikwiriri Kati","Tanzania","Pwani","Rufiji DC","Ikwiriri","NA","NA","NA"
"Village","Ikwiriri Kusini","Ikwiriri Kusini","Ikwiriri Kusini","Ikwiriri Kusini","Tanzania","Pwani","Rufiji DC","Ikwiriri","NA","NA","NA"
"Village","Other","Other","Outro","Nyingine","Tanzania","Pwani","Rufiji DC","Ikwiriri","NA","NA","NA"
"Village","Kipo","Kipo","Kipo","Kipo","Tanzania","Pwani","Rufiji DC","Kipugira","NA","NA","NA"
"Village","Kipugira","Kipugira","Kipugira","Kipugira","Tanzania","Pwani","Rufiji DC","Kipugira","NA","NA","NA"
"Village","Ndundunyikanza","Ndundunyikanza","Ndundunyikanza","Ndundunyikanza","Tanzania","Pwani","Rufiji DC","Kipugira","NA","NA","NA"
"Village","Nyaminywili","Nyaminywili","Nyaminywili","Nyaminywili","Tanzania","Pwani","Rufiji DC","Kipugira","NA","NA","NA"
"Village","Other","Other","Outro","Nyingine","Tanzania","Pwani","Rufiji DC","Kipugira","NA","NA","NA"
"Village","Kitapi","Kitapi","Kitapi","Kitapi","Tanzania","Pwani","Rufiji DC","Mbwara","NA","NA","NA"
"Village","Mbwara","Mbwara","Mbwara","Mbwara","Tanzania","Pwani","Rufiji DC","Mbwara","NA","NA","NA"
"Village","Nambunju","Nambunju","Nambunju","Nambunju","Tanzania","Pwani","Rufiji DC","Mbwara","NA","NA","NA"
"Village","Nyamwage","Nyamwage","Nyamwage","Nyamwage","Tanzania","Pwani","Rufiji DC","Mbwara","NA","NA","NA"
"Village","Tawi","Tawi","Tawi","Tawi","Tanzania","Pwani","Rufiji DC","Mbwara","NA","NA","NA"
"Village","Other","Other","Outro","Nyingine","Tanzania","Pwani","Rufiji DC","Mbwara","NA","NA","NA"
"Village","Mgomba Kaskazini","Mgomba Kaskazini","Mgomba Kaskazini","Mgomba Kaskazini","Tanzania","Pwani","Rufiji DC","Mgomba","NA","NA","NA"
"Village","Mgomba Kati","Mgomba Kati","Mgomba Kati","Mgomba Kati","Tanzania","Pwani","Rufiji DC","Mgomba","NA","NA","NA"
"Village","Mgomba Kusini","Mgomba Kusini","Mgomba Kusini","Mgomba Kusini","Tanzania","Pwani","Rufiji DC","Mgomba","NA","NA","NA"
"Village","Other","Other","Outro","Nyingine","Tanzania","Pwani","Rufiji DC","Mgomba","NA","NA","NA"
"Village","Mbunju Mvuleni","Mbunju Mvuleni","Mbunju Mvuleni","Mbunju Mvuleni","Tanzania","Pwani","Rufiji DC","Mkongo","NA","NA","NA"
"Village","Mkongo Kaskazini","Mkongo Kaskazini","Mkongo Kaskazini","Mkongo Kaskazini","Tanzania","Pwani","Rufiji DC","Mkongo","NA","NA","NA"
"Village","Mkongo Kusini","Mkongo Kusini","Mkongo Kusini","Mkongo Kusini","Tanzania","Pwani","Rufiji DC","Mkongo","NA","NA","NA"
"Village","Ruwe","Ruwe","Ruwe","Ruwe","Tanzania","Pwani","Rufiji DC","Mkongo","NA","NA","NA"
"Village","Other","Other","Outro","Nyingine","Tanzania","Pwani","Rufiji DC","Mkongo","NA","NA","NA"
"Village","King'ong'o","King'ong'o","King'ong'o","King'ong'o","Tanzania","Pwani","Rufiji DC","Mohoro","NA","NA","NA"
"Village","Kiwanga","Kiwanga","Kiwanga","Kiwanga","Tanzania","Pwani","Rufiji DC","Mohoro","NA","NA","NA"
"Village","Mohoro Magharibi","Mohoro Magharibi","Mohoro Magharibi","Mohoro Magharibi","Tanzania","Pwani","Rufiji DC","Mohoro","NA","NA","NA"
"Village","Mohoro Mashariki","Mohoro Mashariki","Mohoro Mashariki","Mohoro Mashariki","Tanzania","Pwani","Rufiji DC","Mohoro","NA","NA","NA"
"Village","Ndundutawa","Ndundutawa","Ndundutawa","Ndundutawa","Tanzania","Pwani","Rufiji DC","Mohoro","NA","NA","NA"
"Village","Shela","Shela","Shela","Shela","Tanzania","Pwani","Rufiji DC","Mohoro","NA","NA","NA"
"Village","Other","Other","Outro","Nyingine","Tanzania","Pwani","Rufiji DC","Mohoro","NA","NA","NA"
"Village","Mloka","Mloka","Mloka","Mloka","Tanzania","Pwani","Rufiji DC","Mwaseni","NA","NA","NA"
"Village","Mtanza /Msona","Mtanza /Msona","Mtanza /Msona","Mtanza /Msona","Tanzania","Pwani","Rufiji DC","Mwaseni","NA","NA","NA"
"Village","Mwaseni","Mwaseni","Mwaseni","Mwaseni","Tanzania","Pwani","Rufiji DC","Mwaseni","NA","NA","NA"
"Village","Other","Other","Outro","Nyingine","Tanzania","Pwani","Rufiji DC","Mwaseni","NA","NA","NA"
"Village","Kungulwe","Kungulwe","Kungulwe","Kungulwe","Tanzania","Pwani","Rufiji DC","Ngarambe","NA","NA","NA"
"Village","Namakono","Namakono","Namakono","Namakono","Tanzania","Pwani","Rufiji DC","Ngarambe","NA","NA","NA"
"Village","Ngarambe Mashariki","Ngarambe Mashariki","Ngarambe Mashariki","Ngarambe Mashariki","Tanzania","Pwani","Rufiji DC","Ngarambe","NA","NA","NA"
"Village","Ngarambemagharibi","Ngarambemagharibi","Ngarambemagharibi","Ngarambemagharibi","Tanzania","Pwani","Rufiji DC","Ngarambe","NA","NA","NA"
"Village","Tapika","Tapika","Tapika","Tapika","Tanzania","Pwani","Rufiji DC","Ngarambe","NA","NA","NA"
"Village","Other","Other","Outro","Nyingine","Tanzania","Pwani","Rufiji DC","Ngarambe","NA","NA","NA"
"Village","Kilimani Magharibi","Kilimani Magharibi","Kilimani Magharibi","Kilimani Magharibi","Tanzania","Pwani","Rufiji DC","Ngorongo","NA","NA","NA"
"Village","Kilimani Mashariki","Kilimani Mashariki","Kilimani Mashariki","Kilimani Mashariki","Tanzania","Pwani","Rufiji DC","Ngorongo","NA","NA","NA"
"Village","Ngorongo Magharibi","Ngorongo Magharibi","Ngorongo Magharibi","Ngorongo Magharibi","Tanzania","Pwani","Rufiji DC","Ngorongo","NA","NA","NA"
"Village","Ngorongo Mashariki","Ngorongo Mashariki","Ngorongo Mashariki","Ngorongo Mashariki","Tanzania","Pwani","Rufiji DC","Ngorongo","NA","NA","NA"
"Village","Other","Other","Outro","Nyingine","Tanzania","Pwani","Rufiji DC","Ngorongo","NA","NA","NA"
"Village","Umwe Kaskazini","Umwe Kaskazini","Umwe Kaskazini","Umwe Kaskazini","Tanzania","Pwani","Rufiji DC","Umwe","NA","NA","NA"
"Village","Umwe Kati","Umwe Kati","Umwe Kati","Umwe Kati","Tanzania","Pwani","Rufiji DC","Umwe","NA","NA","NA"
"Village","Umwe Kusini","Umwe Kusini","Umwe Kusini","Umwe Kusini","Tanzania","Pwani","Rufiji DC","Umwe","NA","NA","NA"
"Village","Other","Other","Outro","Nyingine","Tanzania","Pwani","Rufiji DC","Umwe","NA","NA","NA"
"Village","Kitundu","Kitundu","Kitundu","Kitundu","Tanzania","Pwani","Rufiji DC","Utete","NA","NA","NA"
"Village","Kiwili","Kiwili","Kiwili","Kiwili","Tanzania","Pwani","Rufiji DC","Utete","NA","NA","NA"
"Village","Siasa","Siasa","Siasa","Siasa","Tanzania","Pwani","Rufiji DC","Utete","NA","NA","NA"
"Village","Other","Other","Outro","Nyingine","Tanzania","Pwani","Rufiji DC","Utete","NA","NA","NA"
"Village","Other","Other","Outro","Nyingine","Tanzania","Pwani","Rufiji DC","Other","NA","NA","NA"
"Village","Other","Other","Outro","Nyingine","Tanzania","Pwani","Other","Other","NA","NA","NA"
"Village","Other","Other","Outro","Nyingine","Other","Other","Other","Other","NA","NA","NA"
"Hamlet","Other","Other","Outro","Nyingine","Mozambique","Other","Other","Other","Other","NA","NA"
"Hamlet","25 de Setembro","25 de Setembro","25 de Setembro","25 de Setembro","Mozambique","Zambezia","Mopeia","Campo | Campo sede","Mongana","NA","NA"
"Hamlet","3 de Fevereiro","3 de Fevereiro","3 de Fevereiro","3 de Fevereiro","Mozambique","Zambezia","Mopeia","Campo | Campo sede","Mongana","NA","NA"
"Hamlet","4 de Outubro sede","4 de Outubro sede","4 de Outubro sede","4 de Outubro sede","Mozambique","Zambezia","Mopeia","Campo | Campo sede","Mongana","NA","NA"
"Hamlet","Acordos de Lusaka","Acordos de Lusaka","Acordos de Lusaka","Acordos de Lusaka","Mozambique","Zambezia","Mopeia","Campo | Campo sede","Mongana","NA","NA"
"Hamlet","Bariela","Bariela","Bariela","Bariela","Mozambique","Zambezia","Mopeia","Campo | Campo sede","Mongana","NA","NA"
"Hamlet","Cafe","Cafe","Cafe","Cafe","Mozambique","Zambezia","Mopeia","Campo | Campo sede","Mongana","NA","NA"
"Hamlet","Caixote","Caixote","Caixote","Caixote","Mozambique","Zambezia","Mopeia","Campo | Campo sede","Mongana","NA","NA"
"Hamlet","Cuerelo A","Cuerelo A","Cuerelo A","Cuerelo A","Mozambique","Zambezia","Mopeia","Campo | Campo sede","Mongana","NA","NA"
"Hamlet","Cundine","Cundine","Cundine","Cundine","Mozambique","Zambezia","Mopeia","Campo | Campo sede","Mongana","NA","NA"
"Hamlet","Filipe Nyusi","Filipe Nyusi","Filipe Nyusi","Filipe Nyusi","Mozambique","Zambezia","Mopeia","Campo | Campo sede","Mongana","NA","NA"
"Hamlet","Jorissa","Jorissa","Jorissa","Jorissa","Mozambique","Zambezia","Mopeia","Campo | Campo sede","Mongana","NA","NA"
"Hamlet","Mucombezi velho","Mucombezi velho","Mucombezi velho","Mucombezi velho","Mozambique","Zambezia","Mopeia","Campo | Campo sede","Mongana","NA","NA"
"Hamlet","Mussampnia","Mussampnia","Mussampnia","Mussampnia","Mozambique","Zambezia","Mopeia","Campo | Campo sede","Mongana","NA","NA"
"Hamlet","Ntxenga","Ntxenga","Ntxenga","Ntxenga","Mozambique","Zambezia","Mopeia","Campo | Campo sede","Mongana","NA","NA"
"Hamlet","Pempe","Pempe","Pempe","Pempe","Mozambique","Zambezia","Mopeia","Campo | Campo sede","Mongana","NA","NA"
"Hamlet","Sololo","Sololo","Sololo","Sololo","Mozambique","Zambezia","Mopeia","Campo | Campo sede","Mongana","NA","NA"
"Hamlet","Other","Other","Outro","Nyingine","Mozambique","Zambezia","Mopeia","Campo | Campo sede","Mongana","NA","NA"
"Hamlet","Arvai","Arvai","Arvai","Arvai","Mozambique","Zambezia","Mopeia","Campo | Campo sede","Mugurrumba","NA","NA"
"Hamlet","Bantene","Bantene","Bantene","Bantene","Mozambique","Zambezia","Mopeia","Campo | Campo sede","Mugurrumba","NA","NA"
"Hamlet","Batelao","Batelao","Batelao","Batelao","Mozambique","Zambezia","Mopeia","Campo | Campo sede","Mugurrumba","NA","NA"
"Hamlet","Chimindwe","Chimindwe","Chimindwe","Chimindwe","Mozambique","Zambezia","Mopeia","Campo | Campo sede","Mugurrumba","NA","NA"
"Hamlet","Danhau","Danhau","Danhau","Danhau","Mozambique","Zambezia","Mopeia","Campo | Campo sede","Mugurrumba","NA","NA"
"Hamlet","Gamba-Draban","Gamba-Draban","Gamba-Draban","Gamba-Draban","Mozambique","Zambezia","Mopeia","Campo | Campo sede","Mugurrumba","NA","NA"
"Hamlet","Gonda","Gonda","Gonda","Gonda","Mozambique","Zambezia","Mopeia","Campo | Campo sede","Mugurrumba","NA","NA"
"Hamlet","Junca","Junca","Junca","Junca","Mozambique","Zambezia","Mopeia","Campo | Campo sede","Mugurrumba","NA","NA"
"Hamlet","Lhendha","Lhendha","Lhendha","Lhendha","Mozambique","Zambezia","Mopeia","Campo | Campo sede","Mugurrumba","NA","NA"
"Hamlet","Maliganpase","Maliganpase","Maliganpase","Maliganpase","Mozambique","Zambezia","Mopeia","Campo | Campo sede","Mugurrumba","NA","NA"
"Hamlet","Mugurrumba Sede","Mugurrumba Sede","Mugurrumba Sede","Mugurrumba Sede","Mozambique","Zambezia","Mopeia","Campo | Campo sede","Mugurrumba","NA","NA"
"Hamlet","Nhambade","Nhambade","Nhambade","Nhambade","Mozambique","Zambezia","Mopeia","Campo | Campo sede","Mugurrumba","NA","NA"
"Hamlet","Nhamicoco","Nhamicoco","Nhamicoco","Nhamicoco","Mozambique","Zambezia","Mopeia","Campo | Campo sede","Mugurrumba","NA","NA"
"Hamlet","Nhando","Nhando","Nhando","Nhando","Mozambique","Zambezia","Mopeia","Campo | Campo sede","Mugurrumba","NA","NA"
"Hamlet","Nhanga","Nhanga","Nhanga","Nhanga","Mozambique","Zambezia","Mopeia","Campo | Campo sede","Mugurrumba","NA","NA"
"Hamlet","Nsando","Nsando","Nsando","Nsando","Mozambique","Zambezia","Mopeia","Campo | Campo sede","Mugurrumba","NA","NA"
"Hamlet","Prego","Prego","Prego","Prego","Mozambique","Zambezia","Mopeia","Campo | Campo sede","Mugurrumba","NA","NA"
"Hamlet","Tonganhica","Tonganhica","Tonganhica","Tonganhica","Mozambique","Zambezia","Mopeia","Campo | Campo sede","Mugurrumba","NA","NA"
"Hamlet","Other","Other","Outro","Nyingine","Mozambique","Zambezia","Mopeia","Campo | Campo sede","Mugurrumba","NA","NA"
"Hamlet","Sacuane","Sacuane","Sacuane","Sacuane","Mozambique","Zambezia","Mopeia","Campo | Campo sede","Sacuane","NA","NA"
"Hamlet","Other","Other","Outro","Nyingine","Mozambique","Zambezia","Mopeia","Campo | Campo sede","Sacuane","NA","NA"
"Hamlet","Mindune","Mindune","Mindune","Mindune","Mozambique","Zambezia","Mopeia","Campo | Campo sede","Samurenge","NA","NA"
"Hamlet","Other","Other","Outro","Nyingine","Mozambique","Zambezia","Mopeia","Campo | Campo sede","Samurenge","NA","NA"
"Hamlet","Calongola","Calongola","Calongola","Calongola","Mozambique","Zambezia","Mopeia","Campo | Campo sede","Samurrenge","NA","NA"
"Hamlet","China","China","China","China","Mozambique","Zambezia","Mopeia","Campo | Campo sede","Samurrenge","NA","NA"
"Hamlet","Dula","Dula","Dula","Dula","Mozambique","Zambezia","Mopeia","Campo | Campo sede","Samurrenge","NA","NA"
"Hamlet","Ngunguline","Ngunguline","Ngunguline","Ngunguline","Mozambique","Zambezia","Mopeia","Campo | Campo sede","Samurrenge","NA","NA"
"Hamlet","Nolie","Nolie","Nolie","Nolie","Mozambique","Zambezia","Mopeia","Campo | Campo sede","Samurrenge","NA","NA"
"Hamlet","Txicalo","Txicalo","Txicalo","Txicalo","Mozambique","Zambezia","Mopeia","Campo | Campo sede","Samurrenge","NA","NA"
"Hamlet","Other","Other","Outro","Nyingine","Mozambique","Zambezia","Mopeia","Campo | Campo sede","Samurrenge","NA","NA"
"Hamlet","1 de Maio","1 de Maio","1 de Maio","1 de Maio","Mozambique","Zambezia","Mopeia","Campo | Campo sede","Zuze","NA","NA"
"Hamlet","19 de Outubro","19 de Outubro","19 de Outubro","19 de Outubro","Mozambique","Zambezia","Mopeia","Campo | Campo sede","Zuze","NA","NA"
"Hamlet","25 de Junho","25 de Junho","25 de Junho","25 de Junho","Mozambique","Zambezia","Mopeia","Campo | Campo sede","Zuze","NA","NA"
"Hamlet","4 de Outubro","4 de Outubro","4 de Outubro","4 de Outubro","Mozambique","Zambezia","Mopeia","Campo | Campo sede","Zuze","NA","NA"
"Hamlet","7 de abril","7 de abril","7 de abril","7 de abril","Mozambique","Zambezia","Mopeia","Campo | Campo sede","Zuze","NA","NA"
"Hamlet","7 de Setembro","7 de Setembro","7 de Setembro","7 de Setembro","Mozambique","Zambezia","Mopeia","Campo | Campo sede","Zuze","NA","NA"
"Hamlet","8 de Marco","8 de Marco","8 de Marco","8 de Marco","Mozambique","Zambezia","Mopeia","Campo | Campo sede","Zuze","NA","NA"
"Hamlet","Armando E Guebuza","Armando E Guebuza","Armando E Guebuza","Armando E Guebuza","Mozambique","Zambezia","Mopeia","Campo | Campo sede","Zuze","NA","NA"
"Hamlet","Assiate","Assiate","Assiate","Assiate","Mozambique","Zambezia","Mopeia","Campo | Campo sede","Zuze","NA","NA"
"Hamlet","Bajone","Bajone","Bajone","Bajone","Mozambique","Zambezia","Mopeia","Campo | Campo sede","Zuze","NA","NA"
"Hamlet","Eduardo Mondlane","Eduardo Mondlane","Eduardo Mondlane","Eduardo Mondlane","Mozambique","Zambezia","Mopeia","Campo | Campo sede","Zuze","NA","NA"
"Hamlet","Filipe Nyusi","Filipe Nyusi","Filipe Nyusi","Filipe Nyusi","Mozambique","Zambezia","Mopeia","Campo | Campo sede","Zuze","NA","NA"
"Hamlet","Joaquim Chissano","Joaquim Chissano","Joaquim Chissano","Joaquim Chissano","Mozambique","Zambezia","Mopeia","Campo | Campo sede","Zuze","NA","NA"
"Hamlet","Josina Machel","Josina Machel","Josina Machel","Josina Machel","Mozambique","Zambezia","Mopeia","Campo | Campo sede","Zuze","NA","NA"
"Hamlet","LiconJe","LiconJe","LiconJe","LiconJe","Mozambique","Zambezia","Mopeia","Campo | Campo sede","Zuze","NA","NA"
"Hamlet","Maina","Maina","Maina","Maina","Mozambique","Zambezia","Mopeia","Campo | Campo sede","Zuze","NA","NA"
"Hamlet","Milange","Milange","Milange","Milange","Mozambique","Zambezia","Mopeia","Campo | Campo sede","Zuze","NA","NA"
"Hamlet","Namitala","Namitala","Namitala","Namitala","Mozambique","Zambezia","Mopeia","Campo | Campo sede","Zuze","NA","NA"
"Hamlet","Nhungulo","Nhungulo","Nhungulo","Nhungulo","Mozambique","Zambezia","Mopeia","Campo | Campo sede","Zuze","NA","NA"
"Hamlet","Paz","Paz","Paz","Paz","Mozambique","Zambezia","Mopeia","Campo | Campo sede","Zuze","NA","NA"
"Hamlet","Samaral","Samaral","Samaral","Samaral","Mozambique","Zambezia","Mopeia","Campo | Campo sede","Zuze","NA","NA"
"Hamlet","Samora Machel","Samora Machel","Samora Machel","Samora Machel","Mozambique","Zambezia","Mopeia","Campo | Campo sede","Zuze","NA","NA"
"Hamlet","Other","Other","Outro","Nyingine","Mozambique","Zambezia","Mopeia","Campo | Campo sede","Zuze","NA","NA"
"Hamlet","Other","Other","Outro","Nyingine","Mozambique","Zambezia","Mopeia","Campo | Campo sede","Other","NA","NA"
"Hamlet","1 de Maio","1 de Maio","1 de Maio","1 de Maio","Mozambique","Zambezia","Mopeia","Campo | Catale","Catale","NA","NA"
"Hamlet","25 de Junho","25 de Junho","25 de Junho","25 de Junho","Mozambique","Zambezia","Mopeia","Campo | Catale","Catale","NA","NA"
"Hamlet","25 de Setembro","25 de Setembro","25 de Setembro","25 de Setembro","Mozambique","Zambezia","Mopeia","Campo | Catale","Catale","NA","NA"
"Hamlet","4 de Outubro","4 de Outubro","4 de Outubro","4 de Outubro","Mozambique","Zambezia","Mopeia","Campo | Catale","Catale","NA","NA"
"Hamlet","7 de Abril","7 de Abril","7 de Abril","7 de Abril","Mozambique","Zambezia","Mopeia","Campo | Catale","Catale","NA","NA"
"Hamlet","Andale","Andale","Andale","Andale","Mozambique","Zambezia","Mopeia","Campo | Catale","Catale","NA","NA"
"Hamlet","Antonio","Antonio","Antonio","Antonio","Mozambique","Zambezia","Mopeia","Campo | Catale","Catale","NA","NA"
"Hamlet","Changaue","Changaue","Changaue","Changaue","Mozambique","Zambezia","Mopeia","Campo | Catale","Catale","NA","NA"
"Hamlet","Licasse","Licasse","Licasse","Licasse","Mozambique","Zambezia","Mopeia","Campo | Catale","Catale","NA","NA"
"Hamlet","Manhai","Manhai","Manhai","Manhai","Mozambique","Zambezia","Mopeia","Campo | Catale","Catale","NA","NA"
"Hamlet","Mbawala","Mbawala","Mbawala","Mbawala","Mozambique","Zambezia","Mopeia","Campo | Catale","Catale","NA","NA"
"Hamlet","Morais","Morais","Morais","Morais","Mozambique","Zambezia","Mopeia","Campo | Catale","Catale","NA","NA"
"Hamlet","Muacaniua","Muacaniua","Muacaniua","Muacaniua","Mozambique","Zambezia","Mopeia","Campo | Catale","Catale","NA","NA"
"Hamlet","Murrongone","Murrongone","Murrongone","Murrongone","Mozambique","Zambezia","Mopeia","Campo | Catale","Catale","NA","NA"
"Hamlet","Namaria","Namaria","Namaria","Namaria","Mozambique","Zambezia","Mopeia","Campo | Catale","Catale","NA","NA"
"Hamlet","Nhagoanine","Nhagoanine","Nhagoanine","Nhagoanine","Mozambique","Zambezia","Mopeia","Campo | Catale","Catale","NA","NA"
"Hamlet","Panela","Panela","Panela","Panela","Mozambique","Zambezia","Mopeia","Campo | Catale","Catale","NA","NA"
"Hamlet","Raposo","Raposo","Raposo","Raposo","Mozambique","Zambezia","Mopeia","Campo | Catale","Catale","NA","NA"
"Hamlet","Waluto","Waluto","Waluto","Waluto","Mozambique","Zambezia","Mopeia","Campo | Catale","Catale","NA","NA"
"Hamlet","Other","Other","Outro","Nyingine","Mozambique","Zambezia","Mopeia","Campo | Catale","Catale","NA","NA"
"Hamlet","Other","Other","Outro","Nyingine","Mozambique","Zambezia","Mopeia","Campo | Catale","Other","NA","NA"
"Hamlet","Cadongo","Cadongo","Cadongo","Cadongo","Mozambique","Zambezia","Mopeia","Campo | Luala","Cadongo","NA","NA"
"Hamlet","Other","Other","Outro","Nyingine","Mozambique","Zambezia","Mopeia","Campo | Luala","Cadongo","NA","NA"
"Hamlet","Caline A","Caline A","Caline A","Caline A","Mozambique","Zambezia","Mopeia","Campo | Luala","Caline","NA","NA"
"Hamlet","Caline B","Caline B","Caline B","Caline B","Mozambique","Zambezia","Mopeia","Campo | Luala","Caline","NA","NA"
"Hamlet","Micombezi","Micombezi","Micombezi","Micombezi","Mozambique","Zambezia","Mopeia","Campo | Luala","Caline","NA","NA"
"Hamlet","Nansenguene","Nansenguene","Nansenguene","Nansenguene","Mozambique","Zambezia","Mopeia","Campo | Luala","Caline","NA","NA"
"Hamlet","Other","Other","Outro","Nyingine","Mozambique","Zambezia","Mopeia","Campo | Luala","Caline","NA","NA"
"Hamlet","Chiurine","Chiurine","Chiurine","Chiurine","Mozambique","Zambezia","Mopeia","Campo | Luala","Chiurine","NA","NA"
"Hamlet","Other","Other","Outro","Nyingine","Mozambique","Zambezia","Mopeia","Campo | Luala","Chiurine","NA","NA"
"Hamlet","Macossoera","Macossoera","Macossoera","Macossoera","Mozambique","Zambezia","Mopeia","Campo | Luala","Cuerelo","NA","NA"
"Hamlet","Magodone","Magodone","Magodone","Magodone","Mozambique","Zambezia","Mopeia","Campo | Luala","Cuerelo","NA","NA"
"Hamlet","Other","Other","Outro","Nyingine","Mozambique","Zambezia","Mopeia","Campo | Luala","Cuerelo","NA","NA"
"Hamlet","Lima A","Lima A","Lima A","Lima A","Mozambique","Zambezia","Mopeia","Campo | Luala","Lima","NA","NA"
"Hamlet","Lima B","Lima B","Lima B","Lima B","Mozambique","Zambezia","Mopeia","Campo | Luala","Lima","NA","NA"
"Hamlet","Namitangurine","Namitangurine","Namitangurine","Namitangurine","Mozambique","Zambezia","Mopeia","Campo | Luala","Lima","NA","NA"
"Hamlet","Nhamazemba","Nhamazemba","Nhamazemba","Nhamazemba","Mozambique","Zambezia","Mopeia","Campo | Luala","Lima","NA","NA"
"Hamlet","Other","Other","Outro","Nyingine","Mozambique","Zambezia","Mopeia","Campo | Luala","Lima","NA","NA"
"Hamlet","1 de Junho","1 de Junho","1 de Junho","1 de Junho","Mozambique","Zambezia","Mopeia","Campo | Luala","Lua lua","NA","NA"
"Hamlet","1 de Maio","1 de Maio","1 de Maio","1 de Maio","Mozambique","Zambezia","Mopeia","Campo | Luala","Lua lua","NA","NA"
"Hamlet","25 de Junho","25 de Junho","25 de Junho","25 de Junho","Mozambique","Zambezia","Mopeia","Campo | Luala","Lua lua","NA","NA"
"Hamlet","3 de Fevereiro","3 de Fevereiro","3 de Fevereiro","3 de Fevereiro","Mozambique","Zambezia","Mopeia","Campo | Luala","Lua lua","NA","NA"
"Hamlet","3 de Marco","3 de Marco","3 de Marco","3 de Marco","Mozambique","Zambezia","Mopeia","Campo | Luala","Lua lua","NA","NA"
"Hamlet","7 de Abril B","7 de Abril B","7 de Abril B","7 de Abril B","Mozambique","Zambezia","Mopeia","Campo | Luala","Lua lua","NA","NA"
"Hamlet","Acordos de Lusaka","Acordos de Lusaka","Acordos de Lusaka","Acordos de Lusaka","Mozambique","Zambezia","Mopeia","Campo | Luala","Lua lua","NA","NA"
"Hamlet","Ceta A","Ceta A","Ceta A","Ceta A","Mozambique","Zambezia","Mopeia","Campo | Luala","Lua lua","NA","NA"
"Hamlet","Ceta B","Ceta B","Ceta B","Ceta B","Mozambique","Zambezia","Mopeia","Campo | Luala","Lua lua","NA","NA"
"Hamlet","Cuerelo A","Cuerelo A","Cuerelo A","Cuerelo A","Mozambique","Zambezia","Mopeia","Campo | Luala","Lua lua","NA","NA"
"Hamlet","Cuerelo B","Cuerelo B","Cuerelo B","Cuerelo B","Mozambique","Zambezia","Mopeia","Campo | Luala","Lua lua","NA","NA"
"Hamlet","Julius Nyerere","Julius Nyerere","Julius Nyerere","Julius Nyerere","Mozambique","Zambezia","Mopeia","Campo | Luala","Lua lua","NA","NA"
"Hamlet","Liberdade","Liberdade","Liberdade","Liberdade","Mozambique","Zambezia","Mopeia","Campo | Luala","Lua lua","NA","NA"
"Hamlet","Mauia","Mauia","Mauia","Mauia","Mozambique","Zambezia","Mopeia","Campo | Luala","Lua lua","NA","NA"
"Hamlet","Mirrongone","Mirrongone","Mirrongone","Mirrongone","Mozambique","Zambezia","Mopeia","Campo | Luala","Lua lua","NA","NA"
"Hamlet","Mudiba","Mudiba","Mudiba","Mudiba","Mozambique","Zambezia","Mopeia","Campo | Luala","Lua lua","NA","NA"
"Hamlet","Nasarone","Nasarone","Nasarone","Nasarone","Mozambique","Zambezia","Mopeia","Campo | Luala","Lua lua","NA","NA"
"Hamlet","Paz","Paz","Paz","Paz","Mozambique","Zambezia","Mopeia","Campo | Luala","Lua lua","NA","NA"
"Hamlet","Samora Machel","Samora Machel","Samora Machel","Samora Machel","Mozambique","Zambezia","Mopeia","Campo | Luala","Lua lua","NA","NA"
"Hamlet","Other","Other","Outro","Nyingine","Mozambique","Zambezia","Mopeia","Campo | Luala","Lua lua","NA","NA"
"Hamlet","25 de Setembro","25 de Setembro","25 de Setembro","25 de Setembro","Mozambique","Zambezia","Mopeia","Campo | Luala","Lua Lua","NA","NA"
"Hamlet","7 de Abril A","7 de Abril A","7 de Abril A","7 de Abril A","Mozambique","Zambezia","Mopeia","Campo | Luala","Lua Lua","NA","NA"
"Hamlet","Other","Other","Outro","Nyingine","Mozambique","Zambezia","Mopeia","Campo | Luala","Lua Lua","NA","NA"
"Hamlet","Nhamirimba","Nhamirimba","Nhamirimba","Nhamirimba","Mozambique","Zambezia","Mopeia","Campo | Luala","Luala","NA","NA"
"Hamlet","Simogo","Simogo","Simogo","Simogo","Mozambique","Zambezia","Mopeia","Campo | Luala","Luala","NA","NA"
"Hamlet","Other","Other","Outro","Nyingine","Mozambique","Zambezia","Mopeia","Campo | Luala","Luala","NA","NA"
"Hamlet","Mirebe","Mirebe","Mirebe","Mirebe","Mozambique","Zambezia","Mopeia","Campo | Luala","Mpiaeca","NA","NA"
"Hamlet","Mpiaeca","Mpiaeca","Mpiaeca","Mpiaeca","Mozambique","Zambezia","Mopeia","Campo | Luala","Mpiaeca","NA","NA"
"Hamlet","Mpolossa","Mpolossa","Mpolossa","Mpolossa","Mozambique","Zambezia","Mopeia","Campo | Luala","Mpiaeca","NA","NA"
"Hamlet","Nuando","Nuando","Nuando","Nuando","Mozambique","Zambezia","Mopeia","Campo | Luala","Mpiaeca","NA","NA"
"Hamlet","Other","Other","Outro","Nyingine","Mozambique","Zambezia","Mopeia","Campo | Luala","Mpiaeca","NA","NA"
"Hamlet","Rimba","Rimba","Rimba","Rimba","Mozambique","Zambezia","Mopeia","Campo | Luala","Rimba","NA","NA"
"Hamlet","Rimba B","Rimba B","Rimba B","Rimba B","Mozambique","Zambezia","Mopeia","Campo | Luala","Rimba","NA","NA"
"Hamlet","Other","Other","Outro","Nyingine","Mozambique","Zambezia","Mopeia","Campo | Luala","Rimba","NA","NA"
"Hamlet","1 de Junho A","1 de Junho A","1 de Junho A","1 de Junho A","Mozambique","Zambezia","Mopeia","Campo | Luala","Simogo","NA","NA"
"Hamlet","7 de Abril A","7 de Abril A","7 de Abril A","7 de Abril A","Mozambique","Zambezia","Mopeia","Campo | Luala","Simogo","NA","NA"
"Hamlet","7 de Abril B","7 de Abril B","7 de Abril B","7 de Abril B","Mozambique","Zambezia","Mopeia","Campo | Luala","Simogo","NA","NA"
"Hamlet","7 de Abril C","7 de Abril C","7 de Abril C","7 de Abril C","Mozambique","Zambezia","Mopeia","Campo | Luala","Simogo","NA","NA"
"Hamlet","Other","Other","Outro","Nyingine","Mozambique","Zambezia","Mopeia","Campo | Luala","Simogo","NA","NA"
"Hamlet","Sitone","Sitone","Sitone","Sitone","Mozambique","Zambezia","Mopeia","Campo | Luala","Sitone","NA","NA"
"Hamlet","Other","Other","Outro","Nyingine","Mozambique","Zambezia","Mopeia","Campo | Luala","Sitone","NA","NA"
"Hamlet","Other","Other","Outro","Nyingine","Mozambique","Zambezia","Mopeia","Campo | Luala","Other","NA","NA"
"Hamlet","Micajune","Micajune","Micajune","Micajune","Mozambique","Zambezia","Mopeia","Campo | Mungane","Avalinho","NA","NA"
"Hamlet","Mipurune","Mipurune","Mipurune","Mipurune","Mozambique","Zambezia","Mopeia","Campo | Mungane","Avalinho","NA","NA"
"Hamlet","Namicole","Namicole","Namicole","Namicole","Mozambique","Zambezia","Mopeia","Campo | Mungane","Avalinho","NA","NA"
"Hamlet","Other","Other","Outro","Nyingine","Mozambique","Zambezia","Mopeia","Campo | Mungane","Avalinho","NA","NA"
"Hamlet","Avareia","Avareia","Avareia","Avareia","Mozambique","Zambezia","Mopeia","Campo | Mungane","Biringuinho","NA","NA"
"Hamlet","Compone","Compone","Compone","Compone","Mozambique","Zambezia","Mopeia","Campo | Mungane","Biringuinho","NA","NA"
"Hamlet","Muanamaino","Muanamaino","Muanamaino","Muanamaino","Mozambique","Zambezia","Mopeia","Campo | Mungane","Biringuinho","NA","NA"
"Hamlet","Mungombe","Mungombe","Mungombe","Mungombe","Mozambique","Zambezia","Mopeia","Campo | Mungane","Biringuinho","NA","NA"
"Hamlet","Pambane","Pambane","Pambane","Pambane","Mozambique","Zambezia","Mopeia","Campo | Mungane","Biringuinho","NA","NA"
"Hamlet","Other","Other","Outro","Nyingine","Mozambique","Zambezia","Mopeia","Campo | Mungane","Biringuinho","NA","NA"
"Hamlet","Guia","Guia","Guia","Guia","Mozambique","Zambezia","Mopeia","Campo | Mungane","Chirama","NA","NA"
"Hamlet","Luala","Luala","Luala","Luala","Mozambique","Zambezia","Mopeia","Campo | Mungane","Chirama","NA","NA"
"Hamlet","Mirerene","Mirerene","Mirerene","Mirerene","Mozambique","Zambezia","Mopeia","Campo | Mungane","Chirama","NA","NA"
"Hamlet","Zengue","Zengue","Zengue","Zengue","Mozambique","Zambezia","Mopeia","Campo | Mungane","Chirama","NA","NA"
"Hamlet","Other","Other","Outro","Nyingine","Mozambique","Zambezia","Mopeia","Campo | Mungane","Chirama","NA","NA"
"Hamlet","Other","Other","Outro","Nyingine","Mozambique","Zambezia","Mopeia","Campo | Mungane","Other","NA","NA"
"Hamlet","25 de Setembro","25 de Setembro","25 de Setembro","25 de Setembro","Mozambique","Zambezia","Mopeia","Mopeia sede | Cuacua","Chamanga","NA","NA"
"Hamlet","Ambrosio","Ambrosio","Ambrosio","Ambrosio","Mozambique","Zambezia","Mopeia","Mopeia sede | Cuacua","Chamanga","NA","NA"
"Hamlet","Bone","Bone","Bone","Bone","Mozambique","Zambezia","Mopeia","Mopeia sede | Cuacua","Chamanga","NA","NA"
"Hamlet","Chimpene","Chimpene","Chimpene","Chimpene","Mozambique","Zambezia","Mopeia","Mopeia sede | Cuacua","Chamanga","NA","NA"
"Hamlet","Chipire","Chipire","Chipire","Chipire","Mozambique","Zambezia","Mopeia","Mopeia sede | Cuacua","Chamanga","NA","NA"
"Hamlet","Chitequeteque","Chitequeteque","Chitequeteque","Chitequeteque","Mozambique","Zambezia","Mopeia","Mopeia sede | Cuacua","Chamanga","NA","NA"
"Hamlet","Chizimba","Chizimba","Chizimba","Chizimba","Mozambique","Zambezia","Mopeia","Mopeia sede | Cuacua","Chamanga","NA","NA"
"Hamlet","Cua cua muana","Cua cua muana","Cua cua muana","Cua cua muana","Mozambique","Zambezia","Mopeia","Mopeia sede | Cuacua","Chamanga","NA","NA"
"Hamlet","Dande","Dande","Dande","Dande","Mozambique","Zambezia","Mopeia","Mopeia sede | Cuacua","Chamanga","NA","NA"
"Hamlet","Eduardo Mondlane","Eduardo Mondlane","Eduardo Mondlane","Eduardo Mondlane","Mozambique","Zambezia","Mopeia","Mopeia sede | Cuacua","Chamanga","NA","NA"
"Hamlet","Gemusse","Gemusse","Gemusse","Gemusse","Mozambique","Zambezia","Mopeia","Mopeia sede | Cuacua","Chamanga","NA","NA"
"Hamlet","Malulo","Malulo","Malulo","Malulo","Mozambique","Zambezia","Mopeia","Mopeia sede | Cuacua","Chamanga","NA","NA"
"Hamlet","Massancare","Massancare","Massancare","Massancare","Mozambique","Zambezia","Mopeia","Mopeia sede | Cuacua","Chamanga","NA","NA"
"Hamlet","Mazalo","Mazalo","Mazalo","Mazalo","Mozambique","Zambezia","Mopeia","Mopeia sede | Cuacua","Chamanga","NA","NA"
"Hamlet","Mitchiu","Mitchiu","Mitchiu","Mitchiu","Mozambique","Zambezia","Mopeia","Mopeia sede | Cuacua","Chamanga","NA","NA"
"Hamlet","Muriwa","Muriwa","Muriwa","Muriwa","Mozambique","Zambezia","Mopeia","Mopeia sede | Cuacua","Chamanga","NA","NA"
"Hamlet","Muto A","Muto A","Muto A","Muto A","Mozambique","Zambezia","Mopeia","Mopeia sede | Cuacua","Chamanga","NA","NA"
"Hamlet","Muto B","Muto B","Muto B","Muto B","Mozambique","Zambezia","Mopeia","Mopeia sede | Cuacua","Chamanga","NA","NA"
"Hamlet","Namacheta","Namacheta","Namacheta","Namacheta","Mozambique","Zambezia","Mopeia","Mopeia sede | Cuacua","Chamanga","NA","NA"
"Hamlet","Ndima Mangaze","Ndima Mangaze","Ndima Mangaze","Ndima Mangaze","Mozambique","Zambezia","Mopeia","Mopeia sede | Cuacua","Chamanga","NA","NA"
"Hamlet","Nhaminga","Nhaminga","Nhaminga","Nhaminga","Mozambique","Zambezia","Mopeia","Mopeia sede | Cuacua","Chamanga","NA","NA"
"Hamlet","Nhangona","Nhangona","Nhangona","Nhangona","Mozambique","Zambezia","Mopeia","Mopeia sede | Cuacua","Chamanga","NA","NA"
"Hamlet","Norte","Norte","Norte","Norte","Mozambique","Zambezia","Mopeia","Mopeia sede | Cuacua","Chamanga","NA","NA"
"Hamlet","Tewe","Tewe","Tewe","Tewe","Mozambique","Zambezia","Mopeia","Mopeia sede | Cuacua","Chamanga","NA","NA"
"Hamlet","Zangatupe","Zangatupe","Zangatupe","Zangatupe","Mozambique","Zambezia","Mopeia","Mopeia sede | Cuacua","Chamanga","NA","NA"
"Hamlet","Zona Verde A","Zona Verde A","Zona Verde A","Zona Verde A","Mozambique","Zambezia","Mopeia","Mopeia sede | Cuacua","Chamanga","NA","NA"
"Hamlet","Zona Verde B","Zona Verde B","Zona Verde B","Zona Verde B","Mozambique","Zambezia","Mopeia","Mopeia sede | Cuacua","Chamanga","NA","NA"
"Hamlet","Other","Other","Outro","Nyingine","Mozambique","Zambezia","Mopeia","Mopeia sede | Cuacua","Chamanga","NA","NA"
"Hamlet","Alfredo","Alfredo","Alfredo","Alfredo","Mozambique","Zambezia","Mopeia","Mopeia sede | Cuacua","Dombe","NA","NA"
"Hamlet","Benejuaque","Benejuaque","Benejuaque","Benejuaque","Mozambique","Zambezia","Mopeia","Mopeia sede | Cuacua","Dombe","NA","NA"
"Hamlet","Chicote","Chicote","Chicote","Chicote","Mozambique","Zambezia","Mopeia","Mopeia sede | Cuacua","Dombe","NA","NA"
"Hamlet","Chunga","Chunga","Chunga","Chunga","Mozambique","Zambezia","Mopeia","Mopeia sede | Cuacua","Dombe","NA","NA"
"Hamlet","Cubalalica","Cubalalica","Cubalalica","Cubalalica","Mozambique","Zambezia","Mopeia","Mopeia sede | Cuacua","Dombe","NA","NA"
"Hamlet","Mbalame","Mbalame","Mbalame","Mbalame","Mozambique","Zambezia","Mopeia","Mopeia sede | Cuacua","Dombe","NA","NA"
"Hamlet","Nzondoene","Nzondoene","Nzondoene","Nzondoene","Mozambique","Zambezia","Mopeia","Mopeia sede | Cuacua","Dombe","NA","NA"
"Hamlet","Posso","Posso","Posso","Posso","Mozambique","Zambezia","Mopeia","Mopeia sede | Cuacua","Dombe","NA","NA"
"Hamlet","Sabesse","Sabesse","Sabesse","Sabesse","Mozambique","Zambezia","Mopeia","Mopeia sede | Cuacua","Dombe","NA","NA"
"Hamlet","Other","Other","Outro","Nyingine","Mozambique","Zambezia","Mopeia","Mopeia sede | Cuacua","Dombe","NA","NA"
"Hamlet","24 de Julho","24 de Julho","24 de Julho","24 de Julho","Mozambique","Zambezia","Mopeia","Mopeia sede | Cuacua","Marruma","NA","NA"
"Hamlet","24 de Julho B","24 de Julho B","24 de Julho B","24 de Julho B","Mozambique","Zambezia","Mopeia","Mopeia sede | Cuacua","Marruma","NA","NA"
"Hamlet","25 de Junho","25 de Junho","25 de Junho","25 de Junho","Mozambique","Zambezia","Mopeia","Mopeia sede | Cuacua","Marruma","NA","NA"
"Hamlet","4 de Outubro","4 de Outubro","4 de Outubro","4 de Outubro","Mozambique","Zambezia","Mopeia","Mopeia sede | Cuacua","Marruma","NA","NA"
"Hamlet","7 de Abril","7 de Abril","7 de Abril","7 de Abril","Mozambique","Zambezia","Mopeia","Mopeia sede | Cuacua","Marruma","NA","NA"
"Hamlet","8 de Marco","8 de Marco","8 de Marco","8 de Marco","Mozambique","Zambezia","Mopeia","Mopeia sede | Cuacua","Marruma","NA","NA"
"Hamlet","Agostinho Neto","Agostinho Neto","Agostinho Neto","Agostinho Neto","Mozambique","Zambezia","Mopeia","Mopeia sede | Cuacua","Marruma","NA","NA"
"Hamlet","Armando Emilio Guebuza","Armando Emilio Guebuza","Armando Emilio Guebuza","Armando Emilio Guebuza","Mozambique","Zambezia","Mopeia","Mopeia sede | Cuacua","Marruma","NA","NA"
"Hamlet","Chiverano","Chiverano","Chiverano","Chiverano","Mozambique","Zambezia","Mopeia","Mopeia sede | Cuacua","Marruma","NA","NA"
"Hamlet","Cimento","Cimento","Cimento","Cimento","Mozambique","Zambezia","Mopeia","Mopeia sede | Cuacua","Marruma","NA","NA"
"Hamlet","Forca da Mudanca","Forca da Mudanca","Forca da Mudanca","Forca da Mudanca","Mozambique","Zambezia","Mopeia","Mopeia sede | Cuacua","Marruma","NA","NA"
"Hamlet","Josina Machel","Josina Machel","Josina Machel","Josina Machel","Mozambique","Zambezia","Mopeia","Mopeia sede | Cuacua","Marruma","NA","NA"
"Hamlet","Liberdade A","Liberdade A","Liberdade A","Liberdade A","Mozambique","Zambezia","Mopeia","Mopeia sede | Cuacua","Marruma","NA","NA"
"Hamlet","Liberdade B","Liberdade B","Liberdade B","Liberdade B","Mozambique","Zambezia","Mopeia","Mopeia sede | Cuacua","Marruma","NA","NA"
"Hamlet","Luta Continua","Luta Continua","Luta Continua","Luta Continua","Mozambique","Zambezia","Mopeia","Mopeia sede | Cuacua","Marruma","NA","NA"
"Hamlet","Mazembe","Mazembe","Mazembe","Mazembe","Mozambique","Zambezia","Mopeia","Mopeia sede | Cuacua","Marruma","NA","NA"
"Hamlet","Mbaua","Mbaua","Mbaua","Mbaua","Mozambique","Zambezia","Mopeia","Mopeia sede | Cuacua","Marruma","NA","NA"
"Hamlet","Mifarinha","Mifarinha","Mifarinha","Mifarinha","Mozambique","Zambezia","Mopeia","Mopeia sede | Cuacua","Marruma","NA","NA"
"Hamlet","Nhalumbanda","Nhalumbanda","Nhalumbanda","Nhalumbanda","Mozambique","Zambezia","Mopeia","Mopeia sede | Cuacua","Marruma","NA","NA"
"Hamlet","Nhamissundo","Nhamissundo","Nhamissundo","Nhamissundo","Mozambique","Zambezia","Mopeia","Mopeia sede | Cuacua","Marruma","NA","NA"
"Hamlet","Ntada","Ntada","Ntada","Ntada","Mozambique","Zambezia","Mopeia","Mopeia sede | Cuacua","Marruma","NA","NA"
"Hamlet","Serracao","Serracao","Serracao","Serracao","Mozambique","Zambezia","Mopeia","Mopeia sede | Cuacua","Marruma","NA","NA"
"Hamlet","Other","Other","Outro","Nyingine","Mozambique","Zambezia","Mopeia","Mopeia sede | Cuacua","Marruma","NA","NA"
"Hamlet","Samora Machel","Samora Machel","Samora Machel","Samora Machel","Mozambique","Zambezia","Mopeia","Mopeia sede | Cuacua","Maruma","NA","NA"
"Hamlet","Other","Other","Outro","Nyingine","Mozambique","Zambezia","Mopeia","Mopeia sede | Cuacua","Maruma","NA","NA"
"Hamlet","Mocha","Mocha","Mocha","Mocha","Mozambique","Zambezia","Mopeia","Mopeia sede | Cuacua","Mocha","NA","NA"
"Hamlet","Other","Other","Outro","Nyingine","Mozambique","Zambezia","Mopeia","Mopeia sede | Cuacua","Mocha","NA","NA"
"Hamlet","Barroso","Barroso","Barroso","Barroso","Mozambique","Zambezia","Mopeia","Mopeia sede | Cuacua","Sangalaza","NA","NA"
"Hamlet","Capece","Capece","Capece","Capece","Mozambique","Zambezia","Mopeia","Mopeia sede | Cuacua","Sangalaza","NA","NA"
"Hamlet","Cunhanhassa","Cunhanhassa","Cunhanhassa","Cunhanhassa","Mozambique","Zambezia","Mopeia","Mopeia sede | Cuacua","Sangalaza","NA","NA"
"Hamlet","Gale","Gale","Gale","Gale","Mozambique","Zambezia","Mopeia","Mopeia sede | Cuacua","Sangalaza","NA","NA"
"Hamlet","Gomoi","Gomoi","Gomoi","Gomoi","Mozambique","Zambezia","Mopeia","Mopeia sede | Cuacua","Sangalaza","NA","NA"
"Hamlet","Magamba","Magamba","Magamba","Magamba","Mozambique","Zambezia","Mopeia","Mopeia sede | Cuacua","Sangalaza","NA","NA"
"Hamlet","Mangala","Mangala","Mangala","Mangala","Mozambique","Zambezia","Mopeia","Mopeia sede | Cuacua","Sangalaza","NA","NA"
"Hamlet","Migoa","Migoa","Migoa","Migoa","Mozambique","Zambezia","Mopeia","Mopeia sede | Cuacua","Sangalaza","NA","NA"
"Hamlet","Mulaira","Mulaira","Mulaira","Mulaira","Mozambique","Zambezia","Mopeia","Mopeia sede | Cuacua","Sangalaza","NA","NA"
"Hamlet","N'goma","N'goma","N'goma","N'goma","Mozambique","Zambezia","Mopeia","Mopeia sede | Cuacua","Sangalaza","NA","NA"
"Hamlet","Nota","Nota","Nota","Nota","Mozambique","Zambezia","Mopeia","Mopeia sede | Cuacua","Sangalaza","NA","NA"
"Hamlet","Ntongolo","Ntongolo","Ntongolo","Ntongolo","Mozambique","Zambezia","Mopeia","Mopeia sede | Cuacua","Sangalaza","NA","NA"
"Hamlet","Tambalico","Tambalico","Tambalico","Tambalico","Mozambique","Zambezia","Mopeia","Mopeia sede | Cuacua","Sangalaza","NA","NA"
"Hamlet","Tesoura","Tesoura","Tesoura","Tesoura","Mozambique","Zambezia","Mopeia","Mopeia sede | Cuacua","Sangalaza","NA","NA"
"Hamlet","Tiquita","Tiquita","Tiquita","Tiquita","Mozambique","Zambezia","Mopeia","Mopeia sede | Cuacua","Sangalaza","NA","NA"
"Hamlet","Vembe","Vembe","Vembe","Vembe","Mozambique","Zambezia","Mopeia","Mopeia sede | Cuacua","Sangalaza","NA","NA"
"Hamlet","Vumbe","Vumbe","Vumbe","Vumbe","Mozambique","Zambezia","Mopeia","Mopeia sede | Cuacua","Sangalaza","NA","NA"
"Hamlet","Other","Other","Outro","Nyingine","Mozambique","Zambezia","Mopeia","Mopeia sede | Cuacua","Sangalaza","NA","NA"
"Hamlet","Other","Other","Outro","Nyingine","Mozambique","Zambezia","Mopeia","Mopeia sede | Cuacua","Other","NA","NA"
"Hamlet","Cocorico","Cocorico","Cocorico","Cocorico","Mozambique","Zambezia","Mopeia","Mopeia sede | Nzanza","Cocorico","NA","NA"
"Hamlet","Mefula","Mefula","Mefula","Mefula","Mozambique","Zambezia","Mopeia","Mopeia sede | Nzanza","Cocorico","NA","NA"
"Hamlet","Ngimbe","Ngimbe","Ngimbe","Ngimbe","Mozambique","Zambezia","Mopeia","Mopeia sede | Nzanza","Cocorico","NA","NA"
"Hamlet","Ngombe","Ngombe","Ngombe","Ngombe","Mozambique","Zambezia","Mopeia","Mopeia sede | Nzanza","Cocorico","NA","NA"
"Hamlet","Nhafimbo","Nhafimbo","Nhafimbo","Nhafimbo","Mozambique","Zambezia","Mopeia","Mopeia sede | Nzanza","Cocorico","NA","NA"
"Hamlet","Sanguimbe","Sanguimbe","Sanguimbe","Sanguimbe","Mozambique","Zambezia","Mopeia","Mopeia sede | Nzanza","Cocorico","NA","NA"
"Hamlet","Tole","Tole","Tole","Tole","Mozambique","Zambezia","Mopeia","Mopeia sede | Nzanza","Cocorico","NA","NA"
"Hamlet","Other","Other","Outro","Nyingine","Mozambique","Zambezia","Mopeia","Mopeia sede | Nzanza","Cocorico","NA","NA"
"Hamlet","Liberdade","Liberdade","Liberdade","Liberdade","Mozambique","Zambezia","Mopeia","Mopeia sede | Nzanza","Mefula","NA","NA"
"Hamlet","Mirui","Mirui","Mirui","Mirui","Mozambique","Zambezia","Mopeia","Mopeia sede | Nzanza","Mefula","NA","NA"
"Hamlet","Nsalange","Nsalange","Nsalange","Nsalange","Mozambique","Zambezia","Mopeia","Mopeia sede | Nzanza","Mefula","NA","NA"
"Hamlet","Nsondera","Nsondera","Nsondera","Nsondera","Mozambique","Zambezia","Mopeia","Mopeia sede | Nzanza","Mefula","NA","NA"
"Hamlet","Other","Other","Outro","Nyingine","Mozambique","Zambezia","Mopeia","Mopeia sede | Nzanza","Mefula","NA","NA"
"Hamlet","Armando Emilio Guebuza","Armando Emilio Guebuza","Armando Emilio Guebuza","Armando Emilio Guebuza","Mozambique","Zambezia","Mopeia","Mopeia sede | Nzanza","Nhacatundo","NA","NA"
"Hamlet","Cimento","Cimento","Cimento","Cimento","Mozambique","Zambezia","Mopeia","Mopeia sede | Nzanza","Nhacatundo","NA","NA"
"Hamlet","Cua-cua","Cua-cua","Cua-cua","Cua-cua","Mozambique","Zambezia","Mopeia","Mopeia sede | Nzanza","Nhacatundo","NA","NA"
"Hamlet","Eduardo Mondlane","Eduardo Mondlane","Eduardo Mondlane","Eduardo Mondlane","Mozambique","Zambezia","Mopeia","Mopeia sede | Nzanza","Nhacatundo","NA","NA"
"Hamlet","Janeiro","Janeiro","Janeiro","Janeiro","Mozambique","Zambezia","Mopeia","Mopeia sede | Nzanza","Nhacatundo","NA","NA"
"Hamlet","Josina Machel","Josina Machel","Josina Machel","Josina Machel","Mozambique","Zambezia","Mopeia","Mopeia sede | Nzanza","Nhacatundo","NA","NA"
"Hamlet","Liberdade","Liberdade","Liberdade","Liberdade","Mozambique","Zambezia","Mopeia","Mopeia sede | Nzanza","Nhacatundo","NA","NA"
"Hamlet","Samora Machel","Samora Machel","Samora Machel","Samora Machel","Mozambique","Zambezia","Mopeia","Mopeia sede | Nzanza","Nhacatundo","NA","NA"
"Hamlet","Other","Other","Outro","Nyingine","Mozambique","Zambezia","Mopeia","Mopeia sede | Nzanza","Nhacatundo","NA","NA"
"Hamlet","1 de Maio","1 de Maio","1 de Maio","1 de Maio","Mozambique","Zambezia","Mopeia","Mopeia sede | Nzanza","Nhamirere","NA","NA"
"Hamlet","25 de Junho","25 de Junho","25 de Junho","25 de Junho","Mozambique","Zambezia","Mopeia","Mopeia sede | Nzanza","Nhamirere","NA","NA"
"Hamlet","3 de Fevereiro","3 de Fevereiro","3 de Fevereiro","3 de Fevereiro","Mozambique","Zambezia","Mopeia","Mopeia sede | Nzanza","Nhamirere","NA","NA"
"Hamlet","Acordo de Roma","Acordo de Roma","Acordo de Roma","Acordo de Roma","Mozambique","Zambezia","Mopeia","Mopeia sede | Nzanza","Nhamirere","NA","NA"
"Hamlet","Eduardo Mondlane","Eduardo Mondlane","Eduardo Mondlane","Eduardo Mondlane","Mozambique","Zambezia","Mopeia","Mopeia sede | Nzanza","Nhamirere","NA","NA"
"Hamlet","Josina Machel","Josina Machel","Josina Machel","Josina Machel","Mozambique","Zambezia","Mopeia","Mopeia sede | Nzanza","Nhamirere","NA","NA"
"Hamlet","Nhamirere A","Nhamirere A","Nhamirere A","Nhamirere A","Mozambique","Zambezia","Mopeia","Mopeia sede | Nzanza","Nhamirere","NA","NA"
"Hamlet","Samora Machel","Samora Machel","Samora Machel","Samora Machel","Mozambique","Zambezia","Mopeia","Mopeia sede | Nzanza","Nhamirere","NA","NA"
"Hamlet","Other","Other","Outro","Nyingine","Mozambique","Zambezia","Mopeia","Mopeia sede | Nzanza","Nhamirere","NA","NA"
"Hamlet","Mazembe","Mazembe","Mazembe","Mazembe","Mozambique","Zambezia","Mopeia","Mopeia sede | Nzanza","Nhanga","NA","NA"
"Hamlet","Nsanze","Nsanze","Nsanze","Nsanze","Mozambique","Zambezia","Mopeia","Mopeia sede | Nzanza","Nhanga","NA","NA"
"Hamlet","Other","Other","Outro","Nyingine","Mozambique","Zambezia","Mopeia","Mopeia sede | Nzanza","Nhanga","NA","NA"
"Hamlet","1 de Maio","1 de Maio","1 de Maio","1 de Maio","Mozambique","Zambezia","Mopeia","Mopeia sede | Nzanza","Nzanza","NA","NA"
"Hamlet","3 de Fevereiro","3 de Fevereiro","3 de Fevereiro","3 de Fevereiro","Mozambique","Zambezia","Mopeia","Mopeia sede | Nzanza","Nzanza","NA","NA"
"Hamlet","Forca da Mudanca","Forca da Mudanca","Forca da Mudanca","Forca da Mudanca","Mozambique","Zambezia","Mopeia","Mopeia sede | Nzanza","Nzanza","NA","NA"
"Hamlet","Josina Machel","Josina Machel","Josina Machel","Josina Machel","Mozambique","Zambezia","Mopeia","Mopeia sede | Nzanza","Nzanza","NA","NA"
"Hamlet","Matantune","Matantune","Matantune","Matantune","Mozambique","Zambezia","Mopeia","Mopeia sede | Nzanza","Nzanza","NA","NA"
"Hamlet","Nzanza Sede","Nzanza Sede","Nzanza Sede","Nzanza Sede","Mozambique","Zambezia","Mopeia","Mopeia sede | Nzanza","Nzanza","NA","NA"
"Hamlet","Obra","Obra","Obra","Obra","Mozambique","Zambezia","Mopeia","Mopeia sede | Nzanza","Nzanza","NA","NA"
"Hamlet","Other","Other","Outro","Nyingine","Mozambique","Zambezia","Mopeia","Mopeia sede | Nzanza","Nzanza","NA","NA"
"Hamlet","12 de Outubro","12 de Outubro","12 de Outubro","12 de Outubro","Mozambique","Zambezia","Mopeia","Mopeia sede | Nzanza","Veloso","NA","NA"
"Hamlet","7 de Abril","7 de Abril","7 de Abril","7 de Abril","Mozambique","Zambezia","Mopeia","Mopeia sede | Nzanza","Veloso","NA","NA"
"Hamlet","Gundagunda","Gundagunda","Gundagunda","Gundagunda","Mozambique","Zambezia","Mopeia","Mopeia sede | Nzanza","Veloso","NA","NA"
"Hamlet","Muabado","Muabado","Muabado","Muabado","Mozambique","Zambezia","Mopeia","Mopeia sede | Nzanza","Veloso","NA","NA"
"Hamlet","Nhacolo","Nhacolo","Nhacolo","Nhacolo","Mozambique","Zambezia","Mopeia","Mopeia sede | Nzanza","Veloso","NA","NA"
"Hamlet","Samora Machel","Samora Machel","Samora Machel","Samora Machel","Mozambique","Zambezia","Mopeia","Mopeia sede | Nzanza","Veloso","NA","NA"
"Hamlet","Waia","Waia","Waia","Waia","Mozambique","Zambezia","Mopeia","Mopeia sede | Nzanza","Veloso","NA","NA"
"Hamlet","Other","Other","Outro","Nyingine","Mozambique","Zambezia","Mopeia","Mopeia sede | Nzanza","Veloso","NA","NA"
"Hamlet","Other","Other","Outro","Nyingine","Mozambique","Zambezia","Mopeia","Mopeia sede | Nzanza","Other","NA","NA"
"Hamlet","Botao B","Botao B","Botao B","Botao B","Mozambique","Zambezia","Mopeia","Mopeia sede | Rovuma/Conho","Botao","NA","NA"
"Hamlet","Other","Other","Outro","Nyingine","Mozambique","Zambezia","Mopeia","Mopeia sede | Rovuma/Conho","Botao","NA","NA"
"Hamlet","Alfredo","Alfredo","Alfredo","Alfredo","Mozambique","Zambezia","Mopeia","Mopeia sede | Rovuma/Conho","Majambe","NA","NA"
"Hamlet","Cumbalenga","Cumbalenga","Cumbalenga","Cumbalenga","Mozambique","Zambezia","Mopeia","Mopeia sede | Rovuma/Conho","Majambe","NA","NA"
"Hamlet","Lota","Lota","Lota","Lota","Mozambique","Zambezia","Mopeia","Mopeia sede | Rovuma/Conho","Majambe","NA","NA"
"Hamlet","Majambe","Majambe","Majambe","Majambe","Mozambique","Zambezia","Mopeia","Mopeia sede | Rovuma/Conho","Majambe","NA","NA"
"Hamlet","Misao","Misao","Misao","Misao","Mozambique","Zambezia","Mopeia","Mopeia sede | Rovuma/Conho","Majambe","NA","NA"
"Hamlet","Nhangu","Nhangu","Nhangu","Nhangu","Mozambique","Zambezia","Mopeia","Mopeia sede | Rovuma/Conho","Majambe","NA","NA"
"Hamlet","Nhangu B","Nhangu B","Nhangu B","Nhangu B","Mozambique","Zambezia","Mopeia","Mopeia sede | Rovuma/Conho","Majambe","NA","NA"
"Hamlet","Nsanzo","Nsanzo","Nsanzo","Nsanzo","Mozambique","Zambezia","Mopeia","Mopeia sede | Rovuma/Conho","Majambe","NA","NA"
"Hamlet","Ntruzao","Ntruzao","Ntruzao","Ntruzao","Mozambique","Zambezia","Mopeia","Mopeia sede | Rovuma/Conho","Majambe","NA","NA"
"Hamlet","Other","Other","Outro","Nyingine","Mozambique","Zambezia","Mopeia","Mopeia sede | Rovuma/Conho","Majambe","NA","NA"
"Hamlet","Botao","Botao","Botao","Botao","Mozambique","Zambezia","Mopeia","Mopeia sede | Rovuma/Conho","Ndingo","NA","NA"
"Hamlet","Camuedane","Camuedane","Camuedane","Camuedane","Mozambique","Zambezia","Mopeia","Mopeia sede | Rovuma/Conho","Ndingo","NA","NA"
"Hamlet","Longodze","Longodze","Longodze","Longodze","Mozambique","Zambezia","Mopeia","Mopeia sede | Rovuma/Conho","Ndingo","NA","NA"
"Hamlet","Mirerene","Mirerene","Mirerene","Mirerene","Mozambique","Zambezia","Mopeia","Mopeia sede | Rovuma/Conho","Ndingo","NA","NA"
"Hamlet","Mugubia","Mugubia","Mugubia","Mugubia","Mozambique","Zambezia","Mopeia","Mopeia sede | Rovuma/Conho","Ndingo","NA","NA"
"Hamlet","Mulimba","Mulimba","Mulimba","Mulimba","Mozambique","Zambezia","Mopeia","Mopeia sede | Rovuma/Conho","Ndingo","NA","NA"
"Hamlet","Ndingo","Ndingo","Ndingo","Ndingo","Mozambique","Zambezia","Mopeia","Mopeia sede | Rovuma/Conho","Ndingo","NA","NA"
"Hamlet","Ngangane","Ngangane","Ngangane","Ngangane","Mozambique","Zambezia","Mopeia","Mopeia sede | Rovuma/Conho","Ndingo","NA","NA"
"Hamlet","Nhamazade","Nhamazade","Nhamazade","Nhamazade","Mozambique","Zambezia","Mopeia","Mopeia sede | Rovuma/Conho","Ndingo","NA","NA"
"Hamlet","Nhaminbingue","Nhaminbingue","Nhaminbingue","Nhaminbingue","Mozambique","Zambezia","Mopeia","Mopeia sede | Rovuma/Conho","Ndingo","NA","NA"
"Hamlet","Nhamitumbine","Nhamitumbine","Nhamitumbine","Nhamitumbine","Mozambique","Zambezia","Mopeia","Mopeia sede | Rovuma/Conho","Ndingo","NA","NA"
"Hamlet","Ntinho","Ntinho","Ntinho","Ntinho","Mozambique","Zambezia","Mopeia","Mopeia sede | Rovuma/Conho","Ndingo","NA","NA"
"Hamlet","Vundo A","Vundo A","Vundo A","Vundo A","Mozambique","Zambezia","Mopeia","Mopeia sede | Rovuma/Conho","Ndingo","NA","NA"
"Hamlet","Vundo B","Vundo B","Vundo B","Vundo B","Mozambique","Zambezia","Mopeia","Mopeia sede | Rovuma/Conho","Ndingo","NA","NA"
"Hamlet","Other","Other","Outro","Nyingine","Mozambique","Zambezia","Mopeia","Mopeia sede | Rovuma/Conho","Ndingo","NA","NA"
"Hamlet","Other","Other","Outro","Nyingine","Mozambique","Zambezia","Mopeia","Mopeia sede | Rovuma/Conho","Other","NA","NA"
"Hamlet","1 de Maio","1 de Maio","1 de Maio","1 de Maio","Mozambique","Zambezia","Mopeia","Mopeia sede | Sambalendo","Chimuara","NA","NA"
"Hamlet","25 de Setembro","25 de Setembro","25 de Setembro","25 de Setembro","Mozambique","Zambezia","Mopeia","Mopeia sede | Sambalendo","Chimuara","NA","NA"
"Hamlet","3 de Fevereiro","3 de Fevereiro","3 de Fevereiro","3 de Fevereiro","Mozambique","Zambezia","Mopeia","Mopeia sede | Sambalendo","Chimuara","NA","NA"
"Hamlet","7 de Setembro","7 de Setembro","7 de Setembro","7 de Setembro","Mozambique","Zambezia","Mopeia","Mopeia sede | Sambalendo","Chimuara","NA","NA"
"Hamlet","Acordos de Lusaka","Acordos de Lusaka","Acordos de Lusaka","Acordos de Lusaka","Mozambique","Zambezia","Mopeia","Mopeia sede | Sambalendo","Chimuara","NA","NA"
"Hamlet","Chimuara Sede","Chimuara Sede","Chimuara Sede","Chimuara Sede","Mozambique","Zambezia","Mopeia","Mopeia sede | Sambalendo","Chimuara","NA","NA"
"Hamlet","Chizimba","Chizimba","Chizimba","Chizimba","Mozambique","Zambezia","Mopeia","Mopeia sede | Sambalendo","Chimuara","NA","NA"
"Hamlet","Eduardo Mondlane","Eduardo Mondlane","Eduardo Mondlane","Eduardo Mondlane","Mozambique","Zambezia","Mopeia","Mopeia sede | Sambalendo","Chimuara","NA","NA"
"Hamlet","Josina Machel","Josina Machel","Josina Machel","Josina Machel","Mozambique","Zambezia","Mopeia","Mopeia sede | Sambalendo","Chimuara","NA","NA"
"Hamlet","Julius Nyerere","Julius Nyerere","Julius Nyerere","Julius Nyerere","Mozambique","Zambezia","Mopeia","Mopeia sede | Sambalendo","Chimuara","NA","NA"
"Hamlet","Magaio","Magaio","Magaio","Magaio","Mozambique","Zambezia","Mopeia","Mopeia sede | Sambalendo","Chimuara","NA","NA"
"Hamlet","Mandawa","Mandawa","Mandawa","Mandawa","Mozambique","Zambezia","Mopeia","Mopeia sede | Sambalendo","Chimuara","NA","NA"
"Hamlet","Sangate","Sangate","Sangate","Sangate","Mozambique","Zambezia","Mopeia","Mopeia sede | Sambalendo","Chimuara","NA","NA"
"Hamlet","Somopo","Somopo","Somopo","Somopo","Mozambique","Zambezia","Mopeia","Mopeia sede | Sambalendo","Chimuara","NA","NA"
"Hamlet","Vinte","Vinte","Vinte","Vinte","Mozambique","Zambezia","Mopeia","Mopeia sede | Sambalendo","Chimuara","NA","NA"
"Hamlet","Other","Other","Outro","Nyingine","Mozambique","Zambezia","Mopeia","Mopeia sede | Sambalendo","Chimuara","NA","NA"
"Hamlet","Bangamulopa","Bangamulopa","Bangamulopa","Bangamulopa","Mozambique","Zambezia","Mopeia","Mopeia sede | Sambalendo","Manbucha","NA","NA"
"Hamlet","Mirerene","Mirerene","Mirerene","Mirerene","Mozambique","Zambezia","Mopeia","Mopeia sede | Sambalendo","Manbucha","NA","NA"
"Hamlet","Nhacavacua","Nhacavacua","Nhacavacua","Nhacavacua","Mozambique","Zambezia","Mopeia","Mopeia sede | Sambalendo","Manbucha","NA","NA"
"Hamlet","Nhamassapadanga","Nhamassapadanga","Nhamassapadanga","Nhamassapadanga","Mozambique","Zambezia","Mopeia","Mopeia sede | Sambalendo","Manbucha","NA","NA"
"Hamlet","Nhaminhanga","Nhaminhanga","Nhaminhanga","Nhaminhanga","Mozambique","Zambezia","Mopeia","Mopeia sede | Sambalendo","Manbucha","NA","NA"
"Hamlet","Nhamipama","Nhamipama","Nhamipama","Nhamipama","Mozambique","Zambezia","Mopeia","Mopeia sede | Sambalendo","Manbucha","NA","NA"
"Hamlet","Nhapumbue","Nhapumbue","Nhapumbue","Nhapumbue","Mozambique","Zambezia","Mopeia","Mopeia sede | Sambalendo","Manbucha","NA","NA"
"Hamlet","Roase","Roase","Roase","Roase","Mozambique","Zambezia","Mopeia","Mopeia sede | Sambalendo","Manbucha","NA","NA"
"Hamlet","Simenda","Simenda","Simenda","Simenda","Mozambique","Zambezia","Mopeia","Mopeia sede | Sambalendo","Manbucha","NA","NA"
"Hamlet","Xavier","Xavier","Xavier","Xavier","Mozambique","Zambezia","Mopeia","Mopeia sede | Sambalendo","Manbucha","NA","NA"
"Hamlet","Other","Other","Outro","Nyingine","Mozambique","Zambezia","Mopeia","Mopeia sede | Sambalendo","Manbucha","NA","NA"
"Hamlet","1 de Maio","1 de Maio","1 de Maio","1 de Maio","Mozambique","Zambezia","Mopeia","Mopeia sede | Sambalendo","Noere","NA","NA"
"Hamlet","4 de outubro","4 de outubro","4 de outubro","4 de outubro","Mozambique","Zambezia","Mopeia","Mopeia sede | Sambalendo","Noere","NA","NA"
"Hamlet","Armando Guebuza","Armando Guebuza","Armando Guebuza","Armando Guebuza","Mozambique","Zambezia","Mopeia","Mopeia sede | Sambalendo","Noere","NA","NA"
"Hamlet","Braz","Braz","Braz","Braz","Mozambique","Zambezia","Mopeia","Mopeia sede | Sambalendo","Noere","NA","NA"
"Hamlet","Coleche","Coleche","Coleche","Coleche","Mozambique","Zambezia","Mopeia","Mopeia sede | Sambalendo","Noere","NA","NA"
"Hamlet","Fardo","Fardo","Fardo","Fardo","Mozambique","Zambezia","Mopeia","Mopeia sede | Sambalendo","Noere","NA","NA"
"Hamlet","Josina Machel","Josina Machel","Josina Machel","Josina Machel","Mozambique","Zambezia","Mopeia","Mopeia sede | Sambalendo","Noere","NA","NA"
"Hamlet","Mambucha","Mambucha","Mambucha","Mambucha","Mozambique","Zambezia","Mopeia","Mopeia sede | Sambalendo","Noere","NA","NA"
"Hamlet","Minjale","Minjale","Minjale","Minjale","Mozambique","Zambezia","Mopeia","Mopeia sede | Sambalendo","Noere","NA","NA"
"Hamlet","Monecra A","Monecra A","Monecra A","Monecra A","Mozambique","Zambezia","Mopeia","Mopeia sede | Sambalendo","Noere","NA","NA"
"Hamlet","Monecra B","Monecra B","Monecra B","Monecra B","Mozambique","Zambezia","Mopeia","Mopeia sede | Sambalendo","Noere","NA","NA"
"Hamlet","Muntaia","Muntaia","Muntaia","Muntaia","Mozambique","Zambezia","Mopeia","Mopeia sede | Sambalendo","Noere","NA","NA"
"Hamlet","Nhamaconque","Nhamaconque","Nhamaconque","Nhamaconque","Mozambique","Zambezia","Mopeia","Mopeia sede | Sambalendo","Noere","NA","NA"
"Hamlet","Nhamive I","Nhamive I","Nhamive I","Nhamive I","Mozambique","Zambezia","Mopeia","Mopeia sede | Sambalendo","Noere","NA","NA"
"Hamlet","Nhamizinga","Nhamizinga","Nhamizinga","Nhamizinga","Mozambique","Zambezia","Mopeia","Mopeia sede | Sambalendo","Noere","NA","NA"
"Hamlet","Nhangumba","Nhangumba","Nhangumba","Nhangumba","Mozambique","Zambezia","Mopeia","Mopeia sede | Sambalendo","Noere","NA","NA"
"Hamlet","Noere","Noere","Noere","Noere","Mozambique","Zambezia","Mopeia","Mopeia sede | Sambalendo","Noere","NA","NA"
"Hamlet","Quembo","Quembo","Quembo","Quembo","Mozambique","Zambezia","Mopeia","Mopeia sede | Sambalendo","Noere","NA","NA"
"Hamlet","Samora Machel","Samora Machel","Samora Machel","Samora Machel","Mozambique","Zambezia","Mopeia","Mopeia sede | Sambalendo","Noere","NA","NA"
"Hamlet","Soares","Soares","Soares","Soares","Mozambique","Zambezia","Mopeia","Mopeia sede | Sambalendo","Noere","NA","NA"
"Hamlet","Valeta","Valeta","Valeta","Valeta","Mozambique","Zambezia","Mopeia","Mopeia sede | Sambalendo","Noere","NA","NA"
"Hamlet","Other","Other","Outro","Nyingine","Mozambique","Zambezia","Mopeia","Mopeia sede | Sambalendo","Noere","NA","NA"
"Hamlet","25 de junho","25 de junho","25 de junho","25 de junho","Mozambique","Zambezia","Mopeia","Mopeia sede | Sambalendo","Noere-Coleche","NA","NA"
"Hamlet","7 de Abril","7 de Abril","7 de Abril","7 de Abril","Mozambique","Zambezia","Mopeia","Mopeia sede | Sambalendo","Noere-Coleche","NA","NA"
"Hamlet","Chamo","Chamo","Chamo","Chamo","Mozambique","Zambezia","Mopeia","Mopeia sede | Sambalendo","Noere-Coleche","NA","NA"
"Hamlet","Conde","Conde","Conde","Conde","Mozambique","Zambezia","Mopeia","Mopeia sede | Sambalendo","Noere-Coleche","NA","NA"
"Hamlet","Josina Machel","Josina Machel","Josina Machel","Josina Machel","Mozambique","Zambezia","Mopeia","Mopeia sede | Sambalendo","Noere-Coleche","NA","NA"
"Hamlet","Mbuemba","Mbuemba","Mbuemba","Mbuemba","Mozambique","Zambezia","Mopeia","Mopeia sede | Sambalendo","Noere-Coleche","NA","NA"
"Hamlet","Nhamaceze","Nhamaceze","Nhamaceze","Nhamaceze","Mozambique","Zambezia","Mopeia","Mopeia sede | Sambalendo","Noere-Coleche","NA","NA"
"Hamlet","Nhamive I","Nhamive I","Nhamive I","Nhamive I","Mozambique","Zambezia","Mopeia","Mopeia sede | Sambalendo","Noere-Coleche","NA","NA"
"Hamlet","Other","Other","Outro","Nyingine","Mozambique","Zambezia","Mopeia","Mopeia sede | Sambalendo","Noere-Coleche","NA","NA"
"Hamlet","1 de Maio","1 de Maio","1 de Maio","1 de Maio","Mozambique","Zambezia","Mopeia","Mopeia sede | Sambalendo","Noere-Nhamizinga","NA","NA"
"Hamlet","25 de Setembro","25 de Setembro","25 de Setembro","25 de Setembro","Mozambique","Zambezia","Mopeia","Mopeia sede | Sambalendo","Noere-Nhamizinga","NA","NA"
"Hamlet","3 de Fevereiro","3 de Fevereiro","3 de Fevereiro","3 de Fevereiro","Mozambique","Zambezia","Mopeia","Mopeia sede | Sambalendo","Noere-Nhamizinga","NA","NA"
"Hamlet","4 de outubro","4 de outubro","4 de outubro","4 de outubro","Mozambique","Zambezia","Mopeia","Mopeia sede | Sambalendo","Noere-Nhamizinga","NA","NA"
"Hamlet","7 de Abril","7 de Abril","7 de Abril","7 de Abril","Mozambique","Zambezia","Mopeia","Mopeia sede | Sambalendo","Noere-Nhamizinga","NA","NA"
"Hamlet","Liberdade","Liberdade","Liberdade","Liberdade","Mozambique","Zambezia","Mopeia","Mopeia sede | Sambalendo","Noere-Nhamizinga","NA","NA"
"Hamlet","Nhaibo","Nhaibo","Nhaibo","Nhaibo","Mozambique","Zambezia","Mopeia","Mopeia sede | Sambalendo","Noere-Nhamizinga","NA","NA"
"Hamlet","Nhangua","Nhangua","Nhangua","Nhangua","Mozambique","Zambezia","Mopeia","Mopeia sede | Sambalendo","Noere-Nhamizinga","NA","NA"
"Hamlet","Other","Other","Outro","Nyingine","Mozambique","Zambezia","Mopeia","Mopeia sede | Sambalendo","Noere-Nhamizinga","NA","NA"
"Hamlet","25 de Setembro","25 de Setembro","25 de Setembro","25 de Setembro","Mozambique","Zambezia","Mopeia","Mopeia sede | Sambalendo","Nzero","NA","NA"
"Hamlet","Agostinho Neto","Agostinho Neto","Agostinho Neto","Agostinho Neto","Mozambique","Zambezia","Mopeia","Mopeia sede | Sambalendo","Nzero","NA","NA"
"Hamlet","Chitucotuco","Chitucotuco","Chitucotuco","Chitucotuco","Mozambique","Zambezia","Mopeia","Mopeia sede | Sambalendo","Nzero","NA","NA"
"Hamlet","Cimento","Cimento","Cimento","Cimento","Mozambique","Zambezia","Mopeia","Mopeia sede | Sambalendo","Nzero","NA","NA"
"Hamlet","Eduardo Mondlane","Eduardo Mondlane","Eduardo Mondlane","Eduardo Mondlane","Mozambique","Zambezia","Mopeia","Mopeia sede | Sambalendo","Nzero","NA","NA"
"Hamlet","Gulamo","Gulamo","Gulamo","Gulamo","Mozambique","Zambezia","Mopeia","Mopeia sede | Sambalendo","Nzero","NA","NA"
"Hamlet","Liberdade","Liberdade","Liberdade","Liberdade","Mozambique","Zambezia","Mopeia","Mopeia sede | Sambalendo","Nzero","NA","NA"
"Hamlet","Navena","Navena","Navena","Navena","Mozambique","Zambezia","Mopeia","Mopeia sede | Sambalendo","Nzero","NA","NA"
"Hamlet","Ncomati","Ncomati","Ncomati","Ncomati","Mozambique","Zambezia","Mopeia","Mopeia sede | Sambalendo","Nzero","NA","NA"
"Hamlet","Nhamigonhane","Nhamigonhane","Nhamigonhane","Nhamigonhane","Mozambique","Zambezia","Mopeia","Mopeia sede | Sambalendo","Nzero","NA","NA"
"Hamlet","Nhamingulo","Nhamingulo","Nhamingulo","Nhamingulo","Mozambique","Zambezia","Mopeia","Mopeia sede | Sambalendo","Nzero","NA","NA"
"Hamlet","Nhamipama","Nhamipama","Nhamipama","Nhamipama","Mozambique","Zambezia","Mopeia","Mopeia sede | Sambalendo","Nzero","NA","NA"
"Hamlet","Nsussa","Nsussa","Nsussa","Nsussa","Mozambique","Zambezia","Mopeia","Mopeia sede | Sambalendo","Nzero","NA","NA"
"Hamlet","Ropa","Ropa","Ropa","Ropa","Mozambique","Zambezia","Mopeia","Mopeia sede | Sambalendo","Nzero","NA","NA"
"Hamlet","Sambane","Sambane","Sambane","Sambane","Mozambique","Zambezia","Mopeia","Mopeia sede | Sambalendo","Nzero","NA","NA"
"Hamlet","Other","Other","Outro","Nyingine","Mozambique","Zambezia","Mopeia","Mopeia sede | Sambalendo","Nzero","NA","NA"
"Hamlet","25 de Junho","25 de Junho","25 de Junho","25 de Junho","Mozambique","Zambezia","Mopeia","Mopeia sede | Sambalendo","Sambalendo","NA","NA"
"Hamlet","9 Congresso","9 Congresso","9 Congresso","9 Congresso","Mozambique","Zambezia","Mopeia","Mopeia sede | Sambalendo","Sambalendo","NA","NA"
"Hamlet","Armando Emilio Guebuza","Armando Emilio Guebuza","Armando Emilio Guebuza","Armando Emilio Guebuza","Mozambique","Zambezia","Mopeia","Mopeia sede | Sambalendo","Sambalendo","NA","NA"
"Hamlet","Bote","Bote","Bote","Bote","Mozambique","Zambezia","Mopeia","Mopeia sede | Sambalendo","Sambalendo","NA","NA"
"Hamlet","Coyowe","Coyowe","Coyowe","Coyowe","Mozambique","Zambezia","Mopeia","Mopeia sede | Sambalendo","Sambalendo","NA","NA"
"Hamlet","Dolo","Dolo","Dolo","Dolo","Mozambique","Zambezia","Mopeia","Mopeia sede | Sambalendo","Sambalendo","NA","NA"
"Hamlet","Josina Machel","Josina Machel","Josina Machel","Josina Machel","Mozambique","Zambezia","Mopeia","Mopeia sede | Sambalendo","Sambalendo","NA","NA"
"Hamlet","Liberdade","Liberdade","Liberdade","Liberdade","Mozambique","Zambezia","Mopeia","Mopeia sede | Sambalendo","Sambalendo","NA","NA"
"Hamlet","Massonjoeira","Massonjoeira","Massonjoeira","Massonjoeira","Mozambique","Zambezia","Mopeia","Mopeia sede | Sambalendo","Sambalendo","NA","NA"
"Hamlet","Murato","Murato","Murato","Murato","Mozambique","Zambezia","Mopeia","Mopeia sede | Sambalendo","Sambalendo","NA","NA"
"Hamlet","Nhamirere","Nhamirere","Nhamirere","Nhamirere","Mozambique","Zambezia","Mopeia","Mopeia sede | Sambalendo","Sambalendo","NA","NA"
"Hamlet","Rapoio","Rapoio","Rapoio","Rapoio","Mozambique","Zambezia","Mopeia","Mopeia sede | Sambalendo","Sambalendo","NA","NA"
"Hamlet","Sambalendo","Sambalendo","Sambalendo","Sambalendo","Mozambique","Zambezia","Mopeia","Mopeia sede | Sambalendo","Sambalendo","NA","NA"
"Hamlet","Samora Machel","Samora Machel","Samora Machel","Samora Machel","Mozambique","Zambezia","Mopeia","Mopeia sede | Sambalendo","Sambalendo","NA","NA"
"Hamlet","Sassanha","Sassanha","Sassanha","Sassanha","Mozambique","Zambezia","Mopeia","Mopeia sede | Sambalendo","Sambalendo","NA","NA"
"Hamlet","Sassun Raund B","Sassun Raund B","Sassun Raund B","Sassun Raund B","Mozambique","Zambezia","Mopeia","Mopeia sede | Sambalendo","Sambalendo","NA","NA"
"Hamlet","Sassune","Sassune","Sassune","Sassune","Mozambique","Zambezia","Mopeia","Mopeia sede | Sambalendo","Sambalendo","NA","NA"
"Hamlet","Sassune Raunde (3 de Fevereiro)","Sassune Raunde (3 de Fevereiro)","Sassune Raunde (3 de Fevereiro)","Sassune Raunde (3 de Fevereiro)","Mozambique","Zambezia","Mopeia","Mopeia sede | Sambalendo","Sambalendo","NA","NA"
"Hamlet","Taibo","Taibo","Taibo","Taibo","Mozambique","Zambezia","Mopeia","Mopeia sede | Sambalendo","Sambalendo","NA","NA"
"Hamlet","Other","Other","Outro","Nyingine","Mozambique","Zambezia","Mopeia","Mopeia sede | Sambalendo","Sambalendo","NA","NA"
"Hamlet","Other","Other","Outro","Nyingine","Mozambique","Zambezia","Mopeia","Mopeia sede | Sambalendo","Other","NA","NA"
"Hamlet","Other","Other","Outro","Nyingine","Mozambique","Zambezia","Mopeia","Other","Other","NA","NA"
"Hamlet","Other","Other","Outro","Nyingine","Mozambique","Zambezia","Other","Other","Other","NA","NA"
"Hamlet","Other","Other","Outro","Nyingine","Tanzania","Other","Other","Other","Other","NA","NA"
"Hamlet","Mkundi","Mkundi","Mkundi","Mkundi","Tanzania","Pwani","Kibiti DC","Bungu","Bungu A","NA","NA"
"Hamlet","Muongozo","Muongozo","Muongozo","Muongozo","Tanzania","Pwani","Kibiti DC","Bungu","Bungu A","NA","NA"
"Hamlet","Mwenge","Mwenge","Mwenge","Mwenge","Tanzania","Pwani","Kibiti DC","Bungu","Bungu A","NA","NA"
"Hamlet","Other","Other","Outro","Nyingine","Tanzania","Pwani","Kibiti DC","Bungu","Bungu A","NA","NA"
"Hamlet","Kibaoni","Kibaoni","Kibaoni","Kibaoni","Tanzania","Pwani","Kibiti DC","Bungu","Bungu B","NA","NA"
"Hamlet","Kibwibwi","Kibwibwi","Kibwibwi","Kibwibwi","Tanzania","Pwani","Kibiti DC","Bungu","Bungu B","NA","NA"
"Hamlet","Kinyamale","Kinyamale","Kinyamale","Kinyamale","Tanzania","Pwani","Kibiti DC","Bungu","Bungu B","NA","NA"
"Hamlet","Kipenya","Kipenya","Kipenya","Kipenya","Tanzania","Pwani","Kibiti DC","Bungu","Bungu B","NA","NA"
"Hamlet","Kitula","Kitula","Kitula","Kitula","Tanzania","Pwani","Kibiti DC","Bungu","Bungu B","NA","NA"
"Hamlet","Other","Other","Outro","Nyingine","Tanzania","Pwani","Kibiti DC","Bungu","Bungu B","NA","NA"
"Hamlet","Azimio","Azimio","Azimio","Azimio","Tanzania","Pwani","Kibiti DC","Bungu","Mangombela","NA","NA"
"Hamlet","Nyamango","Nyamango","Nyamango","Nyamango","Tanzania","Pwani","Kibiti DC","Bungu","Mangombela","NA","NA"
"Hamlet","Other","Other","Outro","Nyingine","Tanzania","Pwani","Kibiti DC","Bungu","Mangombela","NA","NA"
"Hamlet","Bungu B","Bungu B","Bungu B","Bungu B","Tanzania","Pwani","Kibiti DC","Bungu","Msafiri","NA","NA"
"Hamlet","Msafiri","Msafiri","Msafiri","Msafiri","Tanzania","Pwani","Kibiti DC","Bungu","Msafiri","NA","NA"
"Hamlet","Ngongoroka","Ngongoroka","Ngongoroka","Ngongoroka","Tanzania","Pwani","Kibiti DC","Bungu","Msafiri","NA","NA"
"Hamlet","Nyakilo","Nyakilo","Nyakilo","Nyakilo","Tanzania","Pwani","Kibiti DC","Bungu","Msafiri","NA","NA"
"Hamlet","Zumbe","Zumbe","Zumbe","Zumbe","Tanzania","Pwani","Kibiti DC","Bungu","Msafiri","NA","NA"
"Hamlet","Other","Other","Outro","Nyingine","Tanzania","Pwani","Kibiti DC","Bungu","Msafiri","NA","NA"
"Hamlet","Dungutu","Dungutu","Dungutu","Dungutu","Tanzania","Pwani","Kibiti DC","Bungu","Nyambili","NA","NA"
"Hamlet","Nyambili Kaskazini","Nyambili Kaskazini","Nyambili Kaskazini","Nyambili Kaskazini","Tanzania","Pwani","Kibiti DC","Bungu","Nyambili","NA","NA"
"Hamlet","Nyambili Kusini","Nyambili Kusini","Nyambili Kusini","Nyambili Kusini","Tanzania","Pwani","Kibiti DC","Bungu","Nyambili","NA","NA"
"Hamlet","Other","Other","Outro","Nyingine","Tanzania","Pwani","Kibiti DC","Bungu","Nyambili","NA","NA"
"Hamlet","Besabu","Besabu","Besabu","Besabu","Tanzania","Pwani","Kibiti DC","Bungu","Nyambunda","NA","NA"
"Hamlet","Mkwandara","Mkwandara","Mkwandara","Mkwandara","Tanzania","Pwani","Kibiti DC","Bungu","Nyambunda","NA","NA"
"Hamlet","Nyangundu","Nyangundu","Nyangundu","Nyangundu","Tanzania","Pwani","Kibiti DC","Bungu","Nyambunda","NA","NA"
"Hamlet","Other","Other","Outro","Nyingine","Tanzania","Pwani","Kibiti DC","Bungu","Nyambunda","NA","NA"
"Hamlet","Lugome","Lugome","Lugome","Lugome","Tanzania","Pwani","Kibiti DC","Bungu","Pagae","NA","NA"
"Hamlet","Mkale","Mkale","Mkale","Mkale","Tanzania","Pwani","Kibiti DC","Bungu","Pagae","NA","NA"
"Hamlet","Nyameku","Nyameku","Nyameku","Nyameku","Tanzania","Pwani","Kibiti DC","Bungu","Pagae","NA","NA"
"Hamlet","Undembo","Undembo","Undembo","Undembo","Tanzania","Pwani","Kibiti DC","Bungu","Pagae","NA","NA"
"Hamlet","Other","Other","Outro","Nyingine","Tanzania","Pwani","Kibiti DC","Bungu","Pagae","NA","NA"
"Hamlet","Other","Other","Outro","Nyingine","Tanzania","Pwani","Kibiti DC","Bungu","Other","NA","NA"
"Hamlet","Bondeni","Bondeni","Bondeni","Bondeni","Tanzania","Pwani","Kibiti DC","Dimani","Bondeni","NA","NA"
"Hamlet","Other","Other","Outro","Nyingine","Tanzania","Pwani","Kibiti DC","Dimani","Bondeni","NA","NA"
"Hamlet","Dimani","Dimani","Dimani","Dimani","Tanzania","Pwani","Kibiti DC","Dimani","Dimani","NA","NA"
"Hamlet","Other","Other","Outro","Nyingine","Tanzania","Pwani","Kibiti DC","Dimani","Dimani","NA","NA"
"Hamlet","Dimani A","Dimani A","Dimani A","Dimani A","Tanzania","Pwani","Kibiti DC","Dimani","Dimani A","NA","NA"
"Hamlet","Other","Other","Outro","Nyingine","Tanzania","Pwani","Kibiti DC","Dimani","Dimani A","NA","NA"
"Hamlet","Dimani B","Dimani B","Dimani B","Dimani B","Tanzania","Pwani","Kibiti DC","Dimani","Dimani B","NA","NA"
"Hamlet","Other","Other","Outro","Nyingine","Tanzania","Pwani","Kibiti DC","Dimani","Dimani B","NA","NA"
"Hamlet","Kilimbili","Kilimbili","Kilimbili","Kilimbili","Tanzania","Pwani","Kibiti DC","Dimani","Kilimbili","NA","NA"
"Hamlet","Other","Other","Outro","Nyingine","Tanzania","Pwani","Kibiti DC","Dimani","Kilimbili","NA","NA"
"Hamlet","Kimbuga","Kimbuga","Kimbuga","Kimbuga","Tanzania","Pwani","Kibiti DC","Dimani","Kimbuga","NA","NA"
"Hamlet","Other","Other","Outro","Nyingine","Tanzania","Pwani","Kibiti DC","Dimani","Kimbuga","NA","NA"
"Hamlet","Ng'ambo","Ng'ambo","Ng'ambo","Ng'ambo","Tanzania","Pwani","Kibiti DC","Dimani","Ng'ambo","NA","NA"
"Hamlet","Other","Other","Outro","Nyingine","Tanzania","Pwani","Kibiti DC","Dimani","Ng'ambo","NA","NA"
"Hamlet","Ngulakula","Ngulakula","Ngulakula","Ngulakula","Tanzania","Pwani","Kibiti DC","Dimani","Ngulakula","NA","NA"
"Hamlet","Other","Other","Outro","Nyingine","Tanzania","Pwani","Kibiti DC","Dimani","Ngulakula","NA","NA"
"Hamlet","Nyambangala","Nyambangala","Nyambangala","Nyambangala","Tanzania","Pwani","Kibiti DC","Dimani","Nyambangala","NA","NA"
"Hamlet","Other","Other","Outro","Nyingine","Tanzania","Pwani","Kibiti DC","Dimani","Nyambangala","NA","NA"
"Hamlet","Penda Kimbuga","Penda Kimbuga","Penda Kimbuga","Penda Kimbuga","Tanzania","Pwani","Kibiti DC","Dimani","Penda Kimbuga","NA","NA"
"Hamlet","Other","Other","Outro","Nyingine","Tanzania","Pwani","Kibiti DC","Dimani","Penda Kimbuga","NA","NA"
"Hamlet","Penda Miwaga","Penda Miwaga","Penda Miwaga","Penda Miwaga","Tanzania","Pwani","Kibiti DC","Dimani","Penda Miwaga","NA","NA"
"Hamlet","Other","Other","Outro","Nyingine","Tanzania","Pwani","Kibiti DC","Dimani","Penda Miwaga","NA","NA"
"Hamlet","Other","Other","Outro","Nyingine","Tanzania","Pwani","Kibiti DC","Dimani","Other","NA","NA"
"Hamlet","Kibiti Kati","Kibiti Kati","Kibiti Kati","Kibiti Kati","Tanzania","Pwani","Kibiti DC","Kibiti","Kibiti Kati","NA","NA"
"Hamlet","Other","Other","Outro","Nyingine","Tanzania","Pwani","Kibiti DC","Kibiti","Kibiti Kati","NA","NA"
"Hamlet","Kibiti Kusini","Kibiti Kusini","Kibiti Kusini","Kibiti Kusini","Tanzania","Pwani","Kibiti DC","Kibiti","Kibiti Kusini","NA","NA"
"Hamlet","Other","Other","Outro","Nyingine","Tanzania","Pwani","Kibiti DC","Kibiti","Kibiti Kusini","NA","NA"
"Hamlet","Kingwira","Kingwira","Kingwira","Kingwira","Tanzania","Pwani","Kibiti DC","Kibiti","Kingwira","NA","NA"
"Hamlet","Other","Other","Outro","Nyingine","Tanzania","Pwani","Kibiti DC","Kibiti","Kingwira","NA","NA"
"Hamlet","Kitembo","Kitembo","Kitembo","Kitembo","Tanzania","Pwani","Kibiti DC","Kibiti","Kitembo","NA","NA"
"Hamlet","Other","Other","Outro","Nyingine","Tanzania","Pwani","Kibiti DC","Kibiti","Kitembo","NA","NA"
"Hamlet","Lumyonzi","Lumyonzi","Lumyonzi","Lumyonzi","Tanzania","Pwani","Kibiti DC","Kibiti","Lumyonzi","NA","NA"
"Hamlet","Other","Other","Outro","Nyingine","Tanzania","Pwani","Kibiti DC","Kibiti","Lumyonzi","NA","NA"
"Hamlet","Makaoni","Makaoni","Makaoni","Makaoni","Tanzania","Pwani","Kibiti DC","Kibiti","Makaoni","NA","NA"
"Hamlet","Other","Other","Outro","Nyingine","Tanzania","Pwani","Kibiti DC","Kibiti","Makaoni","NA","NA"
"Hamlet","Mbebetini","Mbebetini","Mbebetini","Mbebetini","Tanzania","Pwani","Kibiti DC","Kibiti","Mbebetini","NA","NA"
"Hamlet","Other","Other","Outro","Nyingine","Tanzania","Pwani","Kibiti DC","Kibiti","Mbebetini","NA","NA"
"Hamlet","Mkubuge","Mkubuge","Mkubuge","Mkubuge","Tanzania","Pwani","Kibiti DC","Kibiti","Mkubuge","NA","NA"
"Hamlet","Other","Other","Outro","Nyingine","Tanzania","Pwani","Kibiti DC","Kibiti","Mkubuge","NA","NA"
"Hamlet","Mkundi","Mkundi","Mkundi","Mkundi","Tanzania","Pwani","Kibiti DC","Kibiti","Mkundi","NA","NA"
"Hamlet","Other","Other","Outro","Nyingine","Tanzania","Pwani","Kibiti DC","Kibiti","Mkundi","NA","NA"
"Hamlet","Nyamakingili","Nyamakingili","Nyamakingili","Nyamakingili","Tanzania","Pwani","Kibiti DC","Kibiti","Nyamakingili","NA","NA"
"Hamlet","Other","Other","Outro","Nyingine","Tanzania","Pwani","Kibiti DC","Kibiti","Nyamakingili","NA","NA"
"Hamlet","Nyangwego","Nyangwego","Nyangwego","Nyangwego","Tanzania","Pwani","Kibiti DC","Kibiti","Nyangwego","NA","NA"
"Hamlet","Other","Other","Outro","Nyingine","Tanzania","Pwani","Kibiti DC","Kibiti","Nyangwego","NA","NA"
"Hamlet","Nyatanga","Nyatanga","Nyatanga","Nyatanga","Tanzania","Pwani","Kibiti DC","Kibiti","Nyatanga","NA","NA"
"Hamlet","Other","Other","Outro","Nyingine","Tanzania","Pwani","Kibiti DC","Kibiti","Nyatanga","NA","NA"
"Hamlet","Sokoni","Sokoni","Sokoni","Sokoni","Tanzania","Pwani","Kibiti DC","Kibiti","Sokoni","NA","NA"
"Hamlet","Other","Other","Outro","Nyingine","Tanzania","Pwani","Kibiti DC","Kibiti","Sokoni","NA","NA"
"Hamlet","Zimbwini","Zimbwini","Zimbwini","Zimbwini","Tanzania","Pwani","Kibiti DC","Kibiti","Zimbwini","NA","NA"
"Hamlet","Other","Other","Outro","Nyingine","Tanzania","Pwani","Kibiti DC","Kibiti","Zimbwini","NA","NA"
"Hamlet","Other","Other","Outro","Nyingine","Tanzania","Pwani","Kibiti DC","Kibiti","Other","NA","NA"
"Hamlet","Bumbuamani","Bumbuamani","Bumbuamani","Bumbuamani","Tanzania","Pwani","Kibiti DC","Kiongoroni","Jaja","NA","NA"
"Hamlet","Kitongani","Kitongani","Kitongani","Kitongani","Tanzania","Pwani","Kibiti DC","Kiongoroni","Jaja","NA","NA"
"Hamlet","Mjimwema","Mjimwema","Mjimwema","Mjimwema","Tanzania","Pwani","Kibiti DC","Kiongoroni","Jaja","NA","NA"
"Hamlet","Other","Other","Outro","Nyingine","Tanzania","Pwani","Kibiti DC","Kiongoroni","Jaja","NA","NA"
"Hamlet","Bweni","Bweni","Bweni","Bweni","Tanzania","Pwani","Kibiti DC","Kiongoroni","Kiongoroni","NA","NA"
"Hamlet","Makwende","Makwende","Makwende","Makwende","Tanzania","Pwani","Kibiti DC","Kiongoroni","Kiongoroni","NA","NA"
"Hamlet","Nyaobe","Nyaobe","Nyaobe","Nyaobe","Tanzania","Pwani","Kibiti DC","Kiongoroni","Kiongoroni","NA","NA"
"Hamlet","Other","Other","Outro","Nyingine","Tanzania","Pwani","Kibiti DC","Kiongoroni","Kiongoroni","NA","NA"
"Hamlet","Kilambani","Kilambani","Kilambani","Kilambani","Tanzania","Pwani","Kibiti DC","Kiongoroni","Pombwe","NA","NA"
"Hamlet","Mbungwi","Mbungwi","Mbungwi","Mbungwi","Tanzania","Pwani","Kibiti DC","Kiongoroni","Pombwe","NA","NA"
"Hamlet","Pombwe kubwa","Pombwe kubwa","Pombwe kubwa","Pombwe kubwa","Tanzania","Pwani","Kibiti DC","Kiongoroni","Pombwe","NA","NA"
"Hamlet","Suni","Suni","Suni","Suni","Tanzania","Pwani","Kibiti DC","Kiongoroni","Pombwe","NA","NA"
"Hamlet","Other","Other","Outro","Nyingine","Tanzania","Pwani","Kibiti DC","Kiongoroni","Pombwe","NA","NA"
"Hamlet","Bandarini","Bandarini","Bandarini","Bandarini","Tanzania","Pwani","Kibiti DC","Kiongoroni","Ruma","NA","NA"
"Hamlet","Emelwa","Emelwa","Emelwa","Emelwa","Tanzania","Pwani","Kibiti DC","Kiongoroni","Ruma","NA","NA"
"Hamlet","King'ongo","King'ongo","King'ongo","King'ongo","Tanzania","Pwani","Kibiti DC","Kiongoroni","Ruma","NA","NA"
"Hamlet","Mtanga","Mtanga","Mtanga","Mtanga","Tanzania","Pwani","Kibiti DC","Kiongoroni","Ruma","NA","NA"
"Hamlet","Nyamikamba","Nyamikamba","Nyamikamba","Nyamikamba","Tanzania","Pwani","Kibiti DC","Kiongoroni","Ruma","NA","NA"
"Hamlet","Other","Other","Outro","Nyingine","Tanzania","Pwani","Kibiti DC","Kiongoroni","Ruma","NA","NA"
"Hamlet","Other","Other","Outro","Nyingine","Tanzania","Pwani","Kibiti DC","Kiongoroni","Other","NA","NA"
"Hamlet","Kimbogo","Kimbogo","Kimbogo","Kimbogo","Tanzania","Pwani","Kibiti DC","Mahege","Hanga","NA","NA"
"Hamlet","Mkima","Mkima","Mkima","Mkima","Tanzania","Pwani","Kibiti DC","Mahege","Hanga","NA","NA"
"Hamlet","Ngambe","Ngambe","Ngambe","Ngambe","Tanzania","Pwani","Kibiti DC","Mahege","Hanga","NA","NA"
"Hamlet","Nyambwanda","Nyambwanda","Nyambwanda","Nyambwanda","Tanzania","Pwani","Kibiti DC","Mahege","Hanga","NA","NA"
"Hamlet","Other","Other","Outro","Nyingine","Tanzania","Pwani","Kibiti DC","Mahege","Hanga","NA","NA"
"Hamlet","Mawichi","Mawichi","Mawichi","Mawichi","Tanzania","Pwani","Kibiti DC","Mahege","Mahege","NA","NA"
"Hamlet","Mtembwe","Mtembwe","Mtembwe","Mtembwe","Tanzania","Pwani","Kibiti DC","Mahege","Mahege","NA","NA"
"Hamlet","Nyamkingia","Nyamkingia","Nyamkingia","Nyamkingia","Tanzania","Pwani","Kibiti DC","Mahege","Mahege","NA","NA"
"Hamlet","Umba","Umba","Umba","Umba","Tanzania","Pwani","Kibiti DC","Mahege","Mahege","NA","NA"
"Hamlet","Other","Other","Outro","Nyingine","Tanzania","Pwani","Kibiti DC","Mahege","Mahege","NA","NA"
"Hamlet","Mlete Soso/Ngondae","Mlete Soso/Ngondae","Mlete Soso/Ngondae","Mlete Soso/Ngondae","Tanzania","Pwani","Kibiti DC","Mahege","Nyakinyo","NA","NA"
"Hamlet","Nyakinyo","Nyakinyo","Nyakinyo","Nyakinyo","Tanzania","Pwani","Kibiti DC","Mahege","Nyakinyo","NA","NA"
"Hamlet","Other","Other","Outro","Nyingine","Tanzania","Pwani","Kibiti DC","Mahege","Nyakinyo","NA","NA"
"Hamlet","Mapinduzi","Mapinduzi","Mapinduzi","Mapinduzi","Tanzania","Pwani","Kibiti DC","Mahege","Nyanjati","NA","NA"
"Hamlet","Mrema","Mrema","Mrema","Mrema","Tanzania","Pwani","Kibiti DC","Mahege","Nyanjati","NA","NA"
"Hamlet","Mwinyi","Mwinyi","Mwinyi","Mwinyi","Tanzania","Pwani","Kibiti DC","Mahege","Nyanjati","NA","NA"
"Hamlet","Nyerere","Nyerere","Nyerere","Nyerere","Tanzania","Pwani","Kibiti DC","Mahege","Nyanjati","NA","NA"
"Hamlet","Saudia","Saudia","Saudia","Saudia","Tanzania","Pwani","Kibiti DC","Mahege","Nyanjati","NA","NA"
"Hamlet","Sokoine","Sokoine","Sokoine","Sokoine","Tanzania","Pwani","Kibiti DC","Mahege","Nyanjati","NA","NA"
"Hamlet","Other","Other","Outro","Nyingine","Tanzania","Pwani","Kibiti DC","Mahege","Nyanjati","NA","NA"
"Hamlet","Halisi","Halisi","Halisi","Halisi","Tanzania","Pwani","Kibiti DC","Mahege","Tomoni","NA","NA"
"Hamlet","Mibuyusaba","Mibuyusaba","Mibuyusaba","Mibuyusaba","Tanzania","Pwani","Kibiti DC","Mahege","Tomoni","NA","NA"
"Hamlet","Mkali","Mkali","Mkali","Mkali","Tanzania","Pwani","Kibiti DC","Mahege","Tomoni","NA","NA"
"Hamlet","Nyakikongo","Nyakikongo","Nyakikongo","Nyakikongo","Tanzania","Pwani","Kibiti DC","Mahege","Tomoni","NA","NA"
"Hamlet","Other","Other","Outro","Nyingine","Tanzania","Pwani","Kibiti DC","Mahege","Tomoni","NA","NA"
"Hamlet","Other","Other","Outro","Nyingine","Tanzania","Pwani","Kibiti DC","Mahege","Other","NA","NA"
"Hamlet","Kati","Kati","Kati","Kati","Tanzania","Pwani","Kibiti DC","Maparoni","Kiechuru","NA","NA"
"Hamlet","Kityanga","Kityanga","Kityanga","Kityanga","Tanzania","Pwani","Kibiti DC","Maparoni","Kiechuru","NA","NA"
"Hamlet","Korango","Korango","Korango","Korango","Tanzania","Pwani","Kibiti DC","Maparoni","Kiechuru","NA","NA"
"Hamlet","Mgambo","Mgambo","Mgambo","Mgambo","Tanzania","Pwani","Kibiti DC","Maparoni","Kiechuru","NA","NA"
"Hamlet","Other","Other","Outro","Nyingine","Tanzania","Pwani","Kibiti DC","Maparoni","Kiechuru","NA","NA"
"Hamlet","Gingi","Gingi","Gingi","Gingi","Tanzania","Pwani","Kibiti DC","Maparoni","Maparoni","NA","NA"
"Hamlet","Mbangani","Mbangani","Mbangani","Mbangani","Tanzania","Pwani","Kibiti DC","Maparoni","Maparoni","NA","NA"
"Hamlet","Tuwa","Tuwa","Tuwa","Tuwa","Tanzania","Pwani","Kibiti DC","Maparoni","Maparoni","NA","NA"
"Hamlet","Usimbe kidoga","Usimbe kidoga","Usimbe kidoga","Usimbe kidoga","Tanzania","Pwani","Kibiti DC","Maparoni","Maparoni","NA","NA"
"Hamlet","Usimbe kiwanjani","Usimbe kiwanjani","Usimbe kiwanjani","Usimbe kiwanjani","Tanzania","Pwani","Kibiti DC","Maparoni","Maparoni","NA","NA"
"Hamlet","Other","Other","Outro","Nyingine","Tanzania","Pwani","Kibiti DC","Maparoni","Maparoni","NA","NA"
"Hamlet","Other","Other","Outro","Nyingine","Tanzania","Pwani","Kibiti DC","Maparoni","Other","NA","NA"
"Hamlet","Barabarani","Barabarani","Barabarani","Barabarani","Tanzania","Pwani","Kibiti DC","Mbuchi","Mbuchi","NA","NA"
"Hamlet","Kipoka","Kipoka","Kipoka","Kipoka","Tanzania","Pwani","Kibiti DC","Mbuchi","Mbuchi","NA","NA"
"Hamlet","Kitingi","Kitingi","Kitingi","Kitingi","Tanzania","Pwani","Kibiti DC","Mbuchi","Mbuchi","NA","NA"
"Hamlet","Makongoro","Makongoro","Makongoro","Makongoro","Tanzania","Pwani","Kibiti DC","Mbuchi","Mbuchi","NA","NA"
"Hamlet","Mikwang'ombe","Mikwang'ombe","Mikwang'ombe","Mikwang'ombe","Tanzania","Pwani","Kibiti DC","Mbuchi","Mbuchi","NA","NA"
"Hamlet","Mnganje/Nganje","Mnganje/Nganje","Mnganje/Nganje","Mnganje/Nganje","Tanzania","Pwani","Kibiti DC","Mbuchi","Mbuchi","NA","NA"
"Hamlet","Other","Other","Outro","Nyingine","Tanzania","Pwani","Kibiti DC","Mbuchi","Mbuchi","NA","NA"
"Hamlet","Doka","Doka","Doka","Doka","Tanzania","Pwani","Kibiti DC","Mbuchi","Mbwera Magharibi","NA","NA"
"Hamlet","Kibumbulo/Kimburu","Kibumbulo/Kimburu","Kibumbulo/Kimburu","Kibumbulo/Kimburu","Tanzania","Pwani","Kibiti DC","Mbuchi","Mbwera Magharibi","NA","NA"
"Hamlet","Kiiongoro","Kiiongoro","Kiiongoro","Kiiongoro","Tanzania","Pwani","Kibiti DC","Mbuchi","Mbwera Magharibi","NA","NA"
"Hamlet","Kumbacha","Kumbacha","Kumbacha","Kumbacha","Tanzania","Pwani","Kibiti DC","Mbuchi","Mbwera Magharibi","NA","NA"
"Hamlet","Mkepa","Mkepa","Mkepa","Mkepa","Tanzania","Pwani","Kibiti DC","Mbuchi","Mbwera Magharibi","NA","NA"
"Hamlet","Mkurumu","Mkurumu","Mkurumu","Mkurumu","Tanzania","Pwani","Kibiti DC","Mbuchi","Mbwera Magharibi","NA","NA"
"Hamlet","Mtawatawa","Mtawatawa","Mtawatawa","Mtawatawa","Tanzania","Pwani","Kibiti DC","Mbuchi","Mbwera Magharibi","NA","NA"
"Hamlet","Other","Other","Outro","Nyingine","Tanzania","Pwani","Kibiti DC","Mbuchi","Mbwera Magharibi","NA","NA"
"Hamlet","Marongoni","Marongoni","Marongoni","Marongoni","Tanzania","Pwani","Kibiti DC","Mbuchi","Mbwera Mashariki","NA","NA"
"Hamlet","Mbumburu","Mbumburu","Mbumburu","Mbumburu","Tanzania","Pwani","Kibiti DC","Mbuchi","Mbwera Mashariki","NA","NA"
"Hamlet","Mdai","Mdai","Mdai","Mdai","Tanzania","Pwani","Kibiti DC","Mbuchi","Mbwera Mashariki","NA","NA"
"Hamlet","Mkirika","Mkirika","Mkirika","Mkirika","Tanzania","Pwani","Kibiti DC","Mbuchi","Mbwera Mashariki","NA","NA"
"Hamlet","Other","Other","Outro","Nyingine","Tanzania","Pwani","Kibiti DC","Mbuchi","Mbwera Mashariki","NA","NA"
"Hamlet","Other","Other","Outro","Nyingine","Tanzania","Pwani","Kibiti DC","Mbuchi","Other","NA","NA"
"Hamlet","Misimbo","Misimbo","Misimbo","Misimbo","Tanzania","Pwani","Kibiti DC","Mchukwi","Mangwi","NA","NA"
"Hamlet","Miyogoya","Miyogoya","Miyogoya","Miyogoya","Tanzania","Pwani","Kibiti DC","Mchukwi","Mangwi","NA","NA"
"Hamlet","Rondo","Rondo","Rondo","Rondo","Tanzania","Pwani","Kibiti DC","Mchukwi","Mangwi","NA","NA"
"Hamlet","Other","Other","Outro","Nyingine","Tanzania","Pwani","Kibiti DC","Mchukwi","Mangwi","NA","NA"
"Hamlet","Kitomondo","Kitomondo","Kitomondo","Kitomondo","Tanzania","Pwani","Kibiti DC","Mchukwi","Mchukwi A","NA","NA"
"Hamlet","Matimbwani","Matimbwani","Matimbwani","Matimbwani","Tanzania","Pwani","Kibiti DC","Mchukwi","Mchukwi A","NA","NA"
"Hamlet","Nyakaumbanga","Nyakaumbanga","Nyakaumbanga","Nyakaumbanga","Tanzania","Pwani","Kibiti DC","Mchukwi","Mchukwi A","NA","NA"
"Hamlet","Nyamanjenga","Nyamanjenga","Nyamanjenga","Nyamanjenga","Tanzania","Pwani","Kibiti DC","Mchukwi","Mchukwi A","NA","NA"
"Hamlet","Ujongoni","Ujongoni","Ujongoni","Ujongoni","Tanzania","Pwani","Kibiti DC","Mchukwi","Mchukwi A","NA","NA"
"Hamlet","Other","Other","Outro","Nyingine","Tanzania","Pwani","Kibiti DC","Mchukwi","Mchukwi A","NA","NA"
"Hamlet","Kichangani","Kichangani","Kichangani","Kichangani","Tanzania","Pwani","Kibiti DC","Mchukwi","Mchukwi B","NA","NA"
"Hamlet","Mbindia","Mbindia","Mbindia","Mbindia","Tanzania","Pwani","Kibiti DC","Mchukwi","Mchukwi B","NA","NA"
"Hamlet","Miembeni","Miembeni","Miembeni","Miembeni","Tanzania","Pwani","Kibiti DC","Mchukwi","Mchukwi B","NA","NA"
"Hamlet","Msikitini","Msikitini","Msikitini","Msikitini","Tanzania","Pwani","Kibiti DC","Mchukwi","Mchukwi B","NA","NA"
"Hamlet","Nyaubi","Nyaubi","Nyaubi","Nyaubi","Tanzania","Pwani","Kibiti DC","Mchukwi","Mchukwi B","NA","NA"
"Hamlet","Songa","Songa","Songa","Songa","Tanzania","Pwani","Kibiti DC","Mchukwi","Mchukwi B","NA","NA"
"Hamlet","Other","Other","Outro","Nyingine","Tanzania","Pwani","Kibiti DC","Mchukwi","Mchukwi B","NA","NA"
"Hamlet","Bani","Bani","Bani","Bani","Tanzania","Pwani","Kibiti DC","Mchukwi","Mkupuka","NA","NA"
"Hamlet","Mkupuka","Mkupuka","Mkupuka","Mkupuka","Tanzania","Pwani","Kibiti DC","Mchukwi","Mkupuka","NA","NA"
"Hamlet","Nyunga","Nyunga","Nyunga","Nyunga","Tanzania","Pwani","Kibiti DC","Mchukwi","Mkupuka","NA","NA"
"Hamlet","Other","Other","Outro","Nyingine","Tanzania","Pwani","Kibiti DC","Mchukwi","Mkupuka","NA","NA"
"Hamlet","Other","Other","Outro","Nyingine","Tanzania","Pwani","Kibiti DC","Mchukwi","Other","NA","NA"
"Hamlet","Jiweni","Jiweni","Jiweni","Jiweni","Tanzania","Pwani","Kibiti DC","Mjawa","Jaribu Magharibi","NA","NA"
"Hamlet","Kibuyuni","Kibuyuni","Kibuyuni","Kibuyuni","Tanzania","Pwani","Kibiti DC","Mjawa","Jaribu Magharibi","NA","NA"
"Hamlet","Mapinduzi","Mapinduzi","Mapinduzi","Mapinduzi","Tanzania","Pwani","Kibiti DC","Mjawa","Jaribu Magharibi","NA","NA"
"Hamlet","Mkongoni","Mkongoni","Mkongoni","Mkongoni","Tanzania","Pwani","Kibiti DC","Mjawa","Jaribu Magharibi","NA","NA"
"Hamlet","Other","Other","Outro","Nyingine","Tanzania","Pwani","Kibiti DC","Mjawa","Jaribu Magharibi","NA","NA"
"Hamlet","Mikwala","Mikwala","Mikwala","Mikwala","Tanzania","Pwani","Kibiti DC","Mjawa","Jaribu Mpakani","NA","NA"
"Hamlet","Motomoto","Motomoto","Motomoto","Motomoto","Tanzania","Pwani","Kibiti DC","Mjawa","Jaribu Mpakani","NA","NA"
"Hamlet","Mtunda","Mtunda","Mtunda","Mtunda","Tanzania","Pwani","Kibiti DC","Mjawa","Jaribu Mpakani","NA","NA"
"Hamlet","Muungano","Muungano","Muungano","Muungano","Tanzania","Pwani","Kibiti DC","Mjawa","Jaribu Mpakani","NA","NA"
"Hamlet","Ujamaa","Ujamaa","Ujamaa","Ujamaa","Tanzania","Pwani","Kibiti DC","Mjawa","Jaribu Mpakani","NA","NA"
"Hamlet","Other","Other","Outro","Nyingine","Tanzania","Pwani","Kibiti DC","Mjawa","Jaribu Mpakani","NA","NA"
"Hamlet","Bonjo","Bonjo","Bonjo","Bonjo","Tanzania","Pwani","Kibiti DC","Mjawa","Mjawa","NA","NA"
"Hamlet","Dutani","Dutani","Dutani","Dutani","Tanzania","Pwani","Kibiti DC","Mjawa","Mjawa","NA","NA"
"Hamlet","Gosa","Gosa","Gosa","Gosa","Tanzania","Pwani","Kibiti DC","Mjawa","Mjawa","NA","NA"
"Hamlet","Mtetani","Mtetani","Mtetani","Mtetani","Tanzania","Pwani","Kibiti DC","Mjawa","Mjawa","NA","NA"
"Hamlet","Ngalemwa","Ngalemwa","Ngalemwa","Ngalemwa","Tanzania","Pwani","Kibiti DC","Mjawa","Mjawa","NA","NA"
"Hamlet","Other","Other","Outro","Nyingine","Tanzania","Pwani","Kibiti DC","Mjawa","Mjawa","NA","NA"
"Hamlet","Goloatanga","Goloatanga","Goloatanga","Goloatanga","Tanzania","Pwani","Kibiti DC","Mjawa","Motomoto","NA","NA"
"Hamlet","Misogole","Misogole","Misogole","Misogole","Tanzania","Pwani","Kibiti DC","Mjawa","Motomoto","NA","NA"
"Hamlet","Other","Other","Outro","Nyingine","Tanzania","Pwani","Kibiti DC","Mjawa","Motomoto","NA","NA"
"Hamlet","Msega","Msega","Msega","Msega","Tanzania","Pwani","Kibiti DC","Mjawa","Ngalengwa","NA","NA"
"Hamlet","Mtuluma","Mtuluma","Mtuluma","Mtuluma","Tanzania","Pwani","Kibiti DC","Mjawa","Ngalengwa","NA","NA"
"Hamlet","Other","Other","Outro","Nyingine","Tanzania","Pwani","Kibiti DC","Mjawa","Ngalengwa","NA","NA"
"Hamlet","Uchembe Chini","Uchembe Chini","Uchembe Chini","Uchembe Chini","Tanzania","Pwani","Kibiti DC","Mjawa","Uchembe","NA","NA"
"Hamlet","Uchembe Juu","Uchembe Juu","Uchembe Juu","Uchembe Juu","Tanzania","Pwani","Kibiti DC","Mjawa","Uchembe","NA","NA"
"Hamlet","Other","Other","Outro","Nyingine","Tanzania","Pwani","Kibiti DC","Mjawa","Uchembe","NA","NA"
"Hamlet","Uchembe Njianne","Uchembe Njianne","Uchembe Njianne","Uchembe Njianne","Tanzania","Pwani","Kibiti DC","Mjawa","Uponda","NA","NA"
"Hamlet","Uponda Chini","Uponda Chini","Uponda Chini","Uponda Chini","Tanzania","Pwani","Kibiti DC","Mjawa","Uponda","NA","NA"
"Hamlet","Uponda Juu","Uponda Juu","Uponda Juu","Uponda Juu","Tanzania","Pwani","Kibiti DC","Mjawa","Uponda","NA","NA"
"Hamlet","Other","Other","Outro","Nyingine","Tanzania","Pwani","Kibiti DC","Mjawa","Uponda","NA","NA"
"Hamlet","Other","Other","Outro","Nyingine","Tanzania","Pwani","Kibiti DC","Mjawa","Other","NA","NA"
"Hamlet","Kibuni","Kibuni","Kibuni","Kibuni","Tanzania","Pwani","Kibiti DC","Mlanzi","Machipi","NA","NA"
"Hamlet","Mangimbwage","Mangimbwage","Mangimbwage","Mangimbwage","Tanzania","Pwani","Kibiti DC","Mlanzi","Machipi","NA","NA"
"Hamlet","Msikitini","Msikitini","Msikitini","Msikitini","Tanzania","Pwani","Kibiti DC","Mlanzi","Machipi","NA","NA"
"Hamlet","Ngonja","Ngonja","Ngonja","Ngonja","Tanzania","Pwani","Kibiti DC","Mlanzi","Machipi","NA","NA"
"Hamlet","Ruanda","Ruanda","Ruanda","Ruanda","Tanzania","Pwani","Kibiti DC","Mlanzi","Machipi","NA","NA"
"Hamlet","Other","Other","Outro","Nyingine","Tanzania","Pwani","Kibiti DC","Mlanzi","Machipi","NA","NA"
"Hamlet","Kikimbili","Kikimbili","Kikimbili","Kikimbili","Tanzania","Pwani","Kibiti DC","Mlanzi","Mlanzi","NA","NA"
"Hamlet","Kimbindu","Kimbindu","Kimbindu","Kimbindu","Tanzania","Pwani","Kibiti DC","Mlanzi","Mlanzi","NA","NA"
"Hamlet","Kingweti","Kingweti","Kingweti","Kingweti","Tanzania","Pwani","Kibiti DC","Mlanzi","Mlanzi","NA","NA"
"Hamlet","Milonzi","Milonzi","Milonzi","Milonzi","Tanzania","Pwani","Kibiti DC","Mlanzi","Mlanzi","NA","NA"
"Hamlet","Mlanzi Magharibi","Mlanzi Magharibi","Mlanzi Magharibi","Mlanzi Magharibi","Tanzania","Pwani","Kibiti DC","Mlanzi","Mlanzi","NA","NA"
"Hamlet","Mlanzi Mashariki","Mlanzi Mashariki","Mlanzi Mashariki","Mlanzi Mashariki","Tanzania","Pwani","Kibiti DC","Mlanzi","Mlanzi","NA","NA"
"Hamlet","Other","Other","Outro","Nyingine","Tanzania","Pwani","Kibiti DC","Mlanzi","Mlanzi","NA","NA"
"Hamlet","Bora","Bora","Bora","Bora","Tanzania","Pwani","Kibiti DC","Mlanzi","Ngondae","NA","NA"
"Hamlet","Like","Like","Like","Like","Tanzania","Pwani","Kibiti DC","Mlanzi","Ngondae","NA","NA"
"Hamlet","Mkwajuni","Mkwajuni","Mkwajuni","Mkwajuni","Tanzania","Pwani","Kibiti DC","Mlanzi","Ngondae","NA","NA"
"Hamlet","Other","Other","Outro","Nyingine","Tanzania","Pwani","Kibiti DC","Mlanzi","Ngondae","NA","NA"
"Hamlet","Malenda","Malenda","Malenda","Malenda","Tanzania","Pwani","Kibiti DC","Mlanzi","Nyamwimbe","NA","NA"
"Hamlet","Malenda Halisi","Malenda Halisi","Malenda Halisi","Malenda Halisi","Tanzania","Pwani","Kibiti DC","Mlanzi","Nyamwimbe","NA","NA"
"Hamlet","Miparani","Miparani","Miparani","Miparani","Tanzania","Pwani","Kibiti DC","Mlanzi","Nyamwimbe","NA","NA"
"Hamlet","Nyelelo","Nyelelo","Nyelelo","Nyelelo","Tanzania","Pwani","Kibiti DC","Mlanzi","Nyamwimbe","NA","NA"
"Hamlet","Umtanga","Umtanga","Umtanga","Umtanga","Tanzania","Pwani","Kibiti DC","Mlanzi","Nyamwimbe","NA","NA"
"Hamlet","Other","Other","Outro","Nyingine","Tanzania","Pwani","Kibiti DC","Mlanzi","Nyamwimbe","NA","NA"
"Hamlet","Other","Other","Outro","Nyingine","Tanzania","Pwani","Kibiti DC","Mlanzi","Other","NA","NA"
"Hamlet","Nunu","Nunu","Nunu","Nunu","Tanzania","Pwani","Kibiti DC","Msala","Kiasi","NA","NA"
"Hamlet","Nyunguni","Nyunguni","Nyunguni","Nyunguni","Tanzania","Pwani","Kibiti DC","Msala","Kiasi","NA","NA"
"Hamlet","Ploti","Ploti","Ploti","Ploti","Tanzania","Pwani","Kibiti DC","Msala","Kiasi","NA","NA"
"Hamlet","Uwandani","Uwandani","Uwandani","Uwandani","Tanzania","Pwani","Kibiti DC","Msala","Kiasi","NA","NA"
"Hamlet","Other","Other","Outro","Nyingine","Tanzania","Pwani","Kibiti DC","Msala","Kiasi","NA","NA"
"Hamlet","Majaliwa","Majaliwa","Majaliwa","Majaliwa","Tanzania","Pwani","Kibiti DC","Msala","Msala","NA","NA"
"Hamlet","Mbaleni","Mbaleni","Mbaleni","Mbaleni","Tanzania","Pwani","Kibiti DC","Msala","Msala","NA","NA"
"Hamlet","Mbomboni","Mbomboni","Mbomboni","Mbomboni","Tanzania","Pwani","Kibiti DC","Msala","Msala","NA","NA"
"Hamlet","Ukongoro","Ukongoro","Ukongoro","Ukongoro","Tanzania","Pwani","Kibiti DC","Msala","Msala","NA","NA"
"Hamlet","Wasamande","Wasamande","Wasamande","Wasamande","Tanzania","Pwani","Kibiti DC","Msala","Msala","NA","NA"
"Hamlet","Other","Other","Outro","Nyingine","Tanzania","Pwani","Kibiti DC","Msala","Msala","NA","NA"
"Hamlet","Domwe","Domwe","Domwe","Domwe","Tanzania","Pwani","Kibiti DC","Msala","Twasalie","NA","NA"
"Hamlet","Kisimbya","Kisimbya","Kisimbya","Kisimbya","Tanzania","Pwani","Kibiti DC","Msala","Twasalie","NA","NA"
"Hamlet","Nyahimba","Nyahimba","Nyahimba","Nyahimba","Tanzania","Pwani","Kibiti DC","Msala","Twasalie","NA","NA"
"Hamlet","Poloti","Poloti","Poloti","Poloti","Tanzania","Pwani","Kibiti DC","Msala","Twasalie","NA","NA"
"Hamlet","Tarachu","Tarachu","Tarachu","Tarachu","Tanzania","Pwani","Kibiti DC","Msala","Twasalie","NA","NA"
"Hamlet","Other","Other","Outro","Nyingine","Tanzania","Pwani","Kibiti DC","Msala","Twasalie","NA","NA"
"Hamlet","Other","Other","Outro","Nyingine","Tanzania","Pwani","Kibiti DC","Msala","Other","NA","NA"
"Hamlet","Bumba","Bumba","Bumba","Bumba","Tanzania","Pwani","Kibiti DC","Mtawanya","Bumba","NA","NA"
"Hamlet","Other","Other","Outro","Nyingine","Tanzania","Pwani","Kibiti DC","Mtawanya","Bumba","NA","NA"
"Hamlet","Kinyanya Kati","Kinyanya Kati","Kinyanya Kati","Kinyanya Kati","Tanzania","Pwani","Kibiti DC","Mtawanya","Kinyanya Kati","NA","NA"
"Hamlet","Other","Other","Outro","Nyingine","Tanzania","Pwani","Kibiti DC","Mtawanya","Kinyanya Kati","NA","NA"
"Hamlet","Magogo matatu","Magogo matatu","Magogo matatu","Magogo matatu","Tanzania","Pwani","Kibiti DC","Mtawanya","Magogo Matatu","NA","NA"
"Hamlet","Other","Other","Outro","Nyingine","Tanzania","Pwani","Kibiti DC","Mtawanya","Magogo Matatu","NA","NA"
"Hamlet","Mikendo","Mikendo","Mikendo","Mikendo","Tanzania","Pwani","Kibiti DC","Mtawanya","Mikendo","NA","NA"
"Hamlet","Other","Other","Outro","Nyingine","Tanzania","Pwani","Kibiti DC","Mtawanya","Mikendo","NA","NA"
"Hamlet","Mkunama","Mkunama","Mkunama","Mkunama","Tanzania","Pwani","Kibiti DC","Mtawanya","Mkunama","NA","NA"
"Hamlet","Other","Other","Outro","Nyingine","Tanzania","Pwani","Kibiti DC","Mtawanya","Mkunama","NA","NA"
"Hamlet","Msoro","Msoro","Msoro","Msoro","Tanzania","Pwani","Kibiti DC","Mtawanya","Msoro","NA","NA"
"Hamlet","Other","Other","Outro","Nyingine","Tanzania","Pwani","Kibiti DC","Mtawanya","Msoro","NA","NA"
"Hamlet","Mulandecha","Mulandecha","Mulandecha","Mulandecha","Tanzania","Pwani","Kibiti DC","Mtawanya","Mulandecha","NA","NA"
"Hamlet","Other","Other","Outro","Nyingine","Tanzania","Pwani","Kibiti DC","Mtawanya","Mulandecha","NA","NA"
"Hamlet","Roja","Roja","Roja","Roja","Tanzania","Pwani","Kibiti DC","Mtawanya","Roja","NA","NA"
"Hamlet","Other","Other","Outro","Nyingine","Tanzania","Pwani","Kibiti DC","Mtawanya","Roja","NA","NA"
"Hamlet","Ugezi","Ugezi","Ugezi","Ugezi","Tanzania","Pwani","Kibiti DC","Mtawanya","Ugezi","NA","NA"
"Hamlet","Other","Other","Outro","Nyingine","Tanzania","Pwani","Kibiti DC","Mtawanya","Ugezi","NA","NA"
"Hamlet","Umatumbi","Umatumbi","Umatumbi","Umatumbi","Tanzania","Pwani","Kibiti DC","Mtawanya","Umatumbi","NA","NA"
"Hamlet","Other","Other","Outro","Nyingine","Tanzania","Pwani","Kibiti DC","Mtawanya","Umatumbi","NA","NA"
"Hamlet","Umikendo","Umikendo","Umikendo","Umikendo","Tanzania","Pwani","Kibiti DC","Mtawanya","Umikendo","NA","NA"
"Hamlet","Other","Other","Outro","Nyingine","Tanzania","Pwani","Kibiti DC","Mtawanya","Umikendo","NA","NA"
"Hamlet","Unyamlani","Unyamlani","Unyamlani","Unyamlani","Tanzania","Pwani","Kibiti DC","Mtawanya","Unyamlani","NA","NA"
"Hamlet","Other","Other","Outro","Nyingine","Tanzania","Pwani","Kibiti DC","Mtawanya","Unyamlani","NA","NA"
"Hamlet","Upazi","Upazi","Upazi","Upazi","Tanzania","Pwani","Kibiti DC","Mtawanya","Upazi","NA","NA"
"Hamlet","Other","Other","Outro","Nyingine","Tanzania","Pwani","Kibiti DC","Mtawanya","Upazi","NA","NA"
"Hamlet","Uzomboko","Uzomboko","Uzomboko","Uzomboko","Tanzania","Pwani","Kibiti DC","Mtawanya","Uzomboko","NA","NA"
"Hamlet","Other","Other","Outro","Nyingine","Tanzania","Pwani","Kibiti DC","Mtawanya","Uzomboko","NA","NA"
"Hamlet","Other","Other","Outro","Nyingine","Tanzania","Pwani","Kibiti DC","Mtawanya","Other","NA","NA"
"Hamlet","Kikale Mjini","Kikale Mjini","Kikale Mjini","Kikale Mjini","Tanzania","Pwani","Kibiti DC","Mtunda","Kikale","NA","NA"
"Hamlet","Makoge","Makoge","Makoge","Makoge","Tanzania","Pwani","Kibiti DC","Mtunda","Kikale","NA","NA"
"Hamlet","Mtandu","Mtandu","Mtandu","Mtandu","Tanzania","Pwani","Kibiti DC","Mtunda","Kikale","NA","NA"
"Hamlet","Other","Other","Outro","Nyingine","Tanzania","Pwani","Kibiti DC","Mtunda","Kikale","NA","NA"
"Hamlet","Mbongola","Mbongola","Mbongola","Mbongola","Tanzania","Pwani","Kibiti DC","Mtunda","Mtunda A","NA","NA"
"Hamlet","Mbumi","Mbumi","Mbumi","Mbumi","Tanzania","Pwani","Kibiti DC","Mtunda","Mtunda A","NA","NA"
"Hamlet","Mikunguni","Mikunguni","Mikunguni","Mikunguni","Tanzania","Pwani","Kibiti DC","Mtunda","Mtunda A","NA","NA"
"Hamlet","Mtunda A","Mtunda A","Mtunda A","Mtunda A","Tanzania","Pwani","Kibiti DC","Mtunda","Mtunda A","NA","NA"
"Hamlet","Ngualo","Ngualo","Ngualo","Ngualo","Tanzania","Pwani","Kibiti DC","Mtunda","Mtunda A","NA","NA"
"Hamlet","Other","Other","Outro","Nyingine","Tanzania","Pwani","Kibiti DC","Mtunda","Mtunda A","NA","NA"
"Hamlet","Beta","Beta","Beta","Beta","Tanzania","Pwani","Kibiti DC","Mtunda","Mtunda B","NA","NA"
"Hamlet","Mchikichini","Mchikichini","Mchikichini","Mchikichini","Tanzania","Pwani","Kibiti DC","Mtunda","Mtunda B","NA","NA"
"Hamlet","Mtunda B","Mtunda B","Mtunda B","Mtunda B","Tanzania","Pwani","Kibiti DC","Mtunda","Mtunda B","NA","NA"
"Hamlet","Nganyanga","Nganyanga","Nganyanga","Nganyanga","Tanzania","Pwani","Kibiti DC","Mtunda","Mtunda B","NA","NA"
"Hamlet","Nyafeda","Nyafeda","Nyafeda","Nyafeda","Tanzania","Pwani","Kibiti DC","Mtunda","Mtunda B","NA","NA"
"Hamlet","Other","Other","Outro","Nyingine","Tanzania","Pwani","Kibiti DC","Mtunda","Mtunda B","NA","NA"
"Hamlet","Magomeni","Magomeni","Magomeni","Magomeni","Tanzania","Pwani","Kibiti DC","Mtunda","Muyuyu","NA","NA"
"Hamlet","Misuguli","Misuguli","Misuguli","Misuguli","Tanzania","Pwani","Kibiti DC","Mtunda","Muyuyu","NA","NA"
"Hamlet","Mkata","Mkata","Mkata","Mkata","Tanzania","Pwani","Kibiti DC","Mtunda","Muyuyu","NA","NA"
"Hamlet","Muyuyu mjini","Muyuyu mjini","Muyuyu mjini","Muyuyu mjini","Tanzania","Pwani","Kibiti DC","Mtunda","Muyuyu","NA","NA"
"Hamlet","Njianne","Njianne","Njianne","Njianne","Tanzania","Pwani","Kibiti DC","Mtunda","Muyuyu","NA","NA"
"Hamlet","Nyambele","Nyambele","Nyambele","Nyambele","Tanzania","Pwani","Kibiti DC","Mtunda","Muyuyu","NA","NA"
"Hamlet","Sonywe","Sonywe","Sonywe","Sonywe","Tanzania","Pwani","Kibiti DC","Mtunda","Muyuyu","NA","NA"
"Hamlet","Other","Other","Outro","Nyingine","Tanzania","Pwani","Kibiti DC","Mtunda","Muyuyu","NA","NA"
"Hamlet","Other","Other","Outro","Nyingine","Tanzania","Pwani","Kibiti DC","Mtunda","Other","NA","NA"
"Hamlet","Mkole","Mkole","Mkole","Mkole","Tanzania","Pwani","Kibiti DC","Mwambao","Kigunguli","NA","NA"
"Hamlet","Mpafuni","Mpafuni","Mpafuni","Mpafuni","Tanzania","Pwani","Kibiti DC","Mwambao","Kigunguli","NA","NA"
"Hamlet","Mselema","Mselema","Mselema","Mselema","Tanzania","Pwani","Kibiti DC","Mwambao","Kigunguli","NA","NA"
"Hamlet","Other","Other","Outro","Nyingine","Tanzania","Pwani","Kibiti DC","Mwambao","Kigunguli","NA","NA"
"Hamlet","Kariakoo","Kariakoo","Kariakoo","Kariakoo","Tanzania","Pwani","Kibiti DC","Mwambao","Kivinja A","NA","NA"
"Hamlet","Kisanjani","Kisanjani","Kisanjani","Kisanjani","Tanzania","Pwani","Kibiti DC","Mwambao","Kivinja A","NA","NA"
"Hamlet","Masakwi","Masakwi","Masakwi","Masakwi","Tanzania","Pwani","Kibiti DC","Mwambao","Kivinja A","NA","NA"
"Hamlet","Other","Other","Outro","Nyingine","Tanzania","Pwani","Kibiti DC","Mwambao","Kivinja A","NA","NA"
"Hamlet","Mfenesini","Mfenesini","Mfenesini","Mfenesini","Tanzania","Pwani","Kibiti DC","Mwambao","Kivinja B","NA","NA"
"Hamlet","Mkegetoni","Mkegetoni","Mkegetoni","Mkegetoni","Tanzania","Pwani","Kibiti DC","Mwambao","Kivinja B","NA","NA"
"Hamlet","Mweyubaruti","Mweyubaruti","Mweyubaruti","Mweyubaruti","Tanzania","Pwani","Kibiti DC","Mwambao","Kivinja B","NA","NA"
"Hamlet","Other","Other","Outro","Nyingine","Tanzania","Pwani","Kibiti DC","Mwambao","Kivinja B","NA","NA"
"Hamlet","Mititimbo","Mititimbo","Mititimbo","Mititimbo","Tanzania","Pwani","Kibiti DC","Mwambao","Mchungu","NA","NA"
"Hamlet","Mpekeso","Mpekeso","Mpekeso","Mpekeso","Tanzania","Pwani","Kibiti DC","Mwambao","Mchungu","NA","NA"
"Hamlet","Other","Other","Outro","Nyingine","Tanzania","Pwani","Kibiti DC","Mwambao","Mchungu","NA","NA"
"Hamlet","Kikombe","Kikombe","Kikombe","Kikombe","Tanzania","Pwani","Kibiti DC","Mwambao","Mkenda","NA","NA"
"Hamlet","Mkenda Mnazi","Mkenda Mnazi","Mkenda Mnazi","Mkenda Mnazi","Tanzania","Pwani","Kibiti DC","Mwambao","Mkenda","NA","NA"
"Hamlet","Ngungule","Ngungule","Ngungule","Ngungule","Tanzania","Pwani","Kibiti DC","Mwambao","Mkenda","NA","NA"
"Hamlet","Other","Other","Outro","Nyingine","Tanzania","Pwani","Kibiti DC","Mwambao","Mkenda","NA","NA"
"Hamlet","Genju","Genju","Genju","Genju","Tanzania","Pwani","Kibiti DC","Mwambao","Msindaji","NA","NA"
"Hamlet","Madukani","Madukani","Madukani","Madukani","Tanzania","Pwani","Kibiti DC","Mwambao","Msindaji","NA","NA"
"Hamlet","Other","Other","Outro","Nyingine","Tanzania","Pwani","Kibiti DC","Mwambao","Msindaji","NA","NA"
"Hamlet","Other","Other","Outro","Nyingine","Tanzania","Pwani","Kibiti DC","Mwambao","Other","NA","NA"
"Hamlet","Kilulatambwe Kati","Kilulatambwe Kati","Kilulatambwe Kati","Kilulatambwe Kati","Tanzania","Pwani","Kibiti DC","Ruaruke","Kilulatambwe","NA","NA"
"Hamlet","Mbusi","Mbusi","Mbusi","Mbusi","Tanzania","Pwani","Kibiti DC","Ruaruke","Kilulatambwe","NA","NA"
"Hamlet","Milonzi","Milonzi","Milonzi","Milonzi","Tanzania","Pwani","Kibiti DC","Ruaruke","Kilulatambwe","NA","NA"
"Hamlet","Other","Other","Outro","Nyingine","Tanzania","Pwani","Kibiti DC","Ruaruke","Kilulatambwe","NA","NA"
"Hamlet","Mkopi","Mkopi","Mkopi","Mkopi","Tanzania","Pwani","Kibiti DC","Ruaruke","Nyamatanga","NA","NA"
"Hamlet","Mtomboloka","Mtomboloka","Mtomboloka","Mtomboloka","Tanzania","Pwani","Kibiti DC","Ruaruke","Nyamatanga","NA","NA"
"Hamlet","Nyamatanga","Nyamatanga","Nyamatanga","Nyamatanga","Tanzania","Pwani","Kibiti DC","Ruaruke","Nyamatanga","NA","NA"
"Hamlet","Other","Other","Outro","Nyingine","Tanzania","Pwani","Kibiti DC","Ruaruke","Nyamatanga","NA","NA"
"Hamlet","Kindande","Kindande","Kindande","Kindande","Tanzania","Pwani","Kibiti DC","Ruaruke","Ruaruke A","NA","NA"
"Hamlet","Kiwaga","Kiwaga","Kiwaga","Kiwaga","Tanzania","Pwani","Kibiti DC","Ruaruke","Ruaruke A","NA","NA"
"Hamlet","Mwenge","Mwenge","Mwenge","Mwenge","Tanzania","Pwani","Kibiti DC","Ruaruke","Ruaruke A","NA","NA"
"Hamlet","Nyambalapi","Nyambalapi","Nyambalapi","Nyambalapi","Tanzania","Pwani","Kibiti DC","Ruaruke","Ruaruke A","NA","NA"
"Hamlet","Other","Other","Outro","Nyingine","Tanzania","Pwani","Kibiti DC","Ruaruke","Ruaruke A","NA","NA"
"Hamlet","Kimbwere famiti","Kimbwere famiti","Kimbwere famiti","Kimbwere famiti","Tanzania","Pwani","Kibiti DC","Ruaruke","Ruaruke B","NA","NA"
"Hamlet","Mbawa","Mbawa","Mbawa","Mbawa","Tanzania","Pwani","Kibiti DC","Ruaruke","Ruaruke B","NA","NA"
"Hamlet","Mfule Mkumbini","Mfule Mkumbini","Mfule Mkumbini","Mfule Mkumbini","Tanzania","Pwani","Kibiti DC","Ruaruke","Ruaruke B","NA","NA"
"Hamlet","Mgerezini","Mgerezini","Mgerezini","Mgerezini","Tanzania","Pwani","Kibiti DC","Ruaruke","Ruaruke B","NA","NA"
"Hamlet","Nyanindi - Makoge","Nyanindi - Makoge","Nyanindi - Makoge","Nyanindi - Makoge","Tanzania","Pwani","Kibiti DC","Ruaruke","Ruaruke B","NA","NA"
"Hamlet","Sangweni Matosa","Sangweni Matosa","Sangweni Matosa","Sangweni Matosa","Tanzania","Pwani","Kibiti DC","Ruaruke","Ruaruke B","NA","NA"
"Hamlet","Other","Other","Outro","Nyingine","Tanzania","Pwani","Kibiti DC","Ruaruke","Ruaruke B","NA","NA"
"Hamlet","Garibovu","Garibovu","Garibovu","Garibovu","Tanzania","Pwani","Kibiti DC","Ruaruke","Rungungu","NA","NA"
"Hamlet","Miwaleni","Miwaleni","Miwaleni","Miwaleni","Tanzania","Pwani","Kibiti DC","Ruaruke","Rungungu","NA","NA"
"Hamlet","Mkwende","Mkwende","Mkwende","Mkwende","Tanzania","Pwani","Kibiti DC","Ruaruke","Rungungu","NA","NA"
"Hamlet","Mungutwa","Mungutwa","Mungutwa","Mungutwa","Tanzania","Pwani","Kibiti DC","Ruaruke","Rungungu","NA","NA"
"Hamlet","Rungungu","Rungungu","Rungungu","Rungungu","Tanzania","Pwani","Kibiti DC","Ruaruke","Rungungu","NA","NA"
"Hamlet","Other","Other","Outro","Nyingine","Tanzania","Pwani","Kibiti DC","Ruaruke","Rungungu","NA","NA"
"Hamlet","Other","Other","Outro","Nyingine","Tanzania","Pwani","Kibiti DC","Ruaruke","Other","NA","NA"
"Hamlet","Pwani","Pwani","Pwani","Pwani","Tanzania","Pwani","Kibiti DC","Salale","Kiomboni","NA","NA"
"Hamlet","Twana","Twana","Twana","Twana","Tanzania","Pwani","Kibiti DC","Salale","Kiomboni","NA","NA"
"Hamlet","Urongoni","Urongoni","Urongoni","Urongoni","Tanzania","Pwani","Kibiti DC","Salale","Kiomboni","NA","NA"
"Hamlet","Other","Other","Outro","Nyingine","Tanzania","Pwani","Kibiti DC","Salale","Kiomboni","NA","NA"
"Hamlet","Kilwani","Kilwani","Kilwani","Kilwani","Tanzania","Pwani","Kibiti DC","Salale","Mchinga","NA","NA"
"Hamlet","Mchinga","Mchinga","Mchinga","Mchinga","Tanzania","Pwani","Kibiti DC","Salale","Mchinga","NA","NA"
"Hamlet","Salale","Salale","Salale","Salale","Tanzania","Pwani","Kibiti DC","Salale","Mchinga","NA","NA"
"Hamlet","Saninga","Saninga","Saninga","Saninga","Tanzania","Pwani","Kibiti DC","Salale","Mchinga","NA","NA"
"Hamlet","Simba Ulanga","Simba Ulanga","Simba Ulanga","Simba Ulanga","Tanzania","Pwani","Kibiti DC","Salale","Mchinga","NA","NA"
"Hamlet","Other","Other","Outro","Nyingine","Tanzania","Pwani","Kibiti DC","Salale","Mchinga","NA","NA"
"Hamlet","Mfisini A","Mfisini A","Mfisini A","Mfisini A","Tanzania","Pwani","Kibiti DC","Salale","Mfisini","NA","NA"
"Hamlet","Mfisini B","Mfisini B","Mfisini B","Mfisini B","Tanzania","Pwani","Kibiti DC","Salale","Mfisini","NA","NA"
"Hamlet","Mfisini kati","Mfisini kati","Mfisini kati","Mfisini kati","Tanzania","Pwani","Kibiti DC","Salale","Mfisini","NA","NA"
"Hamlet","Other","Other","Outro","Nyingine","Tanzania","Pwani","Kibiti DC","Salale","Mfisini","NA","NA"
"Hamlet","Kihingi Pwani","Kihingi Pwani","Kihingi Pwani","Kihingi Pwani","Tanzania","Pwani","Kibiti DC","Salale","Nyamisati","NA","NA"
"Hamlet","Kihingi Shule","Kihingi Shule","Kihingi Shule","Kihingi Shule","Tanzania","Pwani","Kibiti DC","Salale","Nyamisati","NA","NA"
"Hamlet","Mjengea","Mjengea","Mjengea","Mjengea","Tanzania","Pwani","Kibiti DC","Salale","Nyamisati","NA","NA"
"Hamlet","Other","Other","Outro","Nyingine","Tanzania","Pwani","Kibiti DC","Salale","Nyamisati","NA","NA"
"Hamlet","Other","Other","Outro","Nyingine","Tanzania","Pwani","Kibiti DC","Salale","Other","NA","NA"
"Hamlet","Other","Other","Outro","Nyingine","Tanzania","Pwani","Kibiti DC","Other","Other","NA","NA"
"Hamlet","Golani","Golani","Golani","Golani","Tanzania","Pwani","Rufiji DC","Chemchem","Golani","NA","NA"
"Hamlet","Other","Other","Outro","Nyingine","Tanzania","Pwani","Rufiji DC","Chemchem","Golani","NA","NA"
"Hamlet","Kindwiti/Kidwitwi","Kindwiti/Kidwitwi","Kindwiti/Kidwitwi","Kindwiti/Kidwitwi","Tanzania","Pwani","Rufiji DC","Chemchem","Kindwiti/Kidwitwi","NA","NA"
"Hamlet","Other","Other","Outro","Nyingine","Tanzania","Pwani","Rufiji DC","Chemchem","Kindwiti/Kidwitwi","NA","NA"
"Hamlet","Kipei","Kipei","Kipei","Kipei","Tanzania","Pwani","Rufiji DC","Chemchem","Kipei","NA","NA"
"Hamlet","Other","Other","Outro","Nyingine","Tanzania","Pwani","Rufiji DC","Chemchem","Kipei","NA","NA"
"Hamlet","Nyandakatundu","Nyandakatundu","Nyandakatundu","Nyandakatundu","Tanzania","Pwani","Rufiji DC","Chemchem","Nyandakatundu","NA","NA"
"Hamlet","Other","Other","Outro","Nyingine","Tanzania","Pwani","Rufiji DC","Chemchem","Nyandakatundu","NA","NA"
"Hamlet","Nyandumbi","Nyandumbi","Nyandumbi","Nyandumbi","Tanzania","Pwani","Rufiji DC","Chemchem","Nyandumbi","NA","NA"
"Hamlet","Other","Other","Outro","Nyingine","Tanzania","Pwani","Rufiji DC","Chemchem","Nyandumbi","NA","NA"
"Hamlet","Nyangwai","Nyangwai","Nyangwai","Nyangwai","Tanzania","Pwani","Rufiji DC","Chemchem","Nyangwai","NA","NA"
"Hamlet","Other","Other","Outro","Nyingine","Tanzania","Pwani","Rufiji DC","Chemchem","Nyangwai","NA","NA"
"Hamlet","Nyawanje/ngwembele","Nyawanje/ngwembele","Nyawanje/ngwembele","Nyawanje/ngwembele","Tanzania","Pwani","Rufiji DC","Chemchem","Nyawanje/Ngwembele","NA","NA"
"Hamlet","Other","Other","Outro","Nyingine","Tanzania","Pwani","Rufiji DC","Chemchem","Nyawanje/Ngwembele","NA","NA"
"Hamlet","Other","Other","Outro","Nyingine","Tanzania","Pwani","Rufiji DC","Chemchem","Other","NA","NA"
"Hamlet","Ipengo","Ipengo","Ipengo","Ipengo","Tanzania","Pwani","Rufiji DC","Chumbi","Chumbi A","NA","NA"
"Hamlet","Kiegele","Kiegele","Kiegele","Kiegele","Tanzania","Pwani","Rufiji DC","Chumbi","Chumbi A","NA","NA"
"Hamlet","Kigogo","Kigogo","Kigogo","Kigogo","Tanzania","Pwani","Rufiji DC","Chumbi","Chumbi A","NA","NA"
"Hamlet","Tangini","Tangini","Tangini","Tangini","Tanzania","Pwani","Rufiji DC","Chumbi","Chumbi A","NA","NA"
"Hamlet","Other","Other","Outro","Nyingine","Tanzania","Pwani","Rufiji DC","Chumbi","Chumbi A","NA","NA"
"Hamlet","Boto","Boto","Boto","Boto","Tanzania","Pwani","Rufiji DC","Chumbi","Chumbi B","NA","NA"
"Hamlet","Kilindi","Kilindi","Kilindi","Kilindi","Tanzania","Pwani","Rufiji DC","Chumbi","Chumbi B","NA","NA"
"Hamlet","Kipoka","Kipoka","Kipoka","Kipoka","Tanzania","Pwani","Rufiji DC","Chumbi","Chumbi B","NA","NA"
"Hamlet","Kipoka msomeni","Kipoka msomeni","Kipoka msomeni","Kipoka msomeni","Tanzania","Pwani","Rufiji DC","Chumbi","Chumbi B","NA","NA"
"Hamlet","Msikitini","Msikitini","Msikitini","Msikitini","Tanzania","Pwani","Rufiji DC","Chumbi","Chumbi B","NA","NA"
"Hamlet","Other","Other","Outro","Nyingine","Tanzania","Pwani","Rufiji DC","Chumbi","Chumbi B","NA","NA"
"Hamlet","Chumbi Magharibi","Chumbi Magharibi","Chumbi Magharibi","Chumbi Magharibi","Tanzania","Pwani","Rufiji DC","Chumbi","Chumbi C","NA","NA"
"Hamlet","Kanga","Kanga","Kanga","Kanga","Tanzania","Pwani","Rufiji DC","Chumbi","Chumbi C","NA","NA"
"Hamlet","Ngaro","Ngaro","Ngaro","Ngaro","Tanzania","Pwani","Rufiji DC","Chumbi","Chumbi C","NA","NA"
"Hamlet","Nyakipande","Nyakipande","Nyakipande","Nyakipande","Tanzania","Pwani","Rufiji DC","Chumbi","Chumbi C","NA","NA"
"Hamlet","Other","Other","Outro","Nyingine","Tanzania","Pwani","Rufiji DC","Chumbi","Chumbi C","NA","NA"
"Hamlet","Other","Other","Outro","Nyingine","Tanzania","Pwani","Rufiji DC","Chumbi","Other","NA","NA"
"Hamlet","Kaunda","Kaunda","Kaunda","Kaunda","Tanzania","Pwani","Rufiji DC","Ikwiriri","Ikwiriri Kaskazini","NA","NA"
"Hamlet","Kazamoyo","Kazamoyo","Kazamoyo","Kazamoyo","Tanzania","Pwani","Rufiji DC","Ikwiriri","Ikwiriri Kaskazini","NA","NA"
"Hamlet","Mparange","Mparange","Mparange","Mparange","Tanzania","Pwani","Rufiji DC","Ikwiriri","Ikwiriri Kaskazini","NA","NA"
"Hamlet","Mtakuja","Mtakuja","Mtakuja","Mtakuja","Tanzania","Pwani","Rufiji DC","Ikwiriri","Ikwiriri Kaskazini","NA","NA"
"Hamlet","Mwenge","Mwenge","Mwenge","Mwenge","Tanzania","Pwani","Rufiji DC","Ikwiriri","Ikwiriri Kaskazini","NA","NA"
"Hamlet","Ujamaa","Ujamaa","Ujamaa","Ujamaa","Tanzania","Pwani","Rufiji DC","Ikwiriri","Ikwiriri Kaskazini","NA","NA"
"Hamlet","Other","Other","Outro","Nyingine","Tanzania","Pwani","Rufiji DC","Ikwiriri","Ikwiriri Kaskazini","NA","NA"
"Hamlet","Msikitini","Msikitini","Msikitini","Msikitini","Tanzania","Pwani","Rufiji DC","Ikwiriri","Ikwiriri Kati","NA","NA"
"Hamlet","Mwenge","Mwenge","Mwenge","Mwenge","Tanzania","Pwani","Rufiji DC","Ikwiriri","Ikwiriri Kati","NA","NA"
"Hamlet","SIDO","SIDO","SIDO","SIDO","Tanzania","Pwani","Rufiji DC","Ikwiriri","Ikwiriri Kati","NA","NA"
"Hamlet","Sisi kwa Sisi","Sisi kwa Sisi","Sisi kwa Sisi","Sisi kwa Sisi","Tanzania","Pwani","Rufiji DC","Ikwiriri","Ikwiriri Kati","NA","NA"
"Hamlet","Tangimoja","Tangimoja","Tangimoja","Tangimoja","Tanzania","Pwani","Rufiji DC","Ikwiriri","Ikwiriri Kati","NA","NA"
"Hamlet","Ujirani Mwema","Ujirani Mwema","Ujirani Mwema","Ujirani Mwema","Tanzania","Pwani","Rufiji DC","Ikwiriri","Ikwiriri Kati","NA","NA"
"Hamlet","Umoja","Umoja","Umoja","Umoja","Tanzania","Pwani","Rufiji DC","Ikwiriri","Ikwiriri Kati","NA","NA"
"Hamlet","Upendo","Upendo","Upendo","Upendo","Tanzania","Pwani","Rufiji DC","Ikwiriri","Ikwiriri Kati","NA","NA"
"Hamlet","Other","Other","Outro","Nyingine","Tanzania","Pwani","Rufiji DC","Ikwiriri","Ikwiriri Kati","NA","NA"
"Hamlet","Karume","Karume","Karume","Karume","Tanzania","Pwani","Rufiji DC","Ikwiriri","Ikwiriri Kusini","NA","NA"
"Hamlet","Kawawa","Kawawa","Kawawa","Kawawa","Tanzania","Pwani","Rufiji DC","Ikwiriri","Ikwiriri Kusini","NA","NA"
"Hamlet","Malemba","Malemba","Malemba","Malemba","Tanzania","Pwani","Rufiji DC","Ikwiriri","Ikwiriri Kusini","NA","NA"
"Hamlet","Mpima","Mpima","Mpima","Mpima","Tanzania","Pwani","Rufiji DC","Ikwiriri","Ikwiriri Kusini","NA","NA"
"Hamlet","Muungano","Muungano","Muungano","Muungano","Tanzania","Pwani","Rufiji DC","Ikwiriri","Ikwiriri Kusini","NA","NA"
"Hamlet","Nyerere","Nyerere","Nyerere","Nyerere","Tanzania","Pwani","Rufiji DC","Ikwiriri","Ikwiriri Kusini","NA","NA"
"Hamlet","P/Kisumo","P/Kisumo","P/Kisumo","P/Kisumo","Tanzania","Pwani","Rufiji DC","Ikwiriri","Ikwiriri Kusini","NA","NA"
"Hamlet","Posta","Posta","Posta","Posta","Tanzania","Pwani","Rufiji DC","Ikwiriri","Ikwiriri Kusini","NA","NA"
"Hamlet","Tangimbili Kusini","Tangimbili Kusini","Tangimbili Kusini","Tangimbili Kusini","Tanzania","Pwani","Rufiji DC","Ikwiriri","Ikwiriri Kusini","NA","NA"
"Hamlet","Uhuru","Uhuru","Uhuru","Uhuru","Tanzania","Pwani","Rufiji DC","Ikwiriri","Ikwiriri Kusini","NA","NA"
"Hamlet","Ujamaa","Ujamaa","Ujamaa","Ujamaa","Tanzania","Pwani","Rufiji DC","Ikwiriri","Ikwiriri Kusini","NA","NA"
"Hamlet","Other","Other","Outro","Nyingine","Tanzania","Pwani","Rufiji DC","Ikwiriri","Ikwiriri Kusini","NA","NA"
"Hamlet","Other","Other","Outro","Nyingine","Tanzania","Pwani","Rufiji DC","Ikwiriri","Other","NA","NA"
"Hamlet","Mawilo","Mawilo","Mawilo","Mawilo","Tanzania","Pwani","Rufiji DC","Kipugira","Kipo","NA","NA"
"Hamlet","Mgohori","Mgohori","Mgohori","Mgohori","Tanzania","Pwani","Rufiji DC","Kipugira","Kipo","NA","NA"
"Hamlet","Mpande","Mpande","Mpande","Mpande","Tanzania","Pwani","Rufiji DC","Kipugira","Kipo","NA","NA"
"Hamlet","Other","Other","Outro","Nyingine","Tanzania","Pwani","Rufiji DC","Kipugira","Kipo","NA","NA"
"Hamlet","Kipugira","Kipugira","Kipugira","Kipugira","Tanzania","Pwani","Rufiji DC","Kipugira","Kipugira","NA","NA"
"Hamlet","Pangapanga","Pangapanga","Pangapanga","Pangapanga","Tanzania","Pwani","Rufiji DC","Kipugira","Kipugira","NA","NA"
"Hamlet","Other","Other","Outro","Nyingine","Tanzania","Pwani","Rufiji DC","Kipugira","Kipugira","NA","NA"
"Hamlet","Nyikanza","Nyikanza","Nyikanza","Nyikanza","Tanzania","Pwani","Rufiji DC","Kipugira","Ndundunyikanza","NA","NA"
"Hamlet","Tetema","Tetema","Tetema","Tetema","Tanzania","Pwani","Rufiji DC","Kipugira","Ndundunyikanza","NA","NA"
"Hamlet","Other","Other","Outro","Nyingine","Tanzania","Pwani","Rufiji DC","Kipugira","Ndundunyikanza","NA","NA"
"Hamlet","Mtalula","Mtalula","Mtalula","Mtalula","Tanzania","Pwani","Rufiji DC","Kipugira","Nyaminywili","NA","NA"
"Hamlet","Nyaminywili","Nyaminywili","Nyaminywili","Nyaminywili","Tanzania","Pwani","Rufiji DC","Kipugira","Nyaminywili","NA","NA"
"Hamlet","Other","Other","Outro","Nyingine","Tanzania","Pwani","Rufiji DC","Kipugira","Nyaminywili","NA","NA"
"Hamlet","Other","Other","Outro","Nyingine","Tanzania","Pwani","Rufiji DC","Kipugira","Other","NA","NA"
"Hamlet","Kitapi Magharibi","Kitapi Magharibi","Kitapi Magharibi","Kitapi Magharibi","Tanzania","Pwani","Rufiji DC","Mbwara","Kitapi","NA","NA"
"Hamlet","Kitapi Mashariki","Kitapi Mashariki","Kitapi Mashariki","Kitapi Mashariki","Tanzania","Pwani","Rufiji DC","Mbwara","Kitapi","NA","NA"
"Hamlet","Namahamba","Namahamba","Namahamba","Namahamba","Tanzania","Pwani","Rufiji DC","Mbwara","Kitapi","NA","NA"
"Hamlet","Other","Other","Outro","Nyingine","Tanzania","Pwani","Rufiji DC","Mbwara","Kitapi","NA","NA"
"Hamlet","Mbwara magharibi","Mbwara magharibi","Mbwara magharibi","Mbwara magharibi","Tanzania","Pwani","Rufiji DC","Mbwara","Mbwara","NA","NA"
"Hamlet","Mbwara Mashariki","Mbwara Mashariki","Mbwara Mashariki","Mbwara Mashariki","Tanzania","Pwani","Rufiji DC","Mbwara","Mbwara","NA","NA"
"Hamlet","Misimbo","Misimbo","Misimbo","Misimbo","Tanzania","Pwani","Rufiji DC","Mbwara","Mbwara","NA","NA"
"Hamlet","Other","Other","Outro","Nyingine","Tanzania","Pwani","Rufiji DC","Mbwara","Mbwara","NA","NA"
"Hamlet","Kikibu","Kikibu","Kikibu","Kikibu","Tanzania","Pwani","Rufiji DC","Mbwara","Nambunju","NA","NA"
"Hamlet","Miangalaya","Miangalaya","Miangalaya","Miangalaya","Tanzania","Pwani","Rufiji DC","Mbwara","Nambunju","NA","NA"
"Hamlet","Namakono","Namakono","Namakono","Namakono","Tanzania","Pwani","Rufiji DC","Mbwara","Nambunju","NA","NA"
"Hamlet","Nambunju Magharibi","Nambunju Magharibi","Nambunju Magharibi","Nambunju Magharibi","Tanzania","Pwani","Rufiji DC","Mbwara","Nambunju","NA","NA"
"Hamlet","Nambunju mashariki","Nambunju mashariki","Nambunju mashariki","Nambunju mashariki","Tanzania","Pwani","Rufiji DC","Mbwara","Nambunju","NA","NA"
"Hamlet","Other","Other","Outro","Nyingine","Tanzania","Pwani","Rufiji DC","Mbwara","Nambunju","NA","NA"
"Hamlet","Nyamwage Magharibi","Nyamwage Magharibi","Nyamwage Magharibi","Nyamwage Magharibi","Tanzania","Pwani","Rufiji DC","Mbwara","Nyamwage","NA","NA"
"Hamlet","Nyamwage Mashariki","Nyamwage Mashariki","Nyamwage Mashariki","Nyamwage Mashariki","Tanzania","Pwani","Rufiji DC","Mbwara","Nyamwage","NA","NA"
"Hamlet","Shauri moyo","Shauri moyo","Shauri moyo","Shauri moyo","Tanzania","Pwani","Rufiji DC","Mbwara","Nyamwage","NA","NA"
"Hamlet","Other","Other","Outro","Nyingine","Tanzania","Pwani","Rufiji DC","Mbwara","Nyamwage","NA","NA"
"Hamlet","Gege","Gege","Gege","Gege","Tanzania","Pwani","Rufiji DC","Mbwara","Tawi","NA","NA"
"Hamlet","Kikobo","Kikobo","Kikobo","Kikobo","Tanzania","Pwani","Rufiji DC","Mbwara","Tawi","NA","NA"
"Hamlet","Mkukiki","Mkukiki","Mkukiki","Mkukiki","Tanzania","Pwani","Rufiji DC","Mbwara","Tawi","NA","NA"
"Hamlet","Mkwiri","Mkwiri","Mkwiri","Mkwiri","Tanzania","Pwani","Rufiji DC","Mbwara","Tawi","NA","NA"
"Hamlet","Other","Other","Outro","Nyingine","Tanzania","Pwani","Rufiji DC","Mbwara","Tawi","NA","NA"
"Hamlet","Other","Other","Outro","Nyingine","Tanzania","Pwani","Rufiji DC","Mbwara","Other","NA","NA"
"Hamlet","Jitegemee","Jitegemee","Jitegemee","Jitegemee","Tanzania","Pwani","Rufiji DC","Mgomba","Mgomba Kaskazini","NA","NA"
"Hamlet","Mpima","Mpima","Mpima","Mpima","Tanzania","Pwani","Rufiji DC","Mgomba","Mgomba Kaskazini","NA","NA"
"Hamlet","Sekondari","Sekondari","Sekondari","Sekondari","Tanzania","Pwani","Rufiji DC","Mgomba","Mgomba Kaskazini","NA","NA"
"Hamlet","Ujamaa","Ujamaa","Ujamaa","Ujamaa","Tanzania","Pwani","Rufiji DC","Mgomba","Mgomba Kaskazini","NA","NA"
"Hamlet","Other","Other","Outro","Nyingine","Tanzania","Pwani","Rufiji DC","Mgomba","Mgomba Kaskazini","NA","NA"
"Hamlet","Kiapo","Kiapo","Kiapo","Kiapo","Tanzania","Pwani","Rufiji DC","Mgomba","Mgomba Kati","NA","NA"
"Hamlet","Malenda","Malenda","Malenda","Malenda","Tanzania","Pwani","Rufiji DC","Mgomba","Mgomba Kati","NA","NA"
"Hamlet","Masenda","Masenda","Masenda","Masenda","Tanzania","Pwani","Rufiji DC","Mgomba","Mgomba Kati","NA","NA"
"Hamlet","Mtupa","Mtupa","Mtupa","Mtupa","Tanzania","Pwani","Rufiji DC","Mgomba","Mgomba Kati","NA","NA"
"Hamlet","Other","Other","Outro","Nyingine","Tanzania","Pwani","Rufiji DC","Mgomba","Mgomba Kati","NA","NA"
"Hamlet","Kijonjo","Kijonjo","Kijonjo","Kijonjo","Tanzania","Pwani","Rufiji DC","Mgomba","Mgomba Kusini","NA","NA"
"Hamlet","Kingwande","Kingwande","Kingwande","Kingwande","Tanzania","Pwani","Rufiji DC","Mgomba","Mgomba Kusini","NA","NA"
"Hamlet","Malipia","Malipia","Malipia","Malipia","Tanzania","Pwani","Rufiji DC","Mgomba","Mgomba Kusini","NA","NA"
"Hamlet","Nongwa","Nongwa","Nongwa","Nongwa","Tanzania","Pwani","Rufiji DC","Mgomba","Mgomba Kusini","NA","NA"
"Hamlet","Other","Other","Outro","Nyingine","Tanzania","Pwani","Rufiji DC","Mgomba","Mgomba Kusini","NA","NA"
"Hamlet","Other","Other","Outro","Nyingine","Tanzania","Pwani","Rufiji DC","Mgomba","Other","NA","NA"
"Hamlet","Mbunju","Mbunju","Mbunju","Mbunju","Tanzania","Pwani","Rufiji DC","Mkongo","Mbunju Mvuleni","NA","NA"
"Hamlet","Mvuleni","Mvuleni","Mvuleni","Mvuleni","Tanzania","Pwani","Rufiji DC","Mkongo","Mbunju Mvuleni","NA","NA"
"Hamlet","Other","Other","Outro","Nyingine","Tanzania","Pwani","Rufiji DC","Mkongo","Mbunju Mvuleni","NA","NA"
"Hamlet","Karakana","Karakana","Karakana","Karakana","Tanzania","Pwani","Rufiji DC","Mkongo","Mkongo Kaskazini","NA","NA"
"Hamlet","Nyipara","Nyipara","Nyipara","Nyipara","Tanzania","Pwani","Rufiji DC","Mkongo","Mkongo Kaskazini","NA","NA"
"Hamlet","Rusende","Rusende","Rusende","Rusende","Tanzania","Pwani","Rufiji DC","Mkongo","Mkongo Kaskazini","NA","NA"
"Hamlet","Other","Other","Outro","Nyingine","Tanzania","Pwani","Rufiji DC","Mkongo","Mkongo Kaskazini","NA","NA"
"Hamlet","Kitundu","Kitundu","Kitundu","Kitundu","Tanzania","Pwani","Rufiji DC","Mkongo","Mkongo Kusini","NA","NA"
"Hamlet","Kiwili","Kiwili","Kiwili","Kiwili","Tanzania","Pwani","Rufiji DC","Mkongo","Mkongo Kusini","NA","NA"
"Hamlet","Makonge","Makonge","Makonge","Makonge","Tanzania","Pwani","Rufiji DC","Mkongo","Mkongo Kusini","NA","NA"
"Hamlet","Mkunga","Mkunga","Mkunga","Mkunga","Tanzania","Pwani","Rufiji DC","Mkongo","Mkongo Kusini","NA","NA"
"Hamlet","Other","Other","Outro","Nyingine","Tanzania","Pwani","Rufiji DC","Mkongo","Mkongo Kusini","NA","NA"
"Hamlet","Beta","Beta","Beta","Beta","Tanzania","Pwani","Rufiji DC","Mkongo","Ruwe","NA","NA"
"Hamlet","Kipera","Kipera","Kipera","Kipera","Tanzania","Pwani","Rufiji DC","Mkongo","Ruwe","NA","NA"
"Hamlet","Nyaringwe","Nyaringwe","Nyaringwe","Nyaringwe","Tanzania","Pwani","Rufiji DC","Mkongo","Ruwe","NA","NA"
"Hamlet","Other","Other","Outro","Nyingine","Tanzania","Pwani","Rufiji DC","Mkongo","Ruwe","NA","NA"
"Hamlet","Other","Other","Outro","Nyingine","Tanzania","Pwani","Rufiji DC","Mkongo","Other","NA","NA"
"Hamlet","Chayonge","Chayonge","Chayonge","Chayonge","Tanzania","Pwani","Rufiji DC","Mohoro","King'ong'o","NA","NA"
"Hamlet","King'ong'o","King'ong'o","King'ong'o","King'ong'o","Tanzania","Pwani","Rufiji DC","Mohoro","King'ong'o","NA","NA"
"Hamlet","Kisangi","Kisangi","Kisangi","Kisangi","Tanzania","Pwani","Rufiji DC","Mohoro","King'ong'o","NA","NA"
"Hamlet","Kwampakwila","Kwampakwila","Kwampakwila","Kwampakwila","Tanzania","Pwani","Rufiji DC","Mohoro","King'ong'o","NA","NA"
"Hamlet","Mpilipili","Mpilipili","Mpilipili","Mpilipili","Tanzania","Pwani","Rufiji DC","Mohoro","King'ong'o","NA","NA"
"Hamlet","Other","Other","Outro","Nyingine","Tanzania","Pwani","Rufiji DC","Mohoro","King'ong'o","NA","NA"
"Hamlet","Kiwanga","Kiwanga","Kiwanga","Kiwanga","Tanzania","Pwani","Rufiji DC","Mohoro","Kiwanga","NA","NA"
"Hamlet","Londondo","Londondo","Londondo","Londondo","Tanzania","Pwani","Rufiji DC","Mohoro","Kiwanga","NA","NA"
"Hamlet","Mihiru","Mihiru","Mihiru","Mihiru","Tanzania","Pwani","Rufiji DC","Mohoro","Kiwanga","NA","NA"
"Hamlet","Other","Other","Outro","Nyingine","Tanzania","Pwani","Rufiji DC","Mohoro","Kiwanga","NA","NA"
"Hamlet","Mwanani","Mwanani","Mwanani","Mwanani","Tanzania","Pwani","Rufiji DC","Mohoro","Mohoro Magharibi","NA","NA"
"Hamlet","Nyakikai","Nyakikai","Nyakikai","Nyakikai","Tanzania","Pwani","Rufiji DC","Mohoro","Mohoro Magharibi","NA","NA"
"Hamlet","Nyandote","Nyandote","Nyandote","Nyandote","Tanzania","Pwani","Rufiji DC","Mohoro","Mohoro Magharibi","NA","NA"
"Hamlet","Oldmohoro","Oldmohoro","Oldmohoro","Oldmohoro","Tanzania","Pwani","Rufiji DC","Mohoro","Mohoro Magharibi","NA","NA"
"Hamlet","Sunga Bara","Sunga Bara","Sunga Bara","Sunga Bara","Tanzania","Pwani","Rufiji DC","Mohoro","Mohoro Magharibi","NA","NA"
"Hamlet","Sungapwani","Sungapwani","Sungapwani","Sungapwani","Tanzania","Pwani","Rufiji DC","Mohoro","Mohoro Magharibi","NA","NA"
"Hamlet","Other","Other","Outro","Nyingine","Tanzania","Pwani","Rufiji DC","Mohoro","Mohoro Magharibi","NA","NA"
"Hamlet","Nyamidege/Chamwenge","Nyamidege/Chamwenge","Nyamidege/Chamwenge","Nyamidege/Chamwenge","Tanzania","Pwani","Rufiji DC","Mohoro","Mohoro Mashariki","NA","NA"
"Hamlet","Nyampaku bara","Nyampaku bara","Nyampaku bara","Nyampaku bara","Tanzania","Pwani","Rufiji DC","Mohoro","Mohoro Mashariki","NA","NA"
"Hamlet","Nyampaku mashariki","Nyampaku mashariki","Nyampaku mashariki","Nyampaku mashariki","Tanzania","Pwani","Rufiji DC","Mohoro","Mohoro Mashariki","NA","NA"
"Hamlet","Nyampaku pwani","Nyampaku pwani","Nyampaku pwani","Nyampaku pwani","Tanzania","Pwani","Rufiji DC","Mohoro","Mohoro Mashariki","NA","NA"
"Hamlet","Nyautika","Nyautika","Nyautika","Nyautika","Tanzania","Pwani","Rufiji DC","Mohoro","Mohoro Mashariki","NA","NA"
"Hamlet","Other","Other","Outro","Nyingine","Tanzania","Pwani","Rufiji DC","Mohoro","Mohoro Mashariki","NA","NA"
"Hamlet","Makenzi","Makenzi","Makenzi","Makenzi","Tanzania","Pwani","Rufiji DC","Mohoro","Ndundutawa","NA","NA"
"Hamlet","Msikitini","Msikitini","Msikitini","Msikitini","Tanzania","Pwani","Rufiji DC","Mohoro","Ndundutawa","NA","NA"
"Hamlet","Ndundutawa","Ndundutawa","Ndundutawa","Ndundutawa","Tanzania","Pwani","Rufiji DC","Mohoro","Ndundutawa","NA","NA"
"Hamlet","Nyalindi","Nyalindi","Nyalindi","Nyalindi","Tanzania","Pwani","Rufiji DC","Mohoro","Ndundutawa","NA","NA"
"Hamlet","Other","Other","Outro","Nyingine","Tanzania","Pwani","Rufiji DC","Mohoro","Ndundutawa","NA","NA"
"Hamlet","Kindwitwi","Kindwitwi","Kindwitwi","Kindwitwi","Tanzania","Pwani","Rufiji DC","Mohoro","Shela","NA","NA"
"Hamlet","Mikolwa","Mikolwa","Mikolwa","Mikolwa","Tanzania","Pwani","Rufiji DC","Mohoro","Shela","NA","NA"
"Hamlet","Rangitatu","Rangitatu","Rangitatu","Rangitatu","Tanzania","Pwani","Rufiji DC","Mohoro","Shela","NA","NA"
"Hamlet","Stendi","Stendi","Stendi","Stendi","Tanzania","Pwani","Rufiji DC","Mohoro","Shela","NA","NA"
"Hamlet","Other","Other","Outro","Nyingine","Tanzania","Pwani","Rufiji DC","Mohoro","Shela","NA","NA"
"Hamlet","Other","Other","Outro","Nyingine","Tanzania","Pwani","Rufiji DC","Mohoro","Other","NA","NA"
"Hamlet","Kwangwazi","Kwangwazi","Kwangwazi","Kwangwazi","Tanzania","Pwani","Rufiji DC","Mwaseni","Mloka","NA","NA"
"Hamlet","Mkange","Mkange","Mkange","Mkange","Tanzania","Pwani","Rufiji DC","Mwaseni","Mloka","NA","NA"
"Hamlet","Mpanganya","Mpanganya","Mpanganya","Mpanganya","Tanzania","Pwani","Rufiji DC","Mwaseni","Mloka","NA","NA"
"Hamlet","Nyakisiku","Nyakisiku","Nyakisiku","Nyakisiku","Tanzania","Pwani","Rufiji DC","Mwaseni","Mloka","NA","NA"
"Hamlet","Other","Other","Outro","Nyingine","Tanzania","Pwani","Rufiji DC","Mwaseni","Mloka","NA","NA"
"Hamlet","Bizi","Bizi","Bizi","Bizi","Tanzania","Pwani","Rufiji DC","Mwaseni","Mtanza /Msona","NA","NA"
"Hamlet","Msiga","Msiga","Msiga","Msiga","Tanzania","Pwani","Rufiji DC","Mwaseni","Mtanza /Msona","NA","NA"
"Hamlet","Mtanza","Mtanza","Mtanza","Mtanza","Tanzania","Pwani","Rufiji DC","Mwaseni","Mtanza /Msona","NA","NA"
"Hamlet","Mturuma","Mturuma","Mturuma","Mturuma","Tanzania","Pwani","Rufiji DC","Mwaseni","Mtanza /Msona","NA","NA"
"Hamlet","Other","Other","Outro","Nyingine","Tanzania","Pwani","Rufiji DC","Mwaseni","Mtanza /Msona","NA","NA"
"Hamlet","Mibuyusaba","Mibuyusaba","Mibuyusaba","Mibuyusaba","Tanzania","Pwani","Rufiji DC","Mwaseni","Mwaseni","NA","NA"
"Hamlet","Mwaseni","Mwaseni","Mwaseni","Mwaseni","Tanzania","Pwani","Rufiji DC","Mwaseni","Mwaseni","NA","NA"
"Hamlet","Zombe","Zombe","Zombe","Zombe","Tanzania","Pwani","Rufiji DC","Mwaseni","Mwaseni","NA","NA"
"Hamlet","Other","Other","Outro","Nyingine","Tanzania","Pwani","Rufiji DC","Mwaseni","Mwaseni","NA","NA"
"Hamlet","Other","Other","Outro","Nyingine","Tanzania","Pwani","Rufiji DC","Mwaseni","Other","NA","NA"
"Hamlet","Kungulwe","Kungulwe","Kungulwe","Kungulwe","Tanzania","Pwani","Rufiji DC","Ngarambe","Kungulwe","NA","NA"
"Hamlet","Other","Other","Outro","Nyingine","Tanzania","Pwani","Rufiji DC","Ngarambe","Kungulwe","NA","NA"
"Hamlet","Namakono","Namakono","Namakono","Namakono","Tanzania","Pwani","Rufiji DC","Ngarambe","Namakono","NA","NA"
"Hamlet","Other","Other","Outro","Nyingine","Tanzania","Pwani","Rufiji DC","Ngarambe","Namakono","NA","NA"
"Hamlet","Ngarambe Mashariki","Ngarambe Mashariki","Ngarambe Mashariki","Ngarambe Mashariki","Tanzania","Pwani","Rufiji DC","Ngarambe","Ngarambe Mashariki","NA","NA"
"Hamlet","Other","Other","Outro","Nyingine","Tanzania","Pwani","Rufiji DC","Ngarambe","Ngarambe Mashariki","NA","NA"
"Hamlet","NgarambeMagharibi","NgarambeMagharibi","NgarambeMagharibi","NgarambeMagharibi","Tanzania","Pwani","Rufiji DC","Ngarambe","Ngarambemagharibi","NA","NA"
"Hamlet","Other","Other","Outro","Nyingine","Tanzania","Pwani","Rufiji DC","Ngarambe","Ngarambemagharibi","NA","NA"
"Hamlet","Tapika","Tapika","Tapika","Tapika","Tanzania","Pwani","Rufiji DC","Ngarambe","Tapika","NA","NA"
"Hamlet","Other","Other","Outro","Nyingine","Tanzania","Pwani","Rufiji DC","Ngarambe","Tapika","NA","NA"
"Hamlet","Other","Other","Outro","Nyingine","Tanzania","Pwani","Rufiji DC","Ngarambe","Other","NA","NA"
"Hamlet","Kilombero","Kilombero","Kilombero","Kilombero","Tanzania","Pwani","Rufiji DC","Ngorongo","Kilimani Magharibi","NA","NA"
"Hamlet","Kisagai","Kisagai","Kisagai","Kisagai","Tanzania","Pwani","Rufiji DC","Ngorongo","Kilimani Magharibi","NA","NA"
"Hamlet","Mbuyuni","Mbuyuni","Mbuyuni","Mbuyuni","Tanzania","Pwani","Rufiji DC","Ngorongo","Kilimani Magharibi","NA","NA"
"Hamlet","Mpanganya","Mpanganya","Mpanganya","Mpanganya","Tanzania","Pwani","Rufiji DC","Ngorongo","Kilimani Magharibi","NA","NA"
"Hamlet","Tangini","Tangini","Tangini","Tangini","Tanzania","Pwani","Rufiji DC","Ngorongo","Kilimani Magharibi","NA","NA"
"Hamlet","Other","Other","Outro","Nyingine","Tanzania","Pwani","Rufiji DC","Ngorongo","Kilimani Magharibi","NA","NA"
"Hamlet","Gefu","Gefu","Gefu","Gefu","Tanzania","Pwani","Rufiji DC","Ngorongo","Kilimani Mashariki","NA","NA"
"Hamlet","Ginnery","Ginnery","Ginnery","Ginnery","Tanzania","Pwani","Rufiji DC","Ngorongo","Kilimani Mashariki","NA","NA"
"Hamlet","Mkongeni","Mkongeni","Mkongeni","Mkongeni","Tanzania","Pwani","Rufiji DC","Ngorongo","Kilimani Mashariki","NA","NA"
"Hamlet","Mkunga","Mkunga","Mkunga","Mkunga","Tanzania","Pwani","Rufiji DC","Ngorongo","Kilimani Mashariki","NA","NA"
"Hamlet","Unyonge","Unyonge","Unyonge","Unyonge","Tanzania","Pwani","Rufiji DC","Ngorongo","Kilimani Mashariki","NA","NA"
"Hamlet","Other","Other","Outro","Nyingine","Tanzania","Pwani","Rufiji DC","Ngorongo","Kilimani Mashariki","NA","NA"
"Hamlet","Kikongono","Kikongono","Kikongono","Kikongono","Tanzania","Pwani","Rufiji DC","Ngorongo","Ngorongo Magharibi","NA","NA"
"Hamlet","Nyasungwi","Nyasungwi","Nyasungwi","Nyasungwi","Tanzania","Pwani","Rufiji DC","Ngorongo","Ngorongo Magharibi","NA","NA"
"Hamlet","Other","Other","Outro","Nyingine","Tanzania","Pwani","Rufiji DC","Ngorongo","Ngorongo Magharibi","NA","NA"
"Hamlet","Kipenda moyo","Kipenda moyo","Kipenda moyo","Kipenda moyo","Tanzania","Pwani","Rufiji DC","Ngorongo","Ngorongo Mashariki","NA","NA"
"Hamlet","Nyarwiru","Nyarwiru","Nyarwiru","Nyarwiru","Tanzania","Pwani","Rufiji DC","Ngorongo","Ngorongo Mashariki","NA","NA"
"Hamlet","Other","Other","Outro","Nyingine","Tanzania","Pwani","Rufiji DC","Ngorongo","Ngorongo Mashariki","NA","NA"
"Hamlet","Other","Other","Outro","Nyingine","Tanzania","Pwani","Rufiji DC","Ngorongo","Other","NA","NA"
"Hamlet","Kilwa road","Kilwa road","Kilwa road","Kilwa road","Tanzania","Pwani","Rufiji DC","Umwe","Umwe Kaskazini","NA","NA"
"Hamlet","Mchikichini","Mchikichini","Mchikichini","Mchikichini","Tanzania","Pwani","Rufiji DC","Umwe","Umwe Kaskazini","NA","NA"
"Hamlet","Mjimwema","Mjimwema","Mjimwema","Mjimwema","Tanzania","Pwani","Rufiji DC","Umwe","Umwe Kaskazini","NA","NA"
"Hamlet","Mparange","Mparange","Mparange","Mparange","Tanzania","Pwani","Rufiji DC","Umwe","Umwe Kaskazini","NA","NA"
"Hamlet","Msikitini","Msikitini","Msikitini","Msikitini","Tanzania","Pwani","Rufiji DC","Umwe","Umwe Kaskazini","NA","NA"
"Hamlet","Viwandani","Viwandani","Viwandani","Viwandani","Tanzania","Pwani","Rufiji DC","Umwe","Umwe Kaskazini","NA","NA"
"Hamlet","Other","Other","Outro","Nyingine","Tanzania","Pwani","Rufiji DC","Umwe","Umwe Kaskazini","NA","NA"
"Hamlet","Amani","Amani","Amani","Amani","Tanzania","Pwani","Rufiji DC","Umwe","Umwe Kati","NA","NA"
"Hamlet","Azimio","Azimio","Azimio","Azimio","Tanzania","Pwani","Rufiji DC","Umwe","Umwe Kati","NA","NA"
"Hamlet","Msikitini","Msikitini","Msikitini","Msikitini","Tanzania","Pwani","Rufiji DC","Umwe","Umwe Kati","NA","NA"
"Hamlet","Siasa","Siasa","Siasa","Siasa","Tanzania","Pwani","Rufiji DC","Umwe","Umwe Kati","NA","NA"
"Hamlet","Sokoni","Sokoni","Sokoni","Sokoni","Tanzania","Pwani","Rufiji DC","Umwe","Umwe Kati","NA","NA"
"Hamlet","Ujamaa","Ujamaa","Ujamaa","Ujamaa","Tanzania","Pwani","Rufiji DC","Umwe","Umwe Kati","NA","NA"
"Hamlet","Umoja","Umoja","Umoja","Umoja","Tanzania","Pwani","Rufiji DC","Umwe","Umwe Kati","NA","NA"
"Hamlet","Umwe","Umwe","Umwe","Umwe","Tanzania","Pwani","Rufiji DC","Umwe","Umwe Kati","NA","NA"
"Hamlet","Other","Other","Outro","Nyingine","Tanzania","Pwani","Rufiji DC","Umwe","Umwe Kati","NA","NA"
"Hamlet","Makaravati","Makaravati","Makaravati","Makaravati","Tanzania","Pwani","Rufiji DC","Umwe","Umwe Kusini","NA","NA"
"Hamlet","Makombe","Makombe","Makombe","Makombe","Tanzania","Pwani","Rufiji DC","Umwe","Umwe Kusini","NA","NA"
"Hamlet","Makumbusho","Makumbusho","Makumbusho","Makumbusho","Tanzania","Pwani","Rufiji DC","Umwe","Umwe Kusini","NA","NA"
"Hamlet","Mbuyuni","Mbuyuni","Mbuyuni","Mbuyuni","Tanzania","Pwani","Rufiji DC","Umwe","Umwe Kusini","NA","NA"
"Hamlet","Msikitini","Msikitini","Msikitini","Msikitini","Tanzania","Pwani","Rufiji DC","Umwe","Umwe Kusini","NA","NA"
"Hamlet","Mwembe Muhoro","Mwembe Muhoro","Mwembe Muhoro","Mwembe Muhoro","Tanzania","Pwani","Rufiji DC","Umwe","Umwe Kusini","NA","NA"
"Hamlet","Ngasinda","Ngasinda","Ngasinda","Ngasinda","Tanzania","Pwani","Rufiji DC","Umwe","Umwe Kusini","NA","NA"
"Hamlet","Njogoro","Njogoro","Njogoro","Njogoro","Tanzania","Pwani","Rufiji DC","Umwe","Umwe Kusini","NA","NA"
"Hamlet","Other","Other","Outro","Nyingine","Tanzania","Pwani","Rufiji DC","Umwe","Umwe Kusini","NA","NA"
"Hamlet","Other","Other","Outro","Nyingine","Tanzania","Pwani","Rufiji DC","Umwe","Other","NA","NA"
"Hamlet","Kitundu","Kitundu","Kitundu","Kitundu","Tanzania","Pwani","Rufiji DC","Utete","Kitundu","NA","NA"
"Hamlet","Other","Other","Outro","Nyingine","Tanzania","Pwani","Rufiji DC","Utete","Kitundu","NA","NA"
"Hamlet","Kiwili","Kiwili","Kiwili","Kiwili","Tanzania","Pwani","Rufiji DC","Utete","Kiwili","NA","NA"
"Hamlet","Other","Other","Outro","Nyingine","Tanzania","Pwani","Rufiji DC","Utete","Kiwili","NA","NA"
"Hamlet","Siasa","Siasa","Siasa","Siasa","Tanzania","Pwani","Rufiji DC","Utete","Siasa","NA","NA"
"Hamlet","Other","Other","Outro","Nyingine","Tanzania","Pwani","Rufiji DC","Utete","Siasa","NA","NA"
"Hamlet","Other","Other","Outro","Nyingine","Tanzania","Pwani","Rufiji DC","Utete","Other","NA","NA"
"Hamlet","Other","Other","Outro","Nyingine","Tanzania","Pwani","Rufiji DC","Other","Other","NA","NA"
"Hamlet","Other","Other","Outro","Nyingine","Tanzania","Pwani","Other","Other","Other","NA","NA"
"Hamlet","Other","Other","Outro","Nyingine","Other","Other","Other","Other","Other","NA","NA"
"Country","Mozambique","Mozambique","Mozambique","Mozambique","NA","NA","NA","NA","NA","NA","NA"
"Country","Tanzania","Tanzania","Tanzania","Tanzania","NA","NA","NA","NA","NA","NA","NA"
"Country","Other","Other","Outro","Nyingine","NA","NA","NA","NA","NA","NA","NA"
