list_name,name,label::Portuguese,label::Swahili,country,region,district,ward,village,hamlet,code
hamlet,25 de Setembro,25 de Setembro,25 de Setembro,Mozambique,Zambezia,Mopeia,Campo | Campo sede,Mongana,25 de Setembro,VDX
hamlet,3 de Fevereiro,3 de Fevereiro,3 de Fevereiro,Mozambique,Zambezia,Mopeia,Campo | Campo sede,Mongana,3 de Fevereiro,TDX
hamlet,4 de Outubro sede,4 de Outubro sede,4 de Outubro sede,Mozambique,Zambezia,Mopeia,Campo | Campo sede,Mongana,4 de Outubro sede,FDX
hamlet,Acordos de Lusaka,Acordos de Lusaka,Acordos de Lusaka,Mozambique,Zambezia,Mopeia,Campo | Campo sede,Mongana,Acordos de Lusaka,ADX
hamlet,Bariela,Bariela,Bariela,Mozambique,Zambezia,Mopeia,Campo | Campo sede,Mongana,Bariela,BAR
hamlet,Cafe,Cafe,Cafe,Mozambique,Zambezia,Mopeia,Campo | Campo sede,Mongana,Cafe,CFE
hamlet,Caixote,Caixote,Caixote,Mozambique,Zambezia,Mopeia,Campo | Campo sede,Mongana,Caixote,CAI
hamlet,Cuerelo A,Cuerelo A,Cuerelo A,Mozambique,Zambezia,Mopeia,Campo | Campo sede,Mongana,Cuerelo A,CUX
hamlet,Cundine,Cundine,Cundine,Mozambique,Zambezia,Mopeia,Campo | Campo sede,Mongana,Cundine,CUD
hamlet,Filipe Nyusi,Filipe Nyusi,Filipe Nyusi,Mozambique,Zambezia,Mopeia,Campo | Campo sede,Mongana,Filipe Nyusi,FNX
hamlet,Jorissa,Jorissa,Jorissa,Mozambique,Zambezia,Mopeia,Campo | Campo sede,Mongana,Jorissa,JOR
hamlet,Mucombezi velho,Mucombezi velho,Mucombezi velho,Mozambique,Zambezia,Mopeia,Campo | Campo sede,Mongana,Mucombezi velho,MVX
hamlet,Mussampnia,Mussampnia,Mussampnia,Mozambique,Zambezia,Mopeia,Campo | Campo sede,Mongana,Mussampnia,MSX
hamlet,Ntxenga,Ntxenga,Ntxenga,Mozambique,Zambezia,Mopeia,Campo | Campo sede,Mongana,Ntxenga,NTX
hamlet,Pempe,Pempe,Pempe,Mozambique,Zambezia,Mopeia,Campo | Campo sede,Mongana,Pempe,PMP
hamlet,Sololo,Sololo,Sololo,Mozambique,Zambezia,Mopeia,Campo | Campo sede,Mongana,Sololo,SOL
hamlet,Other,Outro,Nyingine,Mozambique,Zambezia,Mopeia,Campo | Campo sede,Mongana,Outro,NA
hamlet,Arvai,Arvai,Arvai,Mozambique,Zambezia,Mopeia,Campo | Campo sede,Mugurrumba,Arvai,XAR
hamlet,Bantene,Bantene,Bantene,Mozambique,Zambezia,Mopeia,Campo | Campo sede,Mugurrumba,Bantene,XBA
hamlet,Batelao,Batelao,Batelao,Mozambique,Zambezia,Mopeia,Campo | Campo sede,Mugurrumba,Batelao,BAT
hamlet,Chimindwe,Chimindwe,Chimindwe,Mozambique,Zambezia,Mopeia,Campo | Campo sede,Mugurrumba,Chimindwe,XHC
hamlet,Danhau,Danhau,Danhau,Mozambique,Zambezia,Mopeia,Campo | Campo sede,Mugurrumba,Danhau,DAH
hamlet,Gamba-Draban,Gamba-Draban,Gamba-Draban,Mozambique,Zambezia,Mopeia,Campo | Campo sede,Mugurrumba,Gamba-Draban,XGA
hamlet,Gonda,Gonda,Gonda,Mozambique,Zambezia,Mopeia,Campo | Campo sede,Mugurrumba,Gonda,GON
hamlet,Junca,Junca,Junca,Mozambique,Zambezia,Mopeia,Campo | Campo sede,Mugurrumba,Junca,XJU
hamlet,Lhendha,Lhendha,Lhendha,Mozambique,Zambezia,Mopeia,Campo | Campo sede,Mugurrumba,Lhendha,XLH
hamlet,Maliganpase,Maliganpase,Maliganpase,Mozambique,Zambezia,Mopeia,Campo | Campo sede,Mugurrumba,Maliganpase,XMA
hamlet,Mugurrumba Sede,Mugurrumba Sede,Mugurrumba Sede,Mozambique,Zambezia,Mopeia,Campo | Campo sede,Mugurrumba,Mugurrumba Sede,MUG
hamlet,Nhambade,Nhambade,Nhambade,Mozambique,Zambezia,Mopeia,Campo | Campo sede,Mugurrumba,Nhambade,XND
hamlet,Nhamicoco,Nhamicoco,Nhamicoco,Mozambique,Zambezia,Mopeia,Campo | Campo sede,Mugurrumba,Nhamicoco,XNA
hamlet,Nhando,Nhando,Nhando,Mozambique,Zambezia,Mopeia,Campo | Campo sede,Mugurrumba,Nhando,XNH
hamlet,Nhanga,Nhanga,Nhanga,Mozambique,Zambezia,Mopeia,Campo | Campo sede,Mugurrumba,Nhanga,XGN
hamlet,Nsando,Nsando,Nsando,Mozambique,Zambezia,Mopeia,Campo | Campo sede,Mugurrumba,Nsando,NSN
hamlet,Prego,Prego,Prego,Mozambique,Zambezia,Mopeia,Campo | Campo sede,Mugurrumba,Prego,XPR
hamlet,Tonganhica,Tonganhica,Tonganhica,Mozambique,Zambezia,Mopeia,Campo | Campo sede,Mugurrumba,Tonganhica,XTO
hamlet,Other,Outro,Nyingine,Mozambique,Zambezia,Mopeia,Campo | Campo sede,Mugurrumba,Outro,NA
hamlet,Sacuane,Sacuane,Sacuane,Mozambique,Zambezia,Mopeia,Campo | Campo sede,Sacuane,Sacuane,SAC
hamlet,Other,Outro,Nyingine,Mozambique,Zambezia,Mopeia,Campo | Campo sede,Sacuane,Outro,NA
hamlet,Calongola,Calongola,Calongola,Mozambique,Zambezia,Mopeia,Campo | Campo sede,Samurrenge,Calongola,XCA
hamlet,China,China,China,Mozambique,Zambezia,Mopeia,Campo | Campo sede,Samurrenge,China,XCH
hamlet,Dula,Dula,Dula,Mozambique,Zambezia,Mopeia,Campo | Campo sede,Samurrenge,Dula,XDU
hamlet,Ngunguline,Ngunguline,Ngunguline,Mozambique,Zambezia,Mopeia,Campo | Campo sede,Samurrenge,Ngunguline,XNG
hamlet,Nolie,Nolie,Nolie,Mozambique,Zambezia,Mopeia,Campo | Campo sede,Samurrenge,Nolie,XNO
hamlet,Txicalo,Txicalo,Txicalo,Mozambique,Zambezia,Mopeia,Campo | Campo sede,Samurrenge,Txicalo,XTX
hamlet,Other,Outro,Nyingine,Mozambique,Zambezia,Mopeia,Campo | Campo sede,Samurrenge,Outro,NA
hamlet,1 de Maio,1 de Maio,1 de Maio,Mozambique,Zambezia,Mopeia,Campo | Campo sede,Zuze,1 de Maio,MMX
hamlet,19 de Outubro,19 de Outubro,19 de Outubro,Mozambique,Zambezia,Mopeia,Campo | Campo sede,Zuze,19 de Outubro,DNX
hamlet,25 de Junho,25 de Junho,25 de Junho,Mozambique,Zambezia,Mopeia,Campo | Campo sede,Zuze,25 de Junho,JJX
hamlet,4 de Outubro,4 de Outubro,4 de Outubro,Mozambique,Zambezia,Mopeia,Campo | Campo sede,Zuze,4 de Outubro,DDX
hamlet,7 de abril,7 de abril,7 de abril,Mozambique,Zambezia,Mopeia,Campo | Campo sede,Zuze,7 de abril,ZZE
hamlet,7 de Setembro,7 de Setembro,7 de Setembro,Mozambique,Zambezia,Mopeia,Campo | Campo sede,Zuze,7 de Setembro,SDS
hamlet,8 de Marco,8 de Marco,8 de Marco,Mozambique,Zambezia,Mopeia,Campo | Campo sede,Zuze,8 de Marco,DDD
hamlet,Armando E Guebuza,Armando E Guebuza,Armando E Guebuza,Mozambique,Zambezia,Mopeia,Campo | Campo sede,Zuze,Armando E Guebuza,AEX
hamlet,Assiate,Assiate,Assiate,Mozambique,Zambezia,Mopeia,Campo | Campo sede,Zuze,Assiate,ASS
hamlet,Bajone,Bajone,Bajone,Mozambique,Zambezia,Mopeia,Campo | Campo sede,Zuze,Bajone,BAJ
hamlet,Eduardo Mondlane,Eduardo Mondlane,Eduardo Mondlane,Mozambique,Zambezia,Mopeia,Campo | Campo sede,Zuze,Eduardo Mondlane,EEX
hamlet,Filipe Nyusi,Filipe Nyusi,Filipe Nyusi,Mozambique,Zambezia,Mopeia,Campo | Campo sede,Zuze,Filipe Nyusi,FYX
hamlet,Joaquim Chissano,Joaquim Chissano,Joaquim Chissano,Mozambique,Zambezia,Mopeia,Campo | Campo sede,Zuze,Joaquim Chissano,JCX
hamlet,Josina Machel,Josina Machel,Josina Machel,Mozambique,Zambezia,Mopeia,Campo | Campo sede,Zuze,Josina Machel,JSG
hamlet,LiconJe,LiconJe,LiconJe,Mozambique,Zambezia,Mopeia,Campo | Campo sede,Zuze,LiconJe,LJX
hamlet,Maina,Maina,Maina,Mozambique,Zambezia,Mopeia,Campo | Campo sede,Zuze,Maina,MAI
hamlet,Milange,Milange,Milange,Mozambique,Zambezia,Mopeia,Campo | Campo sede,Zuze,Milange,MIL
hamlet,Namitala,Namitala,Namitala,Mozambique,Zambezia,Mopeia,Campo | Campo sede,Zuze,Namitala,NAM
hamlet,Nhungulo,Nhungulo,Nhungulo,Mozambique,Zambezia,Mopeia,Campo | Campo sede,Zuze,Nhungulo,XNZ
hamlet,Paz,Paz,Paz,Mozambique,Zambezia,Mopeia,Campo | Campo sede,Zuze,Paz,PZS
hamlet,Samaral,Samaral,Samaral,Mozambique,Zambezia,Mopeia,Campo | Campo sede,Zuze,Samaral,SAA
hamlet,Samora Machel,Samora Machel,Samora Machel,Mozambique,Zambezia,Mopeia,Campo | Campo sede,Zuze,Samora Machel,XSA
hamlet,Other,Outro,Nyingine,Mozambique,Zambezia,Mopeia,Campo | Campo sede,Zuze,Outro,NA
hamlet,Other,Outro,Nyingine,Mozambique,Zambezia,Mopeia,Campo | Campo sede,Other,Outro,NA
hamlet,1 de Maio,1 de Maio,1 de Maio,Mozambique,Zambezia,Mopeia,Campo | Catale,Catale,1 de Maio,XMO
hamlet,25 de Junho,25 de Junho,25 de Junho,Mozambique,Zambezia,Mopeia,Campo | Catale,Catale,25 de Junho,XJN
hamlet,25 de Setembro,25 de Setembro,25 de Setembro,Mozambique,Zambezia,Mopeia,Campo | Catale,Catale,25 de Setembro,XSE
hamlet,4 de Outubro,4 de Outubro,4 de Outubro,Mozambique,Zambezia,Mopeia,Campo | Catale,Catale,4 de Outubro,XOU
hamlet,7 de Abril,7 de Abril,7 de Abril,Mozambique,Zambezia,Mopeia,Campo | Catale,Catale,7 de Abril,XAB
hamlet,Andale,Andale,Andale,Mozambique,Zambezia,Mopeia,Campo | Catale,Catale,Andale,AND
hamlet,Antonio,Antonio,Antonio,Mozambique,Zambezia,Mopeia,Campo | Catale,Catale,Antonio,ANT
hamlet,Changaue,Changaue,Changaue,Mozambique,Zambezia,Mopeia,Campo | Catale,Catale,Changaue,CHA
hamlet,Licasse,Licasse,Licasse,Mozambique,Zambezia,Mopeia,Campo | Catale,Catale,Licasse,LIC
hamlet,Manhai,Manhai,Manhai,Mozambique,Zambezia,Mopeia,Campo | Catale,Catale,Manhai,MAH
hamlet,Mbawala,Mbawala,Mbawala,Mozambique,Zambezia,Mopeia,Campo | Catale,Catale,Mbawala,MBA
hamlet,Morais,Morais,Morais,Mozambique,Zambezia,Mopeia,Campo | Catale,Catale,Morais,MOR
hamlet,Muacaniua,Muacaniua,Muacaniua,Mozambique,Zambezia,Mopeia,Campo | Catale,Catale,Muacaniua,MUA
hamlet,Murrongone,Murrongone,Murrongone,Mozambique,Zambezia,Mopeia,Campo | Catale,Catale,Murrongone,MUO
hamlet,Namaria,Namaria,Namaria,Mozambique,Zambezia,Mopeia,Campo | Catale,Catale,Namaria,NAA
hamlet,Nhagoanine,Nhagoanine,Nhagoanine,Mozambique,Zambezia,Mopeia,Campo | Catale,Catale,Nhagoanine,NHO
hamlet,Panela,Panela,Panela,Mozambique,Zambezia,Mopeia,Campo | Catale,Catale,Panela,PAN
hamlet,Raposo,Raposo,Raposo,Mozambique,Zambezia,Mopeia,Campo | Catale,Catale,Raposo,RAP
hamlet,Waluto,Waluto,Waluto,Mozambique,Zambezia,Mopeia,Campo | Catale,Catale,Waluto,WAL
hamlet,Other,Outro,Nyingine,Mozambique,Zambezia,Mopeia,Campo | Catale,Catale,Outro,NA
hamlet,Other,Outro,Nyingine,Mozambique,Zambezia,Mopeia,Campo | Catale,Other,Outro,NA
hamlet,Cadongo,Cadongo,Cadongo,Mozambique,Zambezia,Mopeia,Campo | Luala,Cadongo,Cadongo,CAD
hamlet,Other,Outro,Nyingine,Mozambique,Zambezia,Mopeia,Campo | Luala,Cadongo,Outro,NA
hamlet,Caline A,Caline A,Caline A,Mozambique,Zambezia,Mopeia,Campo | Luala,Caline,Caline A,CAA
hamlet,Caline B,Caline B,Caline B,Mozambique,Zambezia,Mopeia,Campo | Luala,Caline,Caline B,CAB
hamlet,Micombezi,Micombezi,Micombezi,Mozambique,Zambezia,Mopeia,Campo | Luala,Caline,Micombezi,MIC
hamlet,Nansenguene,Nansenguene,Nansenguene,Mozambique,Zambezia,Mopeia,Campo | Luala,Caline,Nansenguene,XNN
hamlet,Other,Outro,Nyingine,Mozambique,Zambezia,Mopeia,Campo | Luala,Caline,Outro,NA
hamlet,Chiurine,Chiurine,Chiurine,Mozambique,Zambezia,Mopeia,Campo | Luala,Chiurine,Chiurine,CHR
hamlet,Other,Outro,Nyingine,Mozambique,Zambezia,Mopeia,Campo | Luala,Chiurine,Outro,NA
hamlet,Lima A,Lima A,Lima A,Mozambique,Zambezia,Mopeia,Campo | Luala,Lima,Lima A,LMA
hamlet,Lima B,Lima B,Lima B,Mozambique,Zambezia,Mopeia,Campo | Luala,Lima,Lima B,LMB
hamlet,Namitangurine,Namitangurine,Namitangurine,Mozambique,Zambezia,Mopeia,Campo | Luala,Lima,Namitangurine,NNN
hamlet,Nhamazemba,Nhamazemba,Nhamazemba,Mozambique,Zambezia,Mopeia,Campo | Luala,Lima,Nhamazemba,NZZ
hamlet,Other,Outro,Nyingine,Mozambique,Zambezia,Mopeia,Campo | Luala,Lima,Outro,NA
hamlet,1 de Junho,1 de Junho,1 de Junho,Mozambique,Zambezia,Mopeia,Campo | Luala,Lua lua,1 de Junho,DEH
hamlet,1 de Maio,1 de Maio,1 de Maio,Mozambique,Zambezia,Mopeia,Campo | Luala,Lua lua,1 de Maio,XMM
hamlet,25 de Junho,25 de Junho,25 de Junho,Mozambique,Zambezia,Mopeia,Campo | Luala,Lua lua,25 de Junho,VVJ
hamlet,3 de Fevereiro,3 de Fevereiro,3 de Fevereiro,Mozambique,Zambezia,Mopeia,Campo | Luala,Lua lua,3 de Fevereiro,RFX
hamlet,3 de Marco,3 de Marco,3 de Marco,Mozambique,Zambezia,Mopeia,Campo | Luala,Lua lua,3 de Marco,ADM
hamlet,7 de Abril B,7 de Abril B,7 de Abril B,Mozambique,Zambezia,Mopeia,Campo | Luala,Lua lua,7 de Abril B,AAB
hamlet,Acordos de Lusaka,Acordos de Lusaka,Acordos de Lusaka,Mozambique,Zambezia,Mopeia,Campo | Luala,Lua lua,Acordos de Lusaka,LSX
hamlet,Ceta A,Ceta A,Ceta A,Mozambique,Zambezia,Mopeia,Campo | Luala,Lua lua,Ceta A,CTA
hamlet,Ceta B,Ceta B,Ceta B,Mozambique,Zambezia,Mopeia,Campo | Luala,Lua lua,Ceta B,CTB
hamlet,Cuerelo A,Cuerelo A,Cuerelo A,Mozambique,Zambezia,Mopeia,Campo | Luala,Lua lua,Cuerelo A,CXA
hamlet,Cuerelo B,Cuerelo B,Cuerelo B,Mozambique,Zambezia,Mopeia,Campo | Luala,Lua lua,Cuerelo B,CRB
hamlet,Julius Nyerere,Julius Nyerere,Julius Nyerere,Mozambique,Zambezia,Mopeia,Campo | Luala,Lua lua,Julius Nyerere,JJJ
hamlet,Liberdade,Liberdade,Liberdade,Mozambique,Zambezia,Mopeia,Campo | Luala,Lua lua,Liberdade,LRD
hamlet,Mauia,Mauia,Mauia,Mozambique,Zambezia,Mopeia,Campo | Luala,Lua lua,Mauia,MAU
hamlet,Mirrongone,Mirrongone,Mirrongone,Mozambique,Zambezia,Mopeia,Campo | Luala,Lua lua,Mirrongone,MIR
hamlet,Mudiba,Mudiba,Mudiba,Mozambique,Zambezia,Mopeia,Campo | Luala,Lua lua,Mudiba,MUD
hamlet,Nasarone,Nasarone,Nasarone,Mozambique,Zambezia,Mopeia,Campo | Luala,Lua lua,Nasarone,NAS
hamlet,Paz,Paz,Paz,Mozambique,Zambezia,Mopeia,Campo | Luala,Lua lua,Paz,PZX
hamlet,Samora Machel,Samora Machel,Samora Machel,Mozambique,Zambezia,Mopeia,Campo | Luala,Lua lua,Samora Machel,XSO
hamlet,Other,Outro,Nyingine,Mozambique,Zambezia,Mopeia,Campo | Luala,Lua lua,Outro,NA
hamlet,Nhamirimba,Nhamirimba,Nhamirimba,Mozambique,Zambezia,Mopeia,Campo | Luala,Luala,Nhamirimba,NXX
hamlet,Simogo,Simogo,Simogo,Mozambique,Zambezia,Mopeia,Campo | Luala,Luala,Simogo,SMG
hamlet,Other,Outro,Nyingine,Mozambique,Zambezia,Mopeia,Campo | Luala,Luala,Outro,NA
hamlet,Mirebe,Mirebe,Mirebe,Mozambique,Zambezia,Mopeia,Campo | Luala,Mpiaeca,Mirebe,MRX
hamlet,Mpiaeca,Mpiaeca,Mpiaeca,Mozambique,Zambezia,Mopeia,Campo | Luala,Mpiaeca,Mpiaeca,MPI
hamlet,Mpolossa,Mpolossa,Mpolossa,Mozambique,Zambezia,Mopeia,Campo | Luala,Mpiaeca,Mpolossa,MPX
hamlet,Nuando,Nuando,Nuando,Mozambique,Zambezia,Mopeia,Campo | Luala,Mpiaeca,Nuando,NUX
hamlet,Other,Outro,Nyingine,Mozambique,Zambezia,Mopeia,Campo | Luala,Mpiaeca,Outro,NA
hamlet,Rimba,Rimba,Rimba,Mozambique,Zambezia,Mopeia,Campo | Luala,Rimba,Rimba,RIM
hamlet,Other,Outro,Nyingine,Mozambique,Zambezia,Mopeia,Campo | Luala,Rimba,Outro,NA
hamlet,1 de Junho A,1 de Junho A,1 de Junho A,Mozambique,Zambezia,Mopeia,Campo | Luala,Simogo,1 de Junho A,PXA
hamlet,7 de Abril A,7 de Abril A,7 de Abril A,Mozambique,Zambezia,Mopeia,Campo | Luala,Simogo,7 de Abril A,AAA
hamlet,7 de Abril C,7 de Abril C,7 de Abril C,Mozambique,Zambezia,Mopeia,Campo | Luala,Simogo,7 de Abril C,SXA
hamlet,Other,Outro,Nyingine,Mozambique,Zambezia,Mopeia,Campo | Luala,Simogo,Outro,NA
hamlet,Sitone,Sitone,Sitone,Mozambique,Zambezia,Mopeia,Campo | Luala,Sitone,Sitone,SIT
hamlet,Other,Outro,Nyingine,Mozambique,Zambezia,Mopeia,Campo | Luala,Sitone,Outro,NA
hamlet,Other,Outro,Nyingine,Mozambique,Zambezia,Mopeia,Campo | Luala,Other,Outro,NA
hamlet,Micajune,Micajune,Micajune,Mozambique,Zambezia,Mopeia,Campo | Mungane,Avalinho,Micajune,MIJ
hamlet,Mipurune,Mipurune,Mipurune,Mozambique,Zambezia,Mopeia,Campo | Mungane,Avalinho,Mipurune,XMI
hamlet,Namicole,Namicole,Namicole,Mozambique,Zambezia,Mopeia,Campo | Mungane,Avalinho,Namicole,NAI
hamlet,Other,Outro,Nyingine,Mozambique,Zambezia,Mopeia,Campo | Mungane,Avalinho,Outro,NA
hamlet,Avareia,Avareia,Avareia,Mozambique,Zambezia,Mopeia,Campo | Mungane,Biringuinho,Avareia,XAV
hamlet,Compone,Compone,Compone,Mozambique,Zambezia,Mopeia,Campo | Mungane,Biringuinho,Compone,COM
hamlet,Muanamaino,Muanamaino,Muanamaino,Mozambique,Zambezia,Mopeia,Campo | Mungane,Biringuinho,Muanamaino,MUM
hamlet,Mungombe,Mungombe,Mungombe,Mozambique,Zambezia,Mopeia,Campo | Mungane,Biringuinho,Mungombe,XMU
hamlet,Pambane,Pambane,Pambane,Mozambique,Zambezia,Mopeia,Campo | Mungane,Biringuinho,Pambane,PAM
hamlet,Other,Outro,Nyingine,Mozambique,Zambezia,Mopeia,Campo | Mungane,Biringuinho,Outro,NA
hamlet,Guia,Guia,Guia,Mozambique,Zambezia,Mopeia,Campo | Mungane,Chirama,Guia,GUI
hamlet,Luala,Luala,Luala,Mozambique,Zambezia,Mopeia,Campo | Mungane,Chirama,Luala,LUA
hamlet,Mirerene,Mirerene,Mirerene,Mozambique,Zambezia,Mopeia,Campo | Mungane,Chirama,Mirerene,MIM
hamlet,Zengue,Zengue,Zengue,Mozambique,Zambezia,Mopeia,Campo | Mungane,Chirama,Zengue,ZEN
hamlet,Other,Outro,Nyingine,Mozambique,Zambezia,Mopeia,Campo | Mungane,Chirama,Outro,NA
hamlet,Other,Outro,Nyingine,Mozambique,Zambezia,Mopeia,Campo | Mungane,Other,Outro,NA
hamlet,25 de Setembro,25 de Setembro,25 de Setembro,Mozambique,Zambezia,Mopeia,Mopeia sede | Cuacua,Chamanga,25 de Setembro,DEX
hamlet,Ambrosio,Ambrosio,Ambrosio,Mozambique,Zambezia,Mopeia,Mopeia sede | Cuacua,Chamanga,Ambrosio,AMB
hamlet,Bone,Bone,Bone,Mozambique,Zambezia,Mopeia,Mopeia sede | Cuacua,Chamanga,Bone,XAM
hamlet,Chimpene,Chimpene,Chimpene,Mozambique,Zambezia,Mopeia,Mopeia sede | Cuacua,Chamanga,Chimpene,CHM
hamlet,Chipire,Chipire,Chipire,Mozambique,Zambezia,Mopeia,Mopeia sede | Cuacua,Chamanga,Chipire,CHP
hamlet,Chitequeteque,Chitequeteque,Chitequeteque,Mozambique,Zambezia,Mopeia,Mopeia sede | Cuacua,Chamanga,Chitequeteque,CHT
hamlet,Chizimba,Chizimba,Chizimba,Mozambique,Zambezia,Mopeia,Mopeia sede | Cuacua,Chamanga,Chizimba,CHZ
hamlet,Cua cua muana,Cua cua muana,Cua cua muana,Mozambique,Zambezia,Mopeia,Mopeia sede | Cuacua,Chamanga,Cua cua muana,MUX
hamlet,Dande,Dande,Dande,Mozambique,Zambezia,Mopeia,Mopeia sede | Cuacua,Chamanga,Dande,DAN
hamlet,Eduardo Mondlane,Eduardo Mondlane,Eduardo Mondlane,Mozambique,Zambezia,Mopeia,Mopeia sede | Cuacua,Chamanga,Eduardo Mondlane,EDU
hamlet,Gemusse,Gemusse,Gemusse,Mozambique,Zambezia,Mopeia,Mopeia sede | Cuacua,Chamanga,Gemusse,GMX
hamlet,Malulo,Malulo,Malulo,Mozambique,Zambezia,Mopeia,Mopeia sede | Cuacua,Chamanga,Malulo,MAL
hamlet,Massancare,Massancare,Massancare,Mozambique,Zambezia,Mopeia,Mopeia sede | Cuacua,Chamanga,Massancare,MSC
hamlet,Mitchiu,Mitchiu,Mitchiu,Mozambique,Zambezia,Mopeia,Mopeia sede | Cuacua,Chamanga,Mitchiu,TCH
hamlet,Muriwa,Muriwa,Muriwa,Mozambique,Zambezia,Mopeia,Mopeia sede | Cuacua,Chamanga,Muriwa,MUR
hamlet,Muto A,Muto A,Muto A,Mozambique,Zambezia,Mopeia,Mopeia sede | Cuacua,Chamanga,Muto A,MUT
hamlet,Muto B,Muto B,Muto B,Mozambique,Zambezia,Mopeia,Mopeia sede | Cuacua,Chamanga,Muto B,MUB
hamlet,Namacheta,Namacheta,Namacheta,Mozambique,Zambezia,Mopeia,Mopeia sede | Cuacua,Chamanga,Namacheta,NMX
hamlet,Ndima Mangaze,Ndima Mangaze,Ndima Mangaze,Mozambique,Zambezia,Mopeia,Mopeia sede | Cuacua,Chamanga,Ndima Mangaze,NDI
hamlet,Nhaminga,Nhaminga,Nhaminga,Mozambique,Zambezia,Mopeia,Mopeia sede | Cuacua,Chamanga,Nhaminga,NHX
hamlet,Nhangona,Nhangona,Nhangona,Mozambique,Zambezia,Mopeia,Mopeia sede | Cuacua,Chamanga,Nhangona,NXG
hamlet,Norte,Norte,Norte,Mozambique,Zambezia,Mopeia,Mopeia sede | Cuacua,Chamanga,Norte,NOR
hamlet,Tewe,Tewe,Tewe,Mozambique,Zambezia,Mopeia,Mopeia sede | Cuacua,Chamanga,Tewe,TEW
hamlet,Zona Verde A,Zona Verde A,Zona Verde A,Mozambique,Zambezia,Mopeia,Mopeia sede | Cuacua,Chamanga,Zona Verde A,ZVA
hamlet,Zona Verde B,Zona Verde B,Zona Verde B,Mozambique,Zambezia,Mopeia,Mopeia sede | Cuacua,Chamanga,Zona Verde B,ZVB
hamlet,Other,Outro,Nyingine,Mozambique,Zambezia,Mopeia,Mopeia sede | Cuacua,Chamanga,Outro,NA
hamlet,Alfredo,Alfredo,Alfredo,Mozambique,Zambezia,Mopeia,Mopeia sede | Cuacua,Dombe,Alfredo,ALF
hamlet,Benejuaque,Benejuaque,Benejuaque,Mozambique,Zambezia,Mopeia,Mopeia sede | Cuacua,Dombe,Benejuaque,BEN
hamlet,Chicote,Chicote,Chicote,Mozambique,Zambezia,Mopeia,Mopeia sede | Cuacua,Dombe,Chicote,CHI
hamlet,Chunga,Chunga,Chunga,Mozambique,Zambezia,Mopeia,Mopeia sede | Cuacua,Dombe,Chunga,CHU
hamlet,Cubalalica,Cubalalica,Cubalalica,Mozambique,Zambezia,Mopeia,Mopeia sede | Cuacua,Dombe,Cubalalica,CUB
hamlet,Mbalame,Mbalame,Mbalame,Mozambique,Zambezia,Mopeia,Mopeia sede | Cuacua,Dombe,Mbalame,MBZ
hamlet,Nzondoene,Nzondoene,Nzondoene,Mozambique,Zambezia,Mopeia,Mopeia sede | Cuacua,Dombe,Nzondoene,ZOD
hamlet,Posso,Posso,Posso,Mozambique,Zambezia,Mopeia,Mopeia sede | Cuacua,Dombe,Posso,POS
hamlet,Sabesse,Sabesse,Sabesse,Mozambique,Zambezia,Mopeia,Mopeia sede | Cuacua,Dombe,Sabesse,SAB
hamlet,Other,Outro,Nyingine,Mozambique,Zambezia,Mopeia,Mopeia sede | Cuacua,Dombe,Outro,NA
hamlet,24 de Julho,24 de Julho,24 de Julho,Mozambique,Zambezia,Mopeia,Mopeia sede | Cuacua,Marruma,24 de Julho,DEJ
hamlet,24 de Julho B,24 de Julho B,24 de Julho B,Mozambique,Zambezia,Mopeia,Mopeia sede | Cuacua,Marruma,24 de Julho B,BBB
hamlet,25 de Junho,25 de Junho,25 de Junho,Mozambique,Zambezia,Mopeia,Mopeia sede | Cuacua,Marruma,25 de Junho,DEU
hamlet,4 de Outubro,4 de Outubro,4 de Outubro,Mozambique,Zambezia,Mopeia,Mopeia sede | Cuacua,Marruma,4 de Outubro,DEO
hamlet,7 de Abril,7 de Abril,7 de Abril,Mozambique,Zambezia,Mopeia,Mopeia sede | Cuacua,Marruma,7 de Abril,DEA
hamlet,8 de Marco,8 de Marco,8 de Marco,Mozambique,Zambezia,Mopeia,Mopeia sede | Cuacua,Marruma,8 de Marco,DEM
hamlet,Agostinho Neto,Agostinho Neto,Agostinho Neto,Mozambique,Zambezia,Mopeia,Mopeia sede | Cuacua,Marruma,Agostinho Neto,AGO
hamlet,Armando Emilio Guebuza,Armando Emilio Guebuza,Armando Emilio Guebuza,Mozambique,Zambezia,Mopeia,Mopeia sede | Cuacua,Marruma,Armando Emilio Guebuza,AGG
hamlet,Chiverano,Chiverano,Chiverano,Mozambique,Zambezia,Mopeia,Mopeia sede | Cuacua,Marruma,Chiverano,CHV
hamlet,Cimento,Cimento,Cimento,Mozambique,Zambezia,Mopeia,Mopeia sede | Cuacua,Marruma,Cimento,CIM
hamlet,Forca da Mudanca,Forca da Mudanca,Forca da Mudanca,Mozambique,Zambezia,Mopeia,Mopeia sede | Cuacua,Marruma,Forca da Mudanca,FFF
hamlet,Josina Machel,Josina Machel,Josina Machel,Mozambique,Zambezia,Mopeia,Mopeia sede | Cuacua,Marruma,Josina Machel,JSA
hamlet,Liberdade A,Liberdade A,Liberdade A,Mozambique,Zambezia,Mopeia,Mopeia sede | Cuacua,Marruma,Liberdade A,LIB
hamlet,Liberdade B,Liberdade B,Liberdade B,Mozambique,Zambezia,Mopeia,Mopeia sede | Cuacua,Marruma,Liberdade B,LIE
hamlet,Luta Continua,Luta Continua,Luta Continua,Mozambique,Zambezia,Mopeia,Mopeia sede | Cuacua,Marruma,Luta Continua,LUT
hamlet,Mazembe,Mazembe,Mazembe,Mozambique,Zambezia,Mopeia,Mopeia sede | Cuacua,Marruma,Mazembe,MMZ
hamlet,Mbaua,Mbaua,Mbaua,Mozambique,Zambezia,Mopeia,Mopeia sede | Cuacua,Marruma,Mbaua,BAX
hamlet,Mifarinha,Mifarinha,Mifarinha,Mozambique,Zambezia,Mopeia,Mopeia sede | Cuacua,Marruma,Mifarinha,MIF
hamlet,Nhalumbanda,Nhalumbanda,Nhalumbanda,Mozambique,Zambezia,Mopeia,Mopeia sede | Cuacua,Marruma,Nhalumbanda,NHA
hamlet,Nhamissundo,Nhamissundo,Nhamissundo,Mozambique,Zambezia,Mopeia,Mopeia sede | Cuacua,Marruma,Nhamissundo,NHM
hamlet,Ntada,Ntada,Ntada,Mozambique,Zambezia,Mopeia,Mopeia sede | Cuacua,Marruma,Ntada,NTA
hamlet,Samora Machel,Samora Machel,Samora Machel,Mozambique,Zambezia,Mopeia,Mopeia sede | Cuacua,Marruma,Samora Machel,SMZ
hamlet,Serracao,Serracao,Serracao,Mozambique,Zambezia,Mopeia,Mopeia sede | Cuacua,Marruma,Serracao,SER
hamlet,Other,Outro,Nyingine,Mozambique,Zambezia,Mopeia,Mopeia sede | Cuacua,Marruma,Outro,NA
hamlet,Mocha,Mocha,Mocha,Mozambique,Zambezia,Mopeia,Mopeia sede | Cuacua,Mocha,Mocha,MHA
hamlet,Other,Outro,Nyingine,Mozambique,Zambezia,Mopeia,Mopeia sede | Cuacua,Mocha,Outro,NA
hamlet,Barroso,Barroso,Barroso,Mozambique,Zambezia,Mopeia,Mopeia sede | Cuacua,Sangalaza,Barroso,BRS
hamlet,Capece,Capece,Capece,Mozambique,Zambezia,Mopeia,Mopeia sede | Cuacua,Sangalaza,Capece,CAP
hamlet,Cunhanhassa,Cunhanhassa,Cunhanhassa,Mozambique,Zambezia,Mopeia,Mopeia sede | Cuacua,Sangalaza,Cunhanhassa,CUN
hamlet,Gale,Gale,Gale,Mozambique,Zambezia,Mopeia,Mopeia sede | Cuacua,Sangalaza,Gale,GAL
hamlet,Gomoi,Gomoi,Gomoi,Mozambique,Zambezia,Mopeia,Mopeia sede | Cuacua,Sangalaza,Gomoi,GMI
hamlet,Magamba,Magamba,Magamba,Mozambique,Zambezia,Mopeia,Mopeia sede | Cuacua,Sangalaza,Magamba,MAG
hamlet,Mangala,Mangala,Mangala,Mozambique,Zambezia,Mopeia,Mopeia sede | Cuacua,Sangalaza,Mangala,MAN
hamlet,Migoa,Migoa,Migoa,Mozambique,Zambezia,Mopeia,Mopeia sede | Cuacua,Sangalaza,Migoa,MIG
hamlet,Mulaira,Mulaira,Mulaira,Mozambique,Zambezia,Mopeia,Mopeia sede | Cuacua,Sangalaza,Mulaira,MUL
hamlet,N'goma,N'goma,N'goma,Mozambique,Zambezia,Mopeia,Mopeia sede | Cuacua,Sangalaza,N'goma,NNX
hamlet,Nota,Nota,Nota,Mozambique,Zambezia,Mopeia,Mopeia sede | Cuacua,Sangalaza,Nota,NOT
hamlet,Ntongolo,Ntongolo,Ntongolo,Mozambique,Zambezia,Mopeia,Mopeia sede | Cuacua,Sangalaza,Ntongolo,NTG
hamlet,Tambalico,Tambalico,Tambalico,Mozambique,Zambezia,Mopeia,Mopeia sede | Cuacua,Sangalaza,Tambalico,TAM
hamlet,Tesoura,Tesoura,Tesoura,Mozambique,Zambezia,Mopeia,Mopeia sede | Cuacua,Sangalaza,Tesoura,TES
hamlet,Tiquita,Tiquita,Tiquita,Mozambique,Zambezia,Mopeia,Mopeia sede | Cuacua,Sangalaza,Tiquita,TIQ
hamlet,Vembe,Vembe,Vembe,Mozambique,Zambezia,Mopeia,Mopeia sede | Cuacua,Sangalaza,Vembe,VEM
hamlet,Vumbe,Vumbe,Vumbe,Mozambique,Zambezia,Mopeia,Mopeia sede | Cuacua,Sangalaza,Vumbe,VUM
hamlet,Other,Outro,Nyingine,Mozambique,Zambezia,Mopeia,Mopeia sede | Cuacua,Sangalaza,Outro,NA
hamlet,Other,Outro,Nyingine,Mozambique,Zambezia,Mopeia,Mopeia sede | Cuacua,Other,Outro,NA
hamlet,Cocorico,Cocorico,Cocorico,Mozambique,Zambezia,Mopeia,Mopeia sede | Nzanza,Cocorico,Cocorico,COC
hamlet,Mefula,Mefula,Mefula,Mozambique,Zambezia,Mopeia,Mopeia sede | Nzanza,Cocorico,Mefula,MEF
hamlet,Ngimbe,Ngimbe,Ngimbe,Mozambique,Zambezia,Mopeia,Mopeia sede | Nzanza,Cocorico,Ngimbe,NGX
hamlet,Ngombe,Ngombe,Ngombe,Mozambique,Zambezia,Mopeia,Mopeia sede | Nzanza,Cocorico,Ngombe,NOB
hamlet,Nhafimbo,Nhafimbo,Nhafimbo,Mozambique,Zambezia,Mopeia,Mopeia sede | Nzanza,Cocorico,Nhafimbo,NFI
hamlet,Sanguimbe,Sanguimbe,Sanguimbe,Mozambique,Zambezia,Mopeia,Mopeia sede | Nzanza,Cocorico,Sanguimbe,SNG
hamlet,Tole,Tole,Tole,Mozambique,Zambezia,Mopeia,Mopeia sede | Nzanza,Cocorico,Tole,TLE
hamlet,Other,Outro,Nyingine,Mozambique,Zambezia,Mopeia,Mopeia sede | Nzanza,Cocorico,Outro,NA
hamlet,Liberdade,Liberdade,Liberdade,Mozambique,Zambezia,Mopeia,Mopeia sede | Nzanza,Mefula,Liberdade,LLE
hamlet,Mirui,Mirui,Mirui,Mozambique,Zambezia,Mopeia,Mopeia sede | Nzanza,Mefula,Mirui,MIX
hamlet,Nsalange,Nsalange,Nsalange,Mozambique,Zambezia,Mopeia,Mopeia sede | Nzanza,Mefula,Nsalange,NSG
hamlet,Nsondera,Nsondera,Nsondera,Mozambique,Zambezia,Mopeia,Mopeia sede | Nzanza,Mefula,Nsondera,NSD
hamlet,Other,Outro,Nyingine,Mozambique,Zambezia,Mopeia,Mopeia sede | Nzanza,Mefula,Outro,NA
hamlet,Armando Emilio Guebuza,Armando Emilio Guebuza,Armando Emilio Guebuza,Mozambique,Zambezia,Mopeia,Mopeia sede | Nzanza,Nhacatundo,Armando Emilio Guebuza,AEG
hamlet,Cimento,Cimento,Cimento,Mozambique,Zambezia,Mopeia,Mopeia sede | Nzanza,Nhacatundo,Cimento,CMX
hamlet,Cua-cua,Cua-cua,Cua-cua,Mozambique,Zambezia,Mopeia,Mopeia sede | Nzanza,Nhacatundo,Cua-cua,CCC
hamlet,Eduardo Mondlane,Eduardo Mondlane,Eduardo Mondlane,Mozambique,Zambezia,Mopeia,Mopeia sede | Nzanza,Nhacatundo,Eduardo Mondlane,EMX
hamlet,Janeiro,Janeiro,Janeiro,Mozambique,Zambezia,Mopeia,Mopeia sede | Nzanza,Nhacatundo,Janeiro,JAN
hamlet,Josina Machel,Josina Machel,Josina Machel,Mozambique,Zambezia,Mopeia,Mopeia sede | Nzanza,Nhacatundo,Josina Machel,JSD
hamlet,Liberdade,Liberdade,Liberdade,Mozambique,Zambezia,Mopeia,Mopeia sede | Nzanza,Nhacatundo,Liberdade,LRX
hamlet,Samora Machel,Samora Machel,Samora Machel,Mozambique,Zambezia,Mopeia,Mopeia sede | Nzanza,Nhacatundo,Samora Machel,SMX
hamlet,Other,Outro,Nyingine,Mozambique,Zambezia,Mopeia,Mopeia sede | Nzanza,Nhacatundo,Outro,NA
hamlet,1 de Maio,1 de Maio,1 de Maio,Mozambique,Zambezia,Mopeia,Mopeia sede | Nzanza,Nhamirere,1 de Maio,DMI
hamlet,25 de Junho,25 de Junho,25 de Junho,Mozambique,Zambezia,Mopeia,Mopeia sede | Nzanza,Nhamirere,25 de Junho,DXX
hamlet,3 de Fevereiro,3 de Fevereiro,3 de Fevereiro,Mozambique,Zambezia,Mopeia,Mopeia sede | Nzanza,Nhamirere,3 de Fevereiro,FVX
hamlet,Acordo de Roma,Acordo de Roma,Acordo de Roma,Mozambique,Zambezia,Mopeia,Mopeia sede | Nzanza,Nhamirere,Acordo de Roma,DRM
hamlet,Eduardo Mondlane,Eduardo Mondlane,Eduardo Mondlane,Mozambique,Zambezia,Mopeia,Mopeia sede | Nzanza,Nhamirere,Eduardo Mondlane,MDL
hamlet,Josina Machel,Josina Machel,Josina Machel,Mozambique,Zambezia,Mopeia,Mopeia sede | Nzanza,Nhamirere,Josina Machel,JSC
hamlet,Nhamirere A,Nhamirere A,Nhamirere A,Mozambique,Zambezia,Mopeia,Mopeia sede | Nzanza,Nhamirere,Nhamirere A,NRA
hamlet,Samora Machel,Samora Machel,Samora Machel,Mozambique,Zambezia,Mopeia,Mopeia sede | Nzanza,Nhamirere,Samora Machel,SAO
hamlet,Other,Outro,Nyingine,Mozambique,Zambezia,Mopeia,Mopeia sede | Nzanza,Nhamirere,Outro,NA
hamlet,Mazembe,Mazembe,Mazembe,Mozambique,Zambezia,Mopeia,Mopeia sede | Nzanza,Nhanga,Mazembe,MZM
hamlet,Nsanze,Nsanze,Nsanze,Mozambique,Zambezia,Mopeia,Mopeia sede | Nzanza,Nhanga,Nsanze,NNZ
hamlet,Other,Outro,Nyingine,Mozambique,Zambezia,Mopeia,Mopeia sede | Nzanza,Nhanga,Outro,NA
hamlet,1 de Maio,1 de Maio,1 de Maio,Mozambique,Zambezia,Mopeia,Mopeia sede | Nzanza,Nzanza,1 de Maio,NDM
hamlet,3 de Fevereiro,3 de Fevereiro,3 de Fevereiro,Mozambique,Zambezia,Mopeia,Mopeia sede | Nzanza,Nzanza,3 de Fevereiro,TFX
hamlet,Forca da Mudanca,Forca da Mudanca,Forca da Mudanca,Mozambique,Zambezia,Mopeia,Mopeia sede | Nzanza,Nzanza,Forca da Mudanca,FRX
hamlet,Josina Machel,Josina Machel,Josina Machel,Mozambique,Zambezia,Mopeia,Mopeia sede | Nzanza,Nzanza,Josina Machel,JSE
hamlet,Matantune,Matantune,Matantune,Mozambique,Zambezia,Mopeia,Mopeia sede | Nzanza,Nzanza,Matantune,MTX
hamlet,Nzanza Sede,Nzanza Sede,Nzanza Sede,Mozambique,Zambezia,Mopeia,Mopeia sede | Nzanza,Nzanza,Nzanza Sede,NZA
hamlet,Obra,Obra,Obra,Mozambique,Zambezia,Mopeia,Mopeia sede | Nzanza,Nzanza,Obra,OBX
hamlet,Other,Outro,Nyingine,Mozambique,Zambezia,Mopeia,Mopeia sede | Nzanza,Nzanza,Outro,NA
hamlet,12 de Outubro,12 de Outubro,12 de Outubro,Mozambique,Zambezia,Mopeia,Mopeia sede | Nzanza,Veloso,12 de Outubro,DDO
hamlet,7 de Abril,7 de Abril,7 de Abril,Mozambique,Zambezia,Mopeia,Mopeia sede | Nzanza,Veloso,7 de Abril,DEZ
hamlet,Gundagunda,Gundagunda,Gundagunda,Mozambique,Zambezia,Mopeia,Mopeia sede | Nzanza,Veloso,Gundagunda,GNX
hamlet,Muabado,Muabado,Muabado,Mozambique,Zambezia,Mopeia,Mopeia sede | Nzanza,Veloso,Muabado,MDX
hamlet,Nhacolo,Nhacolo,Nhacolo,Mozambique,Zambezia,Mopeia,Mopeia sede | Nzanza,Veloso,Nhacolo,NHC
hamlet,Samora Machel,Samora Machel,Samora Machel,Mozambique,Zambezia,Mopeia,Mopeia sede | Nzanza,Veloso,Samora Machel,SAX
hamlet,Waia,Waia,Waia,Mozambique,Zambezia,Mopeia,Mopeia sede | Nzanza,Veloso,Waia,WAX
hamlet,Other,Outro,Nyingine,Mozambique,Zambezia,Mopeia,Mopeia sede | Nzanza,Veloso,Outro,NA
hamlet,Other,Outro,Nyingine,Mozambique,Zambezia,Mopeia,Mopeia sede | Nzanza,Other,Outro,NA
hamlet,Alfredo,Alfredo,Alfredo,Mozambique,Zambezia,Mopeia,Mopeia sede | Rovuma/Conho,Majambe,Alfredo,ALR
hamlet,Cumbalenga,Cumbalenga,Cumbalenga,Mozambique,Zambezia,Mopeia,Mopeia sede | Rovuma/Conho,Majambe,Cumbalenga,CUM
hamlet,Lota,Lota,Lota,Mozambique,Zambezia,Mopeia,Mopeia sede | Rovuma/Conho,Majambe,Lota,LOT
hamlet,Majambe,Majambe,Majambe,Mozambique,Zambezia,Mopeia,Mopeia sede | Rovuma/Conho,Majambe,Majambe,MAJ
hamlet,Misao,Misao,Misao,Mozambique,Zambezia,Mopeia,Mopeia sede | Rovuma/Conho,Majambe,Misao,MOO
hamlet,Nhangu,Nhangu,Nhangu,Mozambique,Zambezia,Mopeia,Mopeia sede | Rovuma/Conho,Majambe,Nhangu,NNU
hamlet,Nhangu B,Nhangu B,Nhangu B,Mozambique,Zambezia,Mopeia,Mopeia sede | Rovuma/Conho,Majambe,Nhangu B,NHB
hamlet,Nsanzo,Nsanzo,Nsanzo,Mozambique,Zambezia,Mopeia,Mopeia sede | Rovuma/Conho,Majambe,Nsanzo,NSZ
hamlet,Ntruzao,Ntruzao,Ntruzao,Mozambique,Zambezia,Mopeia,Mopeia sede | Rovuma/Conho,Majambe,Ntruzao,NTR
hamlet,Other,Outro,Nyingine,Mozambique,Zambezia,Mopeia,Mopeia sede | Rovuma/Conho,Majambe,Outro,NA
hamlet,Botao,Botao,Botao,Mozambique,Zambezia,Mopeia,Mopeia sede | Rovuma/Conho,Ndingo,Botao,TAO
hamlet,Longodze,Longodze,Longodze,Mozambique,Zambezia,Mopeia,Mopeia sede | Rovuma/Conho,Ndingo,Longodze,LGZ
hamlet,Ndingo,Ndingo,Ndingo,Mozambique,Zambezia,Mopeia,Mopeia sede | Rovuma/Conho,Ndingo,Ndingo,DNG
hamlet,Ngangane,Ngangane,Ngangane,Mozambique,Zambezia,Mopeia,Mopeia sede | Rovuma/Conho,Ndingo,Ngangane,GNG
hamlet,Vundo A,Vundo A,Vundo A,Mozambique,Zambezia,Mopeia,Mopeia sede | Rovuma/Conho,Ndingo,Vundo A,VDA
hamlet,Vundo B,Vundo B,Vundo B,Mozambique,Zambezia,Mopeia,Mopeia sede | Rovuma/Conho,Ndingo,Vundo B,VDB
hamlet,Other,Outro,Nyingine,Mozambique,Zambezia,Mopeia,Mopeia sede | Rovuma/Conho,Ndingo,Outro,NA
hamlet,Other,Outro,Nyingine,Mozambique,Zambezia,Mopeia,Mopeia sede | Rovuma/Conho,Other,Outro,NA
hamlet,1 de Maio,1 de Maio,1 de Maio,Mozambique,Zambezia,Mopeia,Mopeia sede | Sambalendo,Chimuara,1 de Maio,DDE
hamlet,25 de Setembro,25 de Setembro,25 de Setembro,Mozambique,Zambezia,Mopeia,Mopeia sede | Sambalendo,Chimuara,25 de Setembro,DRX
hamlet,3 de Fevereiro,3 de Fevereiro,3 de Fevereiro,Mozambique,Zambezia,Mopeia,Mopeia sede | Sambalendo,Chimuara,3 de Fevereiro,DFO
hamlet,7 de Setembro,7 de Setembro,7 de Setembro,Mozambique,Zambezia,Mopeia,Mopeia sede | Sambalendo,Chimuara,7 de Setembro,DDS
hamlet,Acordos de Lusaka,Acordos de Lusaka,Acordos de Lusaka,Mozambique,Zambezia,Mopeia,Mopeia sede | Sambalendo,Chimuara,Acordos de Lusaka,ACD
hamlet,Chimuara Sede,Chimuara Sede,Chimuara Sede,Mozambique,Zambezia,Mopeia,Mopeia sede | Sambalendo,Chimuara,Chimuara Sede,CHS
hamlet,Chizimba,Chizimba,Chizimba,Mozambique,Zambezia,Mopeia,Mopeia sede | Sambalendo,Chimuara,Chizimba,CHB
hamlet,Eduardo Mondlane,Eduardo Mondlane,Eduardo Mondlane,Mozambique,Zambezia,Mopeia,Mopeia sede | Sambalendo,Chimuara,Eduardo Mondlane,EDX
hamlet,Josina Machel,Josina Machel,Josina Machel,Mozambique,Zambezia,Mopeia,Mopeia sede | Sambalendo,Chimuara,Josina Machel,JSB
hamlet,Julius Nyerere,Julius Nyerere,Julius Nyerere,Mozambique,Zambezia,Mopeia,Mopeia sede | Sambalendo,Chimuara,Julius Nyerere,JUL
hamlet,Magaio,Magaio,Magaio,Mozambique,Zambezia,Mopeia,Mopeia sede | Sambalendo,Chimuara,Magaio,MAA
hamlet,Mandawa,Mandawa,Mandawa,Mozambique,Zambezia,Mopeia,Mopeia sede | Sambalendo,Chimuara,Mandawa,MDM
hamlet,Sangate,Sangate,Sangate,Mozambique,Zambezia,Mopeia,Mopeia sede | Sambalendo,Chimuara,Sangate,SAN
hamlet,Somopo,Somopo,Somopo,Mozambique,Zambezia,Mopeia,Mopeia sede | Sambalendo,Chimuara,Somopo,SOM
hamlet,Vinte,Vinte,Vinte,Mozambique,Zambezia,Mopeia,Mopeia sede | Sambalendo,Chimuara,Vinte,VNT
hamlet,Other,Outro,Nyingine,Mozambique,Zambezia,Mopeia,Mopeia sede | Sambalendo,Chimuara,Outro,NA
hamlet,Braz,Braz,Braz,Mozambique,Zambezia,Mopeia,Mopeia sede | Sambalendo,Noere,Braz,BRA
hamlet,Fardo,Fardo,Fardo,Mozambique,Zambezia,Mopeia,Mopeia sede | Sambalendo,Noere,Fardo,FAR
hamlet,Mambucha,Mambucha,Mambucha,Mozambique,Zambezia,Mopeia,Mopeia sede | Sambalendo,Noere,Mambucha,MAM
hamlet,Minjale,Minjale,Minjale,Mozambique,Zambezia,Mopeia,Mopeia sede | Sambalendo,Noere,Minjale,MIN
hamlet,Muntaia,Muntaia,Muntaia,Mozambique,Zambezia,Mopeia,Mopeia sede | Sambalendo,Noere,Muntaia,MNI
hamlet,Nhamizinga,Nhamizinga,Nhamizinga,Mozambique,Zambezia,Mopeia,Mopeia sede | Sambalendo,Noere,Nhamizinga,NHZ
hamlet,Noere,Noere,Noere,Mozambique,Zambezia,Mopeia,Mopeia sede | Sambalendo,Noere,Noere,NOE
hamlet,Quembo,Quembo,Quembo,Mozambique,Zambezia,Mopeia,Mopeia sede | Sambalendo,Noere,Quembo,QUE
hamlet,Soares,Soares,Soares,Mozambique,Zambezia,Mopeia,Mopeia sede | Sambalendo,Noere,Soares,SOA
hamlet,Valeta,Valeta,Valeta,Mozambique,Zambezia,Mopeia,Mopeia sede | Sambalendo,Noere,Valeta,VAL
hamlet,Other,Outro,Nyingine,Mozambique,Zambezia,Mopeia,Mopeia sede | Sambalendo,Noere,Outro,NA
hamlet,25 de Setembro,25 de Setembro,25 de Setembro,Mozambique,Zambezia,Mopeia,Mopeia sede | Sambalendo,Nzero,25 de Setembro,DER
hamlet,Agostinho Neto,Agostinho Neto,Agostinho Neto,Mozambique,Zambezia,Mopeia,Mopeia sede | Sambalendo,Nzero,Agostinho Neto,AGX
hamlet,Chitucotuco,Chitucotuco,Chitucotuco,Mozambique,Zambezia,Mopeia,Mopeia sede | Sambalendo,Nzero,Chitucotuco,CHC
hamlet,Cimento,Cimento,Cimento,Mozambique,Zambezia,Mopeia,Mopeia sede | Sambalendo,Nzero,Cimento,CIE
hamlet,Eduardo Mondlane,Eduardo Mondlane,Eduardo Mondlane,Mozambique,Zambezia,Mopeia,Mopeia sede | Sambalendo,Nzero,Eduardo Mondlane,EDZ
hamlet,Gulamo,Gulamo,Gulamo,Mozambique,Zambezia,Mopeia,Mopeia sede | Sambalendo,Nzero,Gulamo,GUL
hamlet,Liberdade,Liberdade,Liberdade,Mozambique,Zambezia,Mopeia,Mopeia sede | Sambalendo,Nzero,Liberdade,LIZ
hamlet,Navena,Navena,Navena,Mozambique,Zambezia,Mopeia,Mopeia sede | Sambalendo,Nzero,Navena,NAV
hamlet,Ncomati,Ncomati,Ncomati,Mozambique,Zambezia,Mopeia,Mopeia sede | Sambalendo,Nzero,Ncomati,NCO
hamlet,Nhamigonhane,Nhamigonhane,Nhamigonhane,Mozambique,Zambezia,Mopeia,Mopeia sede | Sambalendo,Nzero,Nhamigonhane,NAG
hamlet,Nhamingulo,Nhamingulo,Nhamingulo,Mozambique,Zambezia,Mopeia,Mopeia sede | Sambalendo,Nzero,Nhamingulo,NHU
hamlet,Nhamipama,Nhamipama,Nhamipama,Mozambique,Zambezia,Mopeia,Mopeia sede | Sambalendo,Nzero,Nhamipama,NHP
hamlet,Nsussa,Nsussa,Nsussa,Mozambique,Zambezia,Mopeia,Mopeia sede | Sambalendo,Nzero,Nsussa,NSU
hamlet,Sambane,Sambane,Sambane,Mozambique,Zambezia,Mopeia,Mopeia sede | Sambalendo,Nzero,Sambane,SEA
hamlet,Other,Outro,Nyingine,Mozambique,Zambezia,Mopeia,Mopeia sede | Sambalendo,Nzero,Outro,NA
hamlet,25 de Junho,25 de Junho,25 de Junho,Mozambique,Zambezia,Mopeia,Mopeia sede | Sambalendo,Sambalendo,25 de Junho,VDJ
hamlet,9 Congresso,9 Congresso,9 Congresso,Mozambique,Zambezia,Mopeia,Mopeia sede | Sambalendo,Sambalendo,9 Congresso,CNG
hamlet,Armando Emilio Guebuza,Armando Emilio Guebuza,Armando Emilio Guebuza,Mozambique,Zambezia,Mopeia,Mopeia sede | Sambalendo,Sambalendo,Armando Emilio Guebuza,AGZ
hamlet,Bote,Bote,Bote,Mozambique,Zambezia,Mopeia,Mopeia sede | Sambalendo,Sambalendo,Bote,BTE
hamlet,Coyowe,Coyowe,Coyowe,Mozambique,Zambezia,Mopeia,Mopeia sede | Sambalendo,Sambalendo,Coyowe,COY
hamlet,Dolo,Dolo,Dolo,Mozambique,Zambezia,Mopeia,Mopeia sede | Sambalendo,Sambalendo,Dolo,DLO
hamlet,Josina Machel,Josina Machel,Josina Machel,Mozambique,Zambezia,Mopeia,Mopeia sede | Sambalendo,Sambalendo,Josina Machel,JON
hamlet,Liberdade,Liberdade,Liberdade,Mozambique,Zambezia,Mopeia,Mopeia sede | Sambalendo,Sambalendo,Liberdade,LIX
hamlet,Massonjoeira,Massonjoeira,Massonjoeira,Mozambique,Zambezia,Mopeia,Mopeia sede | Sambalendo,Sambalendo,Massonjoeira,JEI
hamlet,Murato,Murato,Murato,Mozambique,Zambezia,Mopeia,Mopeia sede | Sambalendo,Sambalendo,Murato,MRT
hamlet,Nhamirere,Nhamirere,Nhamirere,Mozambique,Zambezia,Mopeia,Mopeia sede | Sambalendo,Sambalendo,Nhamirere,NIB
hamlet,Rapoio,Rapoio,Rapoio,Mozambique,Zambezia,Mopeia,Mopeia sede | Sambalendo,Sambalendo,Rapoio,RPO
hamlet,Sambalendo,Sambalendo,Sambalendo,Mozambique,Zambezia,Mopeia,Mopeia sede | Sambalendo,Sambalendo,Sambalendo,SAE
hamlet,Samora Machel,Samora Machel,Samora Machel,Mozambique,Zambezia,Mopeia,Mopeia sede | Sambalendo,Sambalendo,Samora Machel,SMM
hamlet,Sassanha,Sassanha,Sassanha,Mozambique,Zambezia,Mopeia,Mopeia sede | Sambalendo,Sambalendo,Sassanha,SSS
hamlet,Sassune,Sassune,Sassune,Mozambique,Zambezia,Mopeia,Mopeia sede | Sambalendo,Sambalendo,Sassune,SAS
hamlet,Sassune Raunde (3 de Fevereiro),Sassune Raunde (3 de Fevereiro),Sassune Raunde (3 de Fevereiro),Mozambique,Zambezia,Mopeia,Mopeia sede | Sambalendo,Sambalendo,Sassune Raunde (3 de Fevereiro),SRD
hamlet,Taibo,Taibo,Taibo,Mozambique,Zambezia,Mopeia,Mopeia sede | Sambalendo,Sambalendo,Taibo,TAI
hamlet,Other,Outro,Nyingine,Mozambique,Zambezia,Mopeia,Mopeia sede | Sambalendo,Sambalendo,Outro,NA
hamlet,Other,Outro,Nyingine,Mozambique,Zambezia,Mopeia,Mopeia sede | Sambalendo,Other,Outro,NA
hamlet,Mkundi,Mkundi,Mkundi,Tanzania,Pwani,Kibiti DC,Bungu,Bungu A,Mkundi,MKU
hamlet,Muongozo,Muongozo,Muongozo,Tanzania,Pwani,Kibiti DC,Bungu,Bungu A,Muongozo,MWO
hamlet,Mwenge,Mwenge,Mwenge,Tanzania,Pwani,Kibiti DC,Bungu,Bungu A,Mwenge,MWE
hamlet,Other,Outro,Nyingine,Tanzania,Pwani,Kibiti DC,Bungu,Bungu A,Other,NA
hamlet,Kibaoni,Kibaoni,Kibaoni,Tanzania,Pwani,Kibiti DC,Bungu,Bungu B,Kibaoni,KIB
hamlet,Kibwibwi,Kibwibwi,Kibwibwi,Tanzania,Pwani,Kibiti DC,Bungu,Bungu B,Kibwibwi,KKW
hamlet,Kinyamale,Kinyamale,Kinyamale,Tanzania,Pwani,Kibiti DC,Bungu,Bungu B,Kinyamale,KIN
hamlet,Kipenya,Kipenya,Kipenya,Tanzania,Pwani,Kibiti DC,Bungu,Bungu B,Kipenya,KIP
hamlet,Kitula,Kitula,Kitula,Tanzania,Pwani,Kibiti DC,Bungu,Bungu B,Kitula,KIT
hamlet,Other,Outro,Nyingine,Tanzania,Pwani,Kibiti DC,Bungu,Bungu B,Other,NA
hamlet,Azimio,Azimio,Azimio,Tanzania,Pwani,Kibiti DC,Bungu,Mangombela,Azimio,AZI
hamlet,Nyamango,Nyamango,Nyamango,Tanzania,Pwani,Kibiti DC,Bungu,Mangombela,Nyamango,NYM
hamlet,Other,Outro,Nyingine,Tanzania,Pwani,Kibiti DC,Bungu,Mangombela,Other,NA
hamlet,Bungu B,Bungu B,Bungu B,Tanzania,Pwani,Kibiti DC,Bungu,Msafiri,Bungu B,BUN
hamlet,Msafiri,Msafiri,Msafiri,Tanzania,Pwani,Kibiti DC,Bungu,Msafiri,Msafiri,MSA
hamlet,Ngongoroka,Ngongoroka,Ngongoroka,Tanzania,Pwani,Kibiti DC,Bungu,Msafiri,Ngongoroka,NGO
hamlet,Nyakilo,Nyakilo,Nyakilo,Tanzania,Pwani,Kibiti DC,Bungu,Msafiri,Nyakilo,NYK
hamlet,Zumbe,Zumbe,Zumbe,Tanzania,Pwani,Kibiti DC,Bungu,Msafiri,Zumbe,ZUM
hamlet,Other,Outro,Nyingine,Tanzania,Pwani,Kibiti DC,Bungu,Msafiri,Other,NA
hamlet,Dungutu,Dungutu,Dungutu,Tanzania,Pwani,Kibiti DC,Bungu,Nyambili,Dungutu,DUN
hamlet,Nyambili Kaskazini,Nyambili Kaskazini,Nyambili Kaskazini,Tanzania,Pwani,Kibiti DC,Bungu,Nyambili,Nyambili Kaskazini,NYB
hamlet,Nyambili Kusini,Nyambili Kusini,Nyambili Kusini,Tanzania,Pwani,Kibiti DC,Bungu,Nyambili,Nyambili Kusini,NYL
hamlet,Other,Outro,Nyingine,Tanzania,Pwani,Kibiti DC,Bungu,Nyambili,Other,NA
hamlet,Besabu,Besabu,Besabu,Tanzania,Pwani,Kibiti DC,Bungu,Nyambunda,Besabu,BES
hamlet,Mkwandara,Mkwandara,Mkwandara,Tanzania,Pwani,Kibiti DC,Bungu,Nyambunda,Mkwandara,MKW
hamlet,Nyangundu,Nyangundu,Nyangundu,Tanzania,Pwani,Kibiti DC,Bungu,Nyambunda,Nyangundu,NAN
hamlet,Other,Outro,Nyingine,Tanzania,Pwani,Kibiti DC,Bungu,Nyambunda,Other,NA
hamlet,Lugome,Lugome,Lugome,Tanzania,Pwani,Kibiti DC,Bungu,Pagae,Lugome,LUG
hamlet,Mkale,Mkale,Mkale,Tanzania,Pwani,Kibiti DC,Bungu,Pagae,Mkale,MKA
hamlet,Nyameku,Nyameku,Nyameku,Tanzania,Pwani,Kibiti DC,Bungu,Pagae,Nyameku,NYY
hamlet,Undembo,Undembo,Undembo,Tanzania,Pwani,Kibiti DC,Bungu,Pagae,Undembo,UND
hamlet,Other,Outro,Nyingine,Tanzania,Pwani,Kibiti DC,Bungu,Pagae,Other,NA
hamlet,Other,Outro,Nyingine,Tanzania,Pwani,Kibiti DC,Bungu,Other,Other,NA
hamlet,Bondeni,Bondeni,Bondeni,Tanzania,Pwani,Kibiti DC,Dimani,Bondeni,Bondeni,BON
hamlet,Other,Outro,Nyingine,Tanzania,Pwani,Kibiti DC,Dimani,Bondeni,Other,NA
hamlet,Dimani,Dimani,Dimani,Tanzania,Pwani,Kibiti DC,Dimani,Dimani,Dimani,DIM
hamlet,Other,Outro,Nyingine,Tanzania,Pwani,Kibiti DC,Dimani,Dimani,Other,NA
hamlet,Dimani A,Dimani A,Dimani A,Tanzania,Pwani,Kibiti DC,Dimani,Dimani A,Dimani A,DIA
hamlet,Other,Outro,Nyingine,Tanzania,Pwani,Kibiti DC,Dimani,Dimani A,Other,NA
hamlet,Dimani B,Dimani B,Dimani B,Tanzania,Pwani,Kibiti DC,Dimani,Dimani B,Dimani B,DIN
hamlet,Other,Outro,Nyingine,Tanzania,Pwani,Kibiti DC,Dimani,Dimani B,Other,NA
hamlet,Kilimbili,Kilimbili,Kilimbili,Tanzania,Pwani,Kibiti DC,Dimani,Kilimbili,Kilimbili,KIL
hamlet,Other,Outro,Nyingine,Tanzania,Pwani,Kibiti DC,Dimani,Kilimbili,Other,NA
hamlet,Kimbuga,Kimbuga,Kimbuga,Tanzania,Pwani,Kibiti DC,Dimani,Kimbuga,Kimbuga,KIM
hamlet,Other,Outro,Nyingine,Tanzania,Pwani,Kibiti DC,Dimani,Kimbuga,Other,NA
hamlet,Ng'ambo,Ng'ambo,Ng'ambo,Tanzania,Pwani,Kibiti DC,Dimani,Ng'ambo,Ng'ambo,NGA
hamlet,Other,Outro,Nyingine,Tanzania,Pwani,Kibiti DC,Dimani,Ng'ambo,Other,NA
hamlet,Ngulakula,Ngulakula,Ngulakula,Tanzania,Pwani,Kibiti DC,Dimani,Ngulakula,Ngulakula,NGU
hamlet,Other,Outro,Nyingine,Tanzania,Pwani,Kibiti DC,Dimani,Ngulakula,Other,NA
hamlet,Nyambangala,Nyambangala,Nyambangala,Tanzania,Pwani,Kibiti DC,Dimani,Nyambangala,Nyambangala,NYN
hamlet,Other,Outro,Nyingine,Tanzania,Pwani,Kibiti DC,Dimani,Nyambangala,Other,NA
hamlet,Penda Kimbuga,Penda Kimbuga,Penda Kimbuga,Tanzania,Pwani,Kibiti DC,Dimani,Penda Kimbuga,Penda Kimbuga,PED
hamlet,Other,Outro,Nyingine,Tanzania,Pwani,Kibiti DC,Dimani,Penda Kimbuga,Other,NA
hamlet,Penda Miwaga,Penda Miwaga,Penda Miwaga,Tanzania,Pwani,Kibiti DC,Dimani,Penda Miwaga,Penda Miwaga,PEA
hamlet,Other,Outro,Nyingine,Tanzania,Pwani,Kibiti DC,Dimani,Penda Miwaga,Other,NA
hamlet,Other,Outro,Nyingine,Tanzania,Pwani,Kibiti DC,Dimani,Other,Other,NA
hamlet,Kibiti Kati,Kibiti Kati,Kibiti Kati,Tanzania,Pwani,Kibiti DC,Kibiti,Kibiti Kati,Kibiti Kati,KKB
hamlet,Other,Outro,Nyingine,Tanzania,Pwani,Kibiti DC,Kibiti,Kibiti Kati,Other,NA
hamlet,Kibiti Kusini,Kibiti Kusini,Kibiti Kusini,Tanzania,Pwani,Kibiti DC,Kibiti,Kibiti Kusini,Kibiti Kusini,KIU
hamlet,Other,Outro,Nyingine,Tanzania,Pwani,Kibiti DC,Kibiti,Kibiti Kusini,Other,NA
hamlet,Kingwira,Kingwira,Kingwira,Tanzania,Pwani,Kibiti DC,Kibiti,Kingwira,Kingwira,KIR
hamlet,Other,Outro,Nyingine,Tanzania,Pwani,Kibiti DC,Kibiti,Kingwira,Other,NA
hamlet,Kitembo,Kitembo,Kitembo,Tanzania,Pwani,Kibiti DC,Kibiti,Kitembo,Kitembo,KBI
hamlet,Other,Outro,Nyingine,Tanzania,Pwani,Kibiti DC,Kibiti,Kitembo,Other,NA
hamlet,Lumyonzi,Lumyonzi,Lumyonzi,Tanzania,Pwani,Kibiti DC,Kibiti,Lumyonzi,Lumyonzi,LUM
hamlet,Other,Outro,Nyingine,Tanzania,Pwani,Kibiti DC,Kibiti,Lumyonzi,Other,NA
hamlet,Makaoni,Makaoni,Makaoni,Tanzania,Pwani,Kibiti DC,Kibiti,Makaoni,Makaoni,MAK
hamlet,Other,Outro,Nyingine,Tanzania,Pwani,Kibiti DC,Kibiti,Makaoni,Other,NA
hamlet,Mbebetini,Mbebetini,Mbebetini,Tanzania,Pwani,Kibiti DC,Kibiti,Mbebetini,Mbebetini,MBE
hamlet,Other,Outro,Nyingine,Tanzania,Pwani,Kibiti DC,Kibiti,Mbebetini,Other,NA
hamlet,Mkubuge,Mkubuge,Mkubuge,Tanzania,Pwani,Kibiti DC,Kibiti,Mkubuge,Mkubuge,MKB
hamlet,Other,Outro,Nyingine,Tanzania,Pwani,Kibiti DC,Kibiti,Mkubuge,Other,NA
hamlet,Mkundi,Mkundi,Mkundi,Tanzania,Pwani,Kibiti DC,Kibiti,Mkundi,Mkundi,MKN
hamlet,Other,Outro,Nyingine,Tanzania,Pwani,Kibiti DC,Kibiti,Mkundi,Other,NA
hamlet,Nyamakingili,Nyamakingili,Nyamakingili,Tanzania,Pwani,Kibiti DC,Kibiti,Nyamakingili,Nyamakingili,NYG
hamlet,Other,Outro,Nyingine,Tanzania,Pwani,Kibiti DC,Kibiti,Nyamakingili,Other,NA
hamlet,Nyangwego,Nyangwego,Nyangwego,Tanzania,Pwani,Kibiti DC,Kibiti,Nyangwego,Nyangwego,NYW
hamlet,Other,Outro,Nyingine,Tanzania,Pwani,Kibiti DC,Kibiti,Nyangwego,Other,NA
hamlet,Nyatanga,Nyatanga,Nyatanga,Tanzania,Pwani,Kibiti DC,Kibiti,Nyatanga,Nyatanga,NYT
hamlet,Other,Outro,Nyingine,Tanzania,Pwani,Kibiti DC,Kibiti,Nyatanga,Other,NA
hamlet,Sokoni,Sokoni,Sokoni,Tanzania,Pwani,Kibiti DC,Kibiti,Sokoni,Sokoni,SOK
hamlet,Other,Outro,Nyingine,Tanzania,Pwani,Kibiti DC,Kibiti,Sokoni,Other,NA
hamlet,Zimbwini,Zimbwini,Zimbwini,Tanzania,Pwani,Kibiti DC,Kibiti,Zimbwini,Zimbwini,ZIM
hamlet,Other,Outro,Nyingine,Tanzania,Pwani,Kibiti DC,Kibiti,Zimbwini,Other,NA
hamlet,Other,Outro,Nyingine,Tanzania,Pwani,Kibiti DC,Kibiti,Other,Other,NA
hamlet,Bumbuamani,Bumbuamani,Bumbuamani,Tanzania,Pwani,Kibiti DC,Kiongoroni,Jaja,Bumbuamani,BUM
hamlet,Kitongani,Kitongani,Kitongani,Tanzania,Pwani,Kibiti DC,Kiongoroni,Jaja,Kitongani,KGT
hamlet,Mjimwema,Mjimwema,Mjimwema,Tanzania,Pwani,Kibiti DC,Kiongoroni,Jaja,Mjimwema,MJI
hamlet,Other,Outro,Nyingine,Tanzania,Pwani,Kibiti DC,Kiongoroni,Jaja,Other,NA
hamlet,Bweni,Bweni,Bweni,Tanzania,Pwani,Kibiti DC,Kiongoroni,Kiongoroni,Bweni,BWE
hamlet,Makwende,Makwende,Makwende,Tanzania,Pwani,Kibiti DC,Kiongoroni,Kiongoroni,Makwende,MAE
hamlet,Nyaobe,Nyaobe,Nyaobe,Tanzania,Pwani,Kibiti DC,Kiongoroni,Kiongoroni,Nyaobe,NYO
hamlet,Other,Outro,Nyingine,Tanzania,Pwani,Kibiti DC,Kiongoroni,Kiongoroni,Other,NA
hamlet,Kilambani,Kilambani,Kilambani,Tanzania,Pwani,Kibiti DC,Kiongoroni,Pombwe,Kilambani,KAI
hamlet,Mbungwi,Mbungwi,Mbungwi,Tanzania,Pwani,Kibiti DC,Kiongoroni,Pombwe,Mbungwi,MBU
hamlet,Pombwe kubwa,Pombwe kubwa,Pombwe kubwa,Tanzania,Pwani,Kibiti DC,Kiongoroni,Pombwe,Pombwe kubwa,POM
hamlet,Suni,Suni,Suni,Tanzania,Pwani,Kibiti DC,Kiongoroni,Pombwe,Suni,SUN
hamlet,Other,Outro,Nyingine,Tanzania,Pwani,Kibiti DC,Kiongoroni,Pombwe,Other,NA
hamlet,Bandarini,Bandarini,Bandarini,Tanzania,Pwani,Kibiti DC,Kiongoroni,Ruma,Bandarini,BAN
hamlet,Emelwa,Emelwa,Emelwa,Tanzania,Pwani,Kibiti DC,Kiongoroni,Ruma,Emelwa,EME
hamlet,King'ongo,King'ongo,King'ongo,Tanzania,Pwani,Kibiti DC,Kiongoroni,Ruma,King'ongo,KKG
hamlet,Mtanga,Mtanga,Mtanga,Tanzania,Pwani,Kibiti DC,Kiongoroni,Ruma,Mtanga,MTA
hamlet,Nyamikamba,Nyamikamba,Nyamikamba,Tanzania,Pwani,Kibiti DC,Kiongoroni,Ruma,Nyamikamba,NNY
hamlet,Other,Outro,Nyingine,Tanzania,Pwani,Kibiti DC,Kiongoroni,Ruma,Other,NA
hamlet,Other,Outro,Nyingine,Tanzania,Pwani,Kibiti DC,Kiongoroni,Other,Other,NA
hamlet,Kimbogo,Kimbogo,Kimbogo,Tanzania,Pwani,Kibiti DC,Mahege,Hanga,Kimbogo,KOK
hamlet,Mkima,Mkima,Mkima,Tanzania,Pwani,Kibiti DC,Mahege,Hanga,Mkima,MKI
hamlet,Ngambe,Ngambe,Ngambe,Tanzania,Pwani,Kibiti DC,Mahege,Hanga,Ngambe,NGM
hamlet,Nyambwanda,Nyambwanda,Nyambwanda,Tanzania,Pwani,Kibiti DC,Mahege,Hanga,Nyambwanda,NYD
hamlet,Other,Outro,Nyingine,Tanzania,Pwani,Kibiti DC,Mahege,Hanga,Other,NA
hamlet,Mawichi,Mawichi,Mawichi,Tanzania,Pwani,Kibiti DC,Mahege,Mahege,Mawichi,MAW
hamlet,Mtembwe,Mtembwe,Mtembwe,Tanzania,Pwani,Kibiti DC,Mahege,Mahege,Mtembwe,MTM
hamlet,Nyamkingia,Nyamkingia,Nyamkingia,Tanzania,Pwani,Kibiti DC,Mahege,Mahege,Nyamkingia,NMY
hamlet,Umba,Umba,Umba,Tanzania,Pwani,Kibiti DC,Mahege,Mahege,Umba,UMB
hamlet,Other,Outro,Nyingine,Tanzania,Pwani,Kibiti DC,Mahege,Mahege,Other,NA
hamlet,Mlete Soso/Ngondae,Mlete Soso/Ngondae,Mlete Soso/Ngondae,Tanzania,Pwani,Kibiti DC,Mahege,Nyakinyo,Mlete Soso/Ngondae,NGN
hamlet,Nyakinyo,Nyakinyo,Nyakinyo,Tanzania,Pwani,Kibiti DC,Mahege,Nyakinyo,Nyakinyo,SOS
hamlet,Other,Outro,Nyingine,Tanzania,Pwani,Kibiti DC,Mahege,Nyakinyo,Other,NA
hamlet,Mapinduzi,Mapinduzi,Mapinduzi,Tanzania,Pwani,Kibiti DC,Mahege,Nyanjati,Mapinduzi,MAP
hamlet,Mrema,Mrema,Mrema,Tanzania,Pwani,Kibiti DC,Mahege,Nyanjati,Mrema,MRE
hamlet,Mwinyi,Mwinyi,Mwinyi,Tanzania,Pwani,Kibiti DC,Mahege,Nyanjati,Mwinyi,MWI
hamlet,Nyerere,Nyerere,Nyerere,Tanzania,Pwani,Kibiti DC,Mahege,Nyanjati,Nyerere,NYE
hamlet,Saudia,Saudia,Saudia,Tanzania,Pwani,Kibiti DC,Mahege,Nyanjati,Saudia,SAU
hamlet,Sokoine,Sokoine,Sokoine,Tanzania,Pwani,Kibiti DC,Mahege,Nyanjati,Sokoine,SOO
hamlet,Other,Outro,Nyingine,Tanzania,Pwani,Kibiti DC,Mahege,Nyanjati,Other,NA
hamlet,Halisi,Halisi,Halisi,Tanzania,Pwani,Kibiti DC,Mahege,Tomoni,Halisi,HAL
hamlet,Mibuyusaba,Mibuyusaba,Mibuyusaba,Tanzania,Pwani,Kibiti DC,Mahege,Tomoni,Mibuyusaba,MIB
hamlet,Mkali,Mkali,Mkali,Tanzania,Pwani,Kibiti DC,Mahege,Tomoni,Mkali,MKL
hamlet,Nyakikongo,Nyakikongo,Nyakikongo,Tanzania,Pwani,Kibiti DC,Mahege,Tomoni,Nyakikongo,NOI
hamlet,Other,Outro,Nyingine,Tanzania,Pwani,Kibiti DC,Mahege,Tomoni,Other,NA
hamlet,Other,Outro,Nyingine,Tanzania,Pwani,Kibiti DC,Mahege,Other,Other,NA
hamlet,Kati,Kati,Kati,Tanzania,Pwani,Kibiti DC,Maparoni,Kiechuru,Kati,KAT
hamlet,Kityanga,Kityanga,Kityanga,Tanzania,Pwani,Kibiti DC,Maparoni,Kiechuru,Kityanga,KIY
hamlet,Korango,Korango,Korango,Tanzania,Pwani,Kibiti DC,Maparoni,Kiechuru,Korango,KOR
hamlet,Mgambo,Mgambo,Mgambo,Tanzania,Pwani,Kibiti DC,Maparoni,Kiechuru,Mgambo,MGA
hamlet,Other,Outro,Nyingine,Tanzania,Pwani,Kibiti DC,Maparoni,Kiechuru,Other,NA
hamlet,Gingi,Gingi,Gingi,Tanzania,Pwani,Kibiti DC,Maparoni,Maparoni,Gingi,GIN
hamlet,Mbangani,Mbangani,Mbangani,Tanzania,Pwani,Kibiti DC,Maparoni,Maparoni,Mbangani,MBN
hamlet,Tuwa,Tuwa,Tuwa,Tanzania,Pwani,Kibiti DC,Maparoni,Maparoni,Tuwa,TUW
hamlet,Usimbe kidoga,Usimbe kidoga,Usimbe kidoga,Tanzania,Pwani,Kibiti DC,Maparoni,Maparoni,Usimbe kidoga,USM
hamlet,Usimbe kiwanjani,Usimbe kiwanjani,Usimbe kiwanjani,Tanzania,Pwani,Kibiti DC,Maparoni,Maparoni,Usimbe kiwanjani,USI
hamlet,Other,Outro,Nyingine,Tanzania,Pwani,Kibiti DC,Maparoni,Maparoni,Other,NA
hamlet,Other,Outro,Nyingine,Tanzania,Pwani,Kibiti DC,Maparoni,Other,Other,NA
hamlet,Barabarani,Barabarani,Barabarani,Tanzania,Pwani,Kibiti DC,Mbuchi,Mbuchi,Barabarani,BAA
hamlet,Kipoka,Kipoka,Kipoka,Tanzania,Pwani,Kibiti DC,Mbuchi,Mbuchi,Kipoka,KAP
hamlet,Kitingi,Kitingi,Kitingi,Tanzania,Pwani,Kibiti DC,Mbuchi,Mbuchi,Kitingi,KKI
hamlet,Makongoro,Makongoro,Makongoro,Tanzania,Pwani,Kibiti DC,Mbuchi,Mbuchi,Makongoro,MAO
hamlet,Mikwang'ombe,Mikwang'ombe,Mikwang'ombe,Tanzania,Pwani,Kibiti DC,Mbuchi,Mbuchi,Mikwang'ombe,MIK
hamlet,Mnganje/Nganje,Mnganje/Nganje,Mnganje/Nganje,Tanzania,Pwani,Kibiti DC,Mbuchi,Mbuchi,Mnganje/Nganje,MNG
hamlet,Other,Outro,Nyingine,Tanzania,Pwani,Kibiti DC,Mbuchi,Mbuchi,Other,NA
hamlet,Doka,Doka,Doka,Tanzania,Pwani,Kibiti DC,Mbuchi,Mbwera Magharibi,Doka,DOK
hamlet,Kibumbulo/Kimburu,Kibumbulo/Kimburu,Kibumbulo/Kimburu,Tanzania,Pwani,Kibiti DC,Mbuchi,Mbwera Magharibi,Kibumbulo/Kimburu,KBR
hamlet,Kiiongoro,Kiiongoro,Kiiongoro,Tanzania,Pwani,Kibiti DC,Mbuchi,Mbwera Magharibi,Kiiongoro,KII
hamlet,Kumbacha,Kumbacha,Kumbacha,Tanzania,Pwani,Kibiti DC,Mbuchi,Mbwera Magharibi,Kumbacha,KUM
hamlet,Mkepa,Mkepa,Mkepa,Tanzania,Pwani,Kibiti DC,Mbuchi,Mbwera Magharibi,Mkepa,MKE
hamlet,Mkurumu,Mkurumu,Mkurumu,Tanzania,Pwani,Kibiti DC,Mbuchi,Mbwera Magharibi,Mkurumu,MKR
hamlet,Mtawatawa,Mtawatawa,Mtawatawa,Tanzania,Pwani,Kibiti DC,Mbuchi,Mbwera Magharibi,Mtawatawa,MTW
hamlet,Other,Outro,Nyingine,Tanzania,Pwani,Kibiti DC,Mbuchi,Mbwera Magharibi,Other,NA
hamlet,Marongoni,Marongoni,Marongoni,Tanzania,Pwani,Kibiti DC,Mbuchi,Mbwera Mashariki,Marongoni,MAR
hamlet,Mbumburu,Mbumburu,Mbumburu,Tanzania,Pwani,Kibiti DC,Mbuchi,Mbwera Mashariki,Mbumburu,MBM
hamlet,Mdai,Mdai,Mdai,Tanzania,Pwani,Kibiti DC,Mbuchi,Mbwera Mashariki,Mdai,MDA
hamlet,Mkirika,Mkirika,Mkirika,Tanzania,Pwani,Kibiti DC,Mbuchi,Mbwera Mashariki,Mkirika,MKK
hamlet,Other,Outro,Nyingine,Tanzania,Pwani,Kibiti DC,Mbuchi,Mbwera Mashariki,Other,NA
hamlet,Other,Outro,Nyingine,Tanzania,Pwani,Kibiti DC,Mbuchi,Other,Other,NA
hamlet,Misimbo,Misimbo,Misimbo,Tanzania,Pwani,Kibiti DC,Mchukwi,Mangwi,Misimbo,MIS
hamlet,Miyogoya,Miyogoya,Miyogoya,Tanzania,Pwani,Kibiti DC,Mchukwi,Mangwi,Miyogoya,MNY
hamlet,Rondo,Rondo,Rondo,Tanzania,Pwani,Kibiti DC,Mchukwi,Mangwi,Rondo,RON
hamlet,Other,Outro,Nyingine,Tanzania,Pwani,Kibiti DC,Mchukwi,Mangwi,Other,NA
hamlet,Kitomondo,Kitomondo,Kitomondo,Tanzania,Pwani,Kibiti DC,Mchukwi,Mchukwi A,Kitomondo,UKI
hamlet,Matimbwani,Matimbwani,Matimbwani,Tanzania,Pwani,Kibiti DC,Mchukwi,Mchukwi A,Matimbwani,MAT
hamlet,Nyakaumbanga,Nyakaumbanga,Nyakaumbanga,Tanzania,Pwani,Kibiti DC,Mchukwi,Mchukwi A,Nyakaumbanga,NMN
hamlet,Nyamanjenga,Nyamanjenga,Nyamanjenga,Tanzania,Pwani,Kibiti DC,Mchukwi,Mchukwi A,Nyamanjenga,NYJ
hamlet,Ujongoni,Ujongoni,Ujongoni,Tanzania,Pwani,Kibiti DC,Mchukwi,Mchukwi A,Ujongoni,UJO
hamlet,Other,Outro,Nyingine,Tanzania,Pwani,Kibiti DC,Mchukwi,Mchukwi A,Other,NA
hamlet,Kichangani,Kichangani,Kichangani,Tanzania,Pwani,Kibiti DC,Mchukwi,Mchukwi B,Kichangani,KIC
hamlet,Mbindia,Mbindia,Mbindia,Tanzania,Pwani,Kibiti DC,Mchukwi,Mchukwi B,Mbindia,MBI
hamlet,Miembeni,Miembeni,Miembeni,Tanzania,Pwani,Kibiti DC,Mchukwi,Mchukwi B,Miembeni,MIE
hamlet,Msikitini,Msikitini,Msikitini,Tanzania,Pwani,Kibiti DC,Mchukwi,Mchukwi B,Msikitini,MSI
hamlet,Nyaubi,Nyaubi,Nyaubi,Tanzania,Pwani,Kibiti DC,Mchukwi,Mchukwi B,Nyaubi,NNI
hamlet,Songa,Songa,Songa,Tanzania,Pwani,Kibiti DC,Mchukwi,Mchukwi B,Songa,SON
hamlet,Other,Outro,Nyingine,Tanzania,Pwani,Kibiti DC,Mchukwi,Mchukwi B,Other,NA
hamlet,Bani,Bani,Bani,Tanzania,Pwani,Kibiti DC,Mchukwi,Mkupuka,Bani,BAI
hamlet,Mkupuka,Mkupuka,Mkupuka,Tanzania,Pwani,Kibiti DC,Mchukwi,Mkupuka,Mkupuka,MKM
hamlet,Nyunga,Nyunga,Nyunga,Tanzania,Pwani,Kibiti DC,Mchukwi,Mkupuka,Nyunga,NYU
hamlet,Other,Outro,Nyingine,Tanzania,Pwani,Kibiti DC,Mchukwi,Mkupuka,Other,NA
hamlet,Other,Outro,Nyingine,Tanzania,Pwani,Kibiti DC,Mchukwi,Other,Other,NA
hamlet,Jiweni,Jiweni,Jiweni,Tanzania,Pwani,Kibiti DC,Mjawa,Jaribu Magharibi,Jiweni,JIW
hamlet,Kibuyuni,Kibuyuni,Kibuyuni,Tanzania,Pwani,Kibiti DC,Mjawa,Jaribu Magharibi,Kibuyuni,KNB
hamlet,Mapinduzi,Mapinduzi,Mapinduzi,Tanzania,Pwani,Kibiti DC,Mjawa,Jaribu Magharibi,Mapinduzi,MID
hamlet,Mkongoni,Mkongoni,Mkongoni,Tanzania,Pwani,Kibiti DC,Mjawa,Jaribu Magharibi,Mkongoni,MKO
hamlet,Other,Outro,Nyingine,Tanzania,Pwani,Kibiti DC,Mjawa,Jaribu Magharibi,Other,NA
hamlet,Mikwala,Mikwala,Mikwala,Tanzania,Pwani,Kibiti DC,Mjawa,Jaribu Mpakani,Mikwala,MII
hamlet,Motomoto,Motomoto,Motomoto,Tanzania,Pwani,Kibiti DC,Mjawa,Jaribu Mpakani,Motomoto,MOT
hamlet,Mtunda,Mtunda,Mtunda,Tanzania,Pwani,Kibiti DC,Mjawa,Jaribu Mpakani,Mtunda,MTU
hamlet,Muungano,Muungano,Muungano,Tanzania,Pwani,Kibiti DC,Mjawa,Jaribu Mpakani,Muungano,MUU
hamlet,Ujamaa,Ujamaa,Ujamaa,Tanzania,Pwani,Kibiti DC,Mjawa,Jaribu Mpakani,Ujamaa,UJA
hamlet,Other,Outro,Nyingine,Tanzania,Pwani,Kibiti DC,Mjawa,Jaribu Mpakani,Other,NA
hamlet,Bonjo,Bonjo,Bonjo,Tanzania,Pwani,Kibiti DC,Mjawa,Mjawa,Bonjo,BOJ
hamlet,Dutani,Dutani,Dutani,Tanzania,Pwani,Kibiti DC,Mjawa,Mjawa,Dutani,DUT
hamlet,Gosa,Gosa,Gosa,Tanzania,Pwani,Kibiti DC,Mjawa,Mjawa,Gosa,GOS
hamlet,Mtetani,Mtetani,Mtetani,Tanzania,Pwani,Kibiti DC,Mjawa,Mjawa,Mtetani,MTE
hamlet,Ngalemwa,Ngalemwa,Ngalemwa,Tanzania,Pwani,Kibiti DC,Mjawa,Mjawa,Ngalemwa,NGL
hamlet,Other,Outro,Nyingine,Tanzania,Pwani,Kibiti DC,Mjawa,Mjawa,Other,NA
hamlet,Goloatanga,Goloatanga,Goloatanga,Tanzania,Pwani,Kibiti DC,Mjawa,Motomoto,Goloatanga,GOL
hamlet,Misogole,Misogole,Misogole,Tanzania,Pwani,Kibiti DC,Mjawa,Motomoto,Misogole,MIO
hamlet,Other,Outro,Nyingine,Tanzania,Pwani,Kibiti DC,Mjawa,Motomoto,Other,NA
hamlet,Msega,Msega,Msega,Tanzania,Pwani,Kibiti DC,Mjawa,Ngalengwa,Msega,MSE
hamlet,Mtuluma,Mtuluma,Mtuluma,Tanzania,Pwani,Kibiti DC,Mjawa,Ngalengwa,Mtuluma,MTL
hamlet,Other,Outro,Nyingine,Tanzania,Pwani,Kibiti DC,Mjawa,Ngalengwa,Other,NA
hamlet,Uchembe Chini,Uchembe Chini,Uchembe Chini,Tanzania,Pwani,Kibiti DC,Mjawa,Uchembe,Uchembe Chini,UCH
hamlet,Uchembe Juu,Uchembe Juu,Uchembe Juu,Tanzania,Pwani,Kibiti DC,Mjawa,Uchembe,Uchembe Juu,UCE
hamlet,Other,Outro,Nyingine,Tanzania,Pwani,Kibiti DC,Mjawa,Uchembe,Other,NA
hamlet,Uchembe Njianne,Uchembe Njianne,Uchembe Njianne,Tanzania,Pwani,Kibiti DC,Mjawa,Uponda,Uchembe Njianne,UCM
hamlet,Uponda Chini,Uponda Chini,Uponda Chini,Tanzania,Pwani,Kibiti DC,Mjawa,Uponda,Uponda Chini,UPO
hamlet,Uponda Juu,Uponda Juu,Uponda Juu,Tanzania,Pwani,Kibiti DC,Mjawa,Uponda,Uponda Juu,UPN
hamlet,Other,Outro,Nyingine,Tanzania,Pwani,Kibiti DC,Mjawa,Uponda,Other,NA
hamlet,Other,Outro,Nyingine,Tanzania,Pwani,Kibiti DC,Mjawa,Other,Other,NA
hamlet,Kibuni,Kibuni,Kibuni,Tanzania,Pwani,Kibiti DC,Mlanzi,Machipi,Kibuni,KBN
hamlet,Mangimbwage,Mangimbwage,Mangimbwage,Tanzania,Pwani,Kibiti DC,Mlanzi,Machipi,Mangimbwage,MAB
hamlet,Msikitini,Msikitini,Msikitini,Tanzania,Pwani,Kibiti DC,Mlanzi,Machipi,Msikitini,MSK
hamlet,Ngonja,Ngonja,Ngonja,Tanzania,Pwani,Kibiti DC,Mlanzi,Machipi,Ngonja,NGJ
hamlet,Ruanda,Ruanda,Ruanda,Tanzania,Pwani,Kibiti DC,Mlanzi,Machipi,Ruanda,RUA
hamlet,Other,Outro,Nyingine,Tanzania,Pwani,Kibiti DC,Mlanzi,Machipi,Other,NA
hamlet,Kikimbili,Kikimbili,Kikimbili,Tanzania,Pwani,Kibiti DC,Mlanzi,Mlanzi,Kikimbili,KIK
hamlet,Kimbindu,Kimbindu,Kimbindu,Tanzania,Pwani,Kibiti DC,Mlanzi,Mlanzi,Kimbindu,KID
hamlet,Kingweti,Kingweti,Kingweti,Tanzania,Pwani,Kibiti DC,Mlanzi,Mlanzi,Kingweti,KGI
hamlet,Milonzi,Milonzi,Milonzi,Tanzania,Pwani,Kibiti DC,Mlanzi,Mlanzi,Milonzi,MIZ
hamlet,Mlanzi Magharibi,Mlanzi Magharibi,Mlanzi Magharibi,Tanzania,Pwani,Kibiti DC,Mlanzi,Mlanzi,Mlanzi Magharibi,MLA
hamlet,Mlanzi Mashariki,Mlanzi Mashariki,Mlanzi Mashariki,Tanzania,Pwani,Kibiti DC,Mlanzi,Mlanzi,Mlanzi Mashariki,MLN
hamlet,Other,Outro,Nyingine,Tanzania,Pwani,Kibiti DC,Mlanzi,Mlanzi,Other,NA
hamlet,Bora,Bora,Bora,Tanzania,Pwani,Kibiti DC,Mlanzi,Ngondae,Bora,BOA
hamlet,Like,Like,Like,Tanzania,Pwani,Kibiti DC,Mlanzi,Ngondae,Like,LIK
hamlet,Mkwajuni,Mkwajuni,Mkwajuni,Tanzania,Pwani,Kibiti DC,Mlanzi,Ngondae,Mkwajuni,MKJ
hamlet,Other,Outro,Nyingine,Tanzania,Pwani,Kibiti DC,Mlanzi,Ngondae,Other,NA
hamlet,Malenda,Malenda,Malenda,Tanzania,Pwani,Kibiti DC,Mlanzi,Nyamwimbe,Malenda,MNL
hamlet,Malenda Halisi,Malenda Halisi,Malenda Halisi,Tanzania,Pwani,Kibiti DC,Mlanzi,Nyamwimbe,Malenda Halisi,MMN
hamlet,Miparani,Miparani,Miparani,Tanzania,Pwani,Kibiti DC,Mlanzi,Nyamwimbe,Miparani,MRP
hamlet,Nyelelo,Nyelelo,Nyelelo,Tanzania,Pwani,Kibiti DC,Mlanzi,Nyamwimbe,Nyelelo,NNE
hamlet,Umtanga,Umtanga,Umtanga,Tanzania,Pwani,Kibiti DC,Mlanzi,Nyamwimbe,Umtanga,UMT
hamlet,Other,Outro,Nyingine,Tanzania,Pwani,Kibiti DC,Mlanzi,Nyamwimbe,Other,NA
hamlet,Other,Outro,Nyingine,Tanzania,Pwani,Kibiti DC,Mlanzi,Other,Other,NA
hamlet,Nunu,Nunu,Nunu,Tanzania,Pwani,Kibiti DC,Msala,Kiasi,Nunu,NUN
hamlet,Nyunguni,Nyunguni,Nyunguni,Tanzania,Pwani,Kibiti DC,Msala,Kiasi,Nyunguni,NNG
hamlet,Ploti,Ploti,Ploti,Tanzania,Pwani,Kibiti DC,Msala,Kiasi,Ploti,PLO
hamlet,Uwandani,Uwandani,Uwandani,Tanzania,Pwani,Kibiti DC,Msala,Kiasi,Uwandani,UWA
hamlet,Other,Outro,Nyingine,Tanzania,Pwani,Kibiti DC,Msala,Kiasi,Other,NA
hamlet,Majaliwa,Majaliwa,Majaliwa,Tanzania,Pwani,Kibiti DC,Msala,Msala,Majaliwa,MMA
hamlet,Mbaleni,Mbaleni,Mbaleni,Tanzania,Pwani,Kibiti DC,Msala,Msala,Mbaleni,MBL
hamlet,Mbomboni,Mbomboni,Mbomboni,Tanzania,Pwani,Kibiti DC,Msala,Msala,Mbomboni,MBO
hamlet,Ukongoro,Ukongoro,Ukongoro,Tanzania,Pwani,Kibiti DC,Msala,Msala,Ukongoro,UKO
hamlet,Wasamande,Wasamande,Wasamande,Tanzania,Pwani,Kibiti DC,Msala,Msala,Wasamande,WAS
hamlet,Other,Outro,Nyingine,Tanzania,Pwani,Kibiti DC,Msala,Msala,Other,NA
hamlet,Domwe,Domwe,Domwe,Tanzania,Pwani,Kibiti DC,Msala,Twasalie,Domwe,DOW
hamlet,Kisimbya,Kisimbya,Kisimbya,Tanzania,Pwani,Kibiti DC,Msala,Twasalie,Kisimbya,KIS
hamlet,Nyahimba,Nyahimba,Nyahimba,Tanzania,Pwani,Kibiti DC,Msala,Twasalie,Nyahimba,NYH
hamlet,Poloti,Poloti,Poloti,Tanzania,Pwani,Kibiti DC,Msala,Twasalie,Poloti,PLT
hamlet,Tarachu,Tarachu,Tarachu,Tanzania,Pwani,Kibiti DC,Msala,Twasalie,Tarachu,TAR
hamlet,Other,Outro,Nyingine,Tanzania,Pwani,Kibiti DC,Msala,Twasalie,Other,NA
hamlet,Other,Outro,Nyingine,Tanzania,Pwani,Kibiti DC,Msala,Other,Other,NA
hamlet,Bumba,Bumba,Bumba,Tanzania,Pwani,Kibiti DC,Mtawanya,Bumba,Bumba,BUB
hamlet,Other,Outro,Nyingine,Tanzania,Pwani,Kibiti DC,Mtawanya,Bumba,Other,NA
hamlet,Kinyanya Kati,Kinyanya Kati,Kinyanya Kati,Tanzania,Pwani,Kibiti DC,Mtawanya,Kinyanya Kati,Kinyanya Kati,KYK
hamlet,Other,Outro,Nyingine,Tanzania,Pwani,Kibiti DC,Mtawanya,Kinyanya Kati,Other,NA
hamlet,Magogo matatu,Magogo matatu,Magogo matatu,Tanzania,Pwani,Kibiti DC,Mtawanya,Magogo Matatu,Magogo matatu,MOM
hamlet,Other,Outro,Nyingine,Tanzania,Pwani,Kibiti DC,Mtawanya,Magogo Matatu,Other,NA
hamlet,Mikendo,Mikendo,Mikendo,Tanzania,Pwani,Kibiti DC,Mtawanya,Mikendo,Mikendo,MEM
hamlet,Other,Outro,Nyingine,Tanzania,Pwani,Kibiti DC,Mtawanya,Mikendo,Other,NA
hamlet,Mkunama,Mkunama,Mkunama,Tanzania,Pwani,Kibiti DC,Mtawanya,Mkunama,Mkunama,UMK
hamlet,Other,Outro,Nyingine,Tanzania,Pwani,Kibiti DC,Mtawanya,Mkunama,Other,NA
hamlet,Msoro,Msoro,Msoro,Tanzania,Pwani,Kibiti DC,Mtawanya,Msoro,Msoro,MSO
hamlet,Other,Outro,Nyingine,Tanzania,Pwani,Kibiti DC,Mtawanya,Msoro,Other,NA
hamlet,Mulandecha,Mulandecha,Mulandecha,Tanzania,Pwani,Kibiti DC,Mtawanya,Mulandecha,Mulandecha,MUE
hamlet,Other,Outro,Nyingine,Tanzania,Pwani,Kibiti DC,Mtawanya,Mulandecha,Other,NA
hamlet,Roja,Roja,Roja,Tanzania,Pwani,Kibiti DC,Mtawanya,Roja,Roja,ROJ
hamlet,Other,Outro,Nyingine,Tanzania,Pwani,Kibiti DC,Mtawanya,Roja,Other,NA
hamlet,Ugezi,Ugezi,Ugezi,Tanzania,Pwani,Kibiti DC,Mtawanya,Ugezi,Ugezi,UGE
hamlet,Other,Outro,Nyingine,Tanzania,Pwani,Kibiti DC,Mtawanya,Ugezi,Other,NA
hamlet,Umatumbi,Umatumbi,Umatumbi,Tanzania,Pwani,Kibiti DC,Mtawanya,Umatumbi,Umatumbi,MBT
hamlet,Other,Outro,Nyingine,Tanzania,Pwani,Kibiti DC,Mtawanya,Umatumbi,Other,NA
hamlet,Umikendo,Umikendo,Umikendo,Tanzania,Pwani,Kibiti DC,Mtawanya,Umikendo,Umikendo,UMI
hamlet,Other,Outro,Nyingine,Tanzania,Pwani,Kibiti DC,Mtawanya,Umikendo,Other,NA
hamlet,Unyamlani,Unyamlani,Unyamlani,Tanzania,Pwani,Kibiti DC,Mtawanya,Unyamlani,Unyamlani,UNY
hamlet,Other,Outro,Nyingine,Tanzania,Pwani,Kibiti DC,Mtawanya,Unyamlani,Other,NA
hamlet,Upazi,Upazi,Upazi,Tanzania,Pwani,Kibiti DC,Mtawanya,Upazi,Upazi,UPA
hamlet,Other,Outro,Nyingine,Tanzania,Pwani,Kibiti DC,Mtawanya,Upazi,Other,NA
hamlet,Uzomboko,Uzomboko,Uzomboko,Tanzania,Pwani,Kibiti DC,Mtawanya,Uzomboko,Uzomboko,ZOM
hamlet,Other,Outro,Nyingine,Tanzania,Pwani,Kibiti DC,Mtawanya,Uzomboko,Other,NA
hamlet,Other,Outro,Nyingine,Tanzania,Pwani,Kibiti DC,Mtawanya,Other,Other,NA
hamlet,Kikale Mjini,Kikale Mjini,Kikale Mjini,Tanzania,Pwani,Kibiti DC,Mtunda,Kikale,Kikale Mjini,KLA
hamlet,Makoge,Makoge,Makoge,Tanzania,Pwani,Kibiti DC,Mtunda,Kikale,Makoge,MEG
hamlet,Mtandu,Mtandu,Mtandu,Tanzania,Pwani,Kibiti DC,Mtunda,Kikale,Mtandu,KLN
hamlet,Other,Outro,Nyingine,Tanzania,Pwani,Kibiti DC,Mtunda,Kikale,Other,NA
hamlet,Mbongola,Mbongola,Mbongola,Tanzania,Pwani,Kibiti DC,Mtunda,Mtunda A,Mbongola,MBG
hamlet,Mbumi,Mbumi,Mbumi,Tanzania,Pwani,Kibiti DC,Mtunda,Mtunda A,Mbumi,MBB
hamlet,Mikunguni,Mikunguni,Mikunguni,Tanzania,Pwani,Kibiti DC,Mtunda,Mtunda A,Mikunguni,MIU
hamlet,Mtunda A,Mtunda A,Mtunda A,Tanzania,Pwani,Kibiti DC,Mtunda,Mtunda A,Mtunda A,MTN
hamlet,Ngualo,Ngualo,Ngualo,Tanzania,Pwani,Kibiti DC,Mtunda,Mtunda A,Ngualo,NGR
hamlet,Other,Outro,Nyingine,Tanzania,Pwani,Kibiti DC,Mtunda,Mtunda A,Other,NA
hamlet,Beta,Beta,Beta,Tanzania,Pwani,Kibiti DC,Mtunda,Mtunda B,Beta,BET
hamlet,Mchikichini,Mchikichini,Mchikichini,Tanzania,Pwani,Kibiti DC,Mtunda,Mtunda B,Mchikichini,MCH
hamlet,Mtunda B,Mtunda B,Mtunda B,Tanzania,Pwani,Kibiti DC,Mtunda,Mtunda B,Mtunda B,MTD
hamlet,Nganyanga,Nganyanga,Nganyanga,Tanzania,Pwani,Kibiti DC,Mtunda,Mtunda B,Nganyanga,NGY
hamlet,Nyafeda,Nyafeda,Nyafeda,Tanzania,Pwani,Kibiti DC,Mtunda,Mtunda B,Nyafeda,NYF
hamlet,Other,Outro,Nyingine,Tanzania,Pwani,Kibiti DC,Mtunda,Mtunda B,Other,NA
hamlet,Magomeni,Magomeni,Magomeni,Tanzania,Pwani,Kibiti DC,Mtunda,Muyuyu,Magomeni,MGM
hamlet,Misuguli,Misuguli,Misuguli,Tanzania,Pwani,Kibiti DC,Mtunda,Muyuyu,Misuguli,MMS
hamlet,Mkata,Mkata,Mkata,Tanzania,Pwani,Kibiti DC,Mtunda,Muyuyu,Mkata,MKT
hamlet,Muyuyu mjini,Muyuyu mjini,Muyuyu mjini,Tanzania,Pwani,Kibiti DC,Mtunda,Muyuyu,Muyuyu mjini,MUY
hamlet,Njianne,Njianne,Njianne,Tanzania,Pwani,Kibiti DC,Mtunda,Muyuyu,Njianne,NJI
hamlet,Nyambele,Nyambele,Nyambele,Tanzania,Pwani,Kibiti DC,Mtunda,Muyuyu,Nyambele,NBM
hamlet,Sonywe,Sonywe,Sonywe,Tanzania,Pwani,Kibiti DC,Mtunda,Muyuyu,Sonywe,SOY
hamlet,Other,Outro,Nyingine,Tanzania,Pwani,Kibiti DC,Mtunda,Muyuyu,Other,NA
hamlet,Other,Outro,Nyingine,Tanzania,Pwani,Kibiti DC,Mtunda,Other,Other,NA
hamlet,Mkole,Mkole,Mkole,Tanzania,Pwani,Kibiti DC,Mwambao,Kigunguli,Mkole,MOE
hamlet,Mpafuni,Mpafuni,Mpafuni,Tanzania,Pwani,Kibiti DC,Mwambao,Kigunguli,Mpafuni,MPA
hamlet,Mselema,Mselema,Mselema,Tanzania,Pwani,Kibiti DC,Mwambao,Kigunguli,Mselema,MSL
hamlet,Other,Outro,Nyingine,Tanzania,Pwani,Kibiti DC,Mwambao,Kigunguli,Other,NA
hamlet,Kariakoo,Kariakoo,Kariakoo,Tanzania,Pwani,Kibiti DC,Mwambao,Kivinja A,Kariakoo,KAR
hamlet,Kisanjani,Kisanjani,Kisanjani,Tanzania,Pwani,Kibiti DC,Mwambao,Kivinja A,Kisanjani,KJN
hamlet,Masakwi,Masakwi,Masakwi,Tanzania,Pwani,Kibiti DC,Mwambao,Kivinja A,Masakwi,MAS
hamlet,Other,Outro,Nyingine,Tanzania,Pwani,Kibiti DC,Mwambao,Kivinja A,Other,NA
hamlet,Mfenesini,Mfenesini,Mfenesini,Tanzania,Pwani,Kibiti DC,Mwambao,Kivinja B,Mfenesini,MFE
hamlet,Mkegetoni,Mkegetoni,Mkegetoni,Tanzania,Pwani,Kibiti DC,Mwambao,Kivinja B,Mkegetoni,MKG
hamlet,Mweyubaruti,Mweyubaruti,Mweyubaruti,Tanzania,Pwani,Kibiti DC,Mwambao,Kivinja B,Mweyubaruti,MWY
hamlet,Other,Outro,Nyingine,Tanzania,Pwani,Kibiti DC,Mwambao,Kivinja B,Other,NA
hamlet,Mititimbo,Mititimbo,Mititimbo,Tanzania,Pwani,Kibiti DC,Mwambao,Mchungu,Mititimbo,MIT
hamlet,Mpekeso,Mpekeso,Mpekeso,Tanzania,Pwani,Kibiti DC,Mwambao,Mchungu,Mpekeso,MPE
hamlet,Other,Outro,Nyingine,Tanzania,Pwani,Kibiti DC,Mwambao,Mchungu,Other,NA
hamlet,Kikombe,Kikombe,Kikombe,Tanzania,Pwani,Kibiti DC,Mwambao,Mkenda,Kikombe,KBO
hamlet,Mkenda Mnazi,Mkenda Mnazi,Mkenda Mnazi,Tanzania,Pwani,Kibiti DC,Mwambao,Mkenda,Mkenda Mnazi,MKD
hamlet,Ngungule,Ngungule,Ngungule,Tanzania,Pwani,Kibiti DC,Mwambao,Mkenda,Ngungule,NGG
hamlet,Other,Outro,Nyingine,Tanzania,Pwani,Kibiti DC,Mwambao,Mkenda,Other,NA
hamlet,Genju,Genju,Genju,Tanzania,Pwani,Kibiti DC,Mwambao,Msindaji,Genju,GEN
hamlet,Madukani,Madukani,Madukani,Tanzania,Pwani,Kibiti DC,Mwambao,Msindaji,Madukani,MAD
hamlet,Other,Outro,Nyingine,Tanzania,Pwani,Kibiti DC,Mwambao,Msindaji,Other,NA
hamlet,Other,Outro,Nyingine,Tanzania,Pwani,Kibiti DC,Mwambao,Other,Other,NA
hamlet,Kilulatambwe Kati,Kilulatambwe Kati,Kilulatambwe Kati,Tanzania,Pwani,Kibiti DC,Ruaruke,Kilulatambwe,Kilulatambwe Kati,KTI
hamlet,Mbusi,Mbusi,Mbusi,Tanzania,Pwani,Kibiti DC,Ruaruke,Kilulatambwe,Mbusi,MBS
hamlet,Milonzi,Milonzi,Milonzi,Tanzania,Pwani,Kibiti DC,Ruaruke,Kilulatambwe,Milonzi,MGL
hamlet,Other,Outro,Nyingine,Tanzania,Pwani,Kibiti DC,Ruaruke,Kilulatambwe,Other,NA
hamlet,Mkopi,Mkopi,Mkopi,Tanzania,Pwani,Kibiti DC,Ruaruke,Nyamatanga,Mkopi,MOI
hamlet,Mtomboloka,Mtomboloka,Mtomboloka,Tanzania,Pwani,Kibiti DC,Ruaruke,Nyamatanga,Mtomboloka,MTO
hamlet,Nyamatanga,Nyamatanga,Nyamatanga,Tanzania,Pwani,Kibiti DC,Ruaruke,Nyamatanga,Nyamatanga,NMG
hamlet,Other,Outro,Nyingine,Tanzania,Pwani,Kibiti DC,Ruaruke,Nyamatanga,Other,NA
hamlet,Kindande,Kindande,Kindande,Tanzania,Pwani,Kibiti DC,Ruaruke,Ruaruke A,Kindande,KAD
hamlet,Kiwaga,Kiwaga,Kiwaga,Tanzania,Pwani,Kibiti DC,Ruaruke,Ruaruke A,Kiwaga,KIW
hamlet,Mwenge,Mwenge,Mwenge,Tanzania,Pwani,Kibiti DC,Ruaruke,Ruaruke A,Mwenge,MWN
hamlet,Nyambalapi,Nyambalapi,Nyambalapi,Tanzania,Pwani,Kibiti DC,Ruaruke,Ruaruke A,Nyambalapi,NYP
hamlet,Other,Outro,Nyingine,Tanzania,Pwani,Kibiti DC,Ruaruke,Ruaruke A,Other,NA
hamlet,Kimbwere famiti,Kimbwere famiti,Kimbwere famiti,Tanzania,Pwani,Kibiti DC,Ruaruke,Ruaruke B,Kimbwere famiti,KIF
hamlet,Mbawa,Mbawa,Mbawa,Tanzania,Pwani,Kibiti DC,Ruaruke,Ruaruke B,Mbawa,MWB
hamlet,Mfule Mkumbini,Mfule Mkumbini,Mfule Mkumbini,Tanzania,Pwani,Kibiti DC,Ruaruke,Ruaruke B,Mfule Mkumbini,MFU
hamlet,Mgerezini,Mgerezini,Mgerezini,Tanzania,Pwani,Kibiti DC,Ruaruke,Ruaruke B,Mgerezini,MGE
hamlet,Nyanindi - Makoge,Nyanindi - Makoge,Nyanindi - Makoge,Tanzania,Pwani,Kibiti DC,Ruaruke,Ruaruke B,Nyanindi - Makoge,NEK
hamlet,Sangweni Matosa,Sangweni Matosa,Sangweni Matosa,Tanzania,Pwani,Kibiti DC,Ruaruke,Ruaruke B,Sangweni Matosa,SAW
hamlet,Other,Outro,Nyingine,Tanzania,Pwani,Kibiti DC,Ruaruke,Ruaruke B,Other,NA
hamlet,Garibovu,Garibovu,Garibovu,Tanzania,Pwani,Kibiti DC,Ruaruke,Rungungu,Garibovu,GAR
hamlet,Miwaleni,Miwaleni,Miwaleni,Tanzania,Pwani,Kibiti DC,Ruaruke,Rungungu,Miwaleni,MIW
hamlet,Mkwende,Mkwende,Mkwende,Tanzania,Pwani,Kibiti DC,Ruaruke,Rungungu,Mkwende,MWK
hamlet,Mungutwa,Mungutwa,Mungutwa,Tanzania,Pwani,Kibiti DC,Ruaruke,Rungungu,Mungutwa,MUN
hamlet,Rungungu,Rungungu,Rungungu,Tanzania,Pwani,Kibiti DC,Ruaruke,Rungungu,Rungungu,RUN
hamlet,Other,Outro,Nyingine,Tanzania,Pwani,Kibiti DC,Ruaruke,Rungungu,Other,NA
hamlet,Other,Outro,Nyingine,Tanzania,Pwani,Kibiti DC,Ruaruke,Other,Other,NA
hamlet,Pwani,Pwani,Pwani,Tanzania,Pwani,Kibiti DC,Salale,Kiomboni,Pwani,KIO
hamlet,Twana,Twana,Twana,Tanzania,Pwani,Kibiti DC,Salale,Kiomboni,Twana,TWA
hamlet,Urongoni,Urongoni,Urongoni,Tanzania,Pwani,Kibiti DC,Salale,Kiomboni,Urongoni,URO
hamlet,Other,Outro,Nyingine,Tanzania,Pwani,Kibiti DC,Salale,Kiomboni,Other,NA
hamlet,Kilwani,Kilwani,Kilwani,Tanzania,Pwani,Kibiti DC,Salale,Mchinga,Kilwani,KLI
hamlet,Mchinga,Mchinga,Mchinga,Tanzania,Pwani,Kibiti DC,Salale,Mchinga,Mchinga,MCI
hamlet,Salale,Salale,Salale,Tanzania,Pwani,Kibiti DC,Salale,Mchinga,Salale,SAL
hamlet,Saninga,Saninga,Saninga,Tanzania,Pwani,Kibiti DC,Salale,Mchinga,Saninga,SAI
hamlet,Simba Ulanga,Simba Ulanga,Simba Ulanga,Tanzania,Pwani,Kibiti DC,Salale,Mchinga,Simba Ulanga,SIB
hamlet,Other,Outro,Nyingine,Tanzania,Pwani,Kibiti DC,Salale,Mchinga,Other,NA
hamlet,Mfisini A,Mfisini A,Mfisini A,Tanzania,Pwani,Kibiti DC,Salale,Mfisini,Mfisini A,MFI
hamlet,Mfisini B,Mfisini B,Mfisini B,Tanzania,Pwani,Kibiti DC,Salale,Mfisini,Mfisini B,MFS
hamlet,Mfisini kati,Mfisini kati,Mfisini kati,Tanzania,Pwani,Kibiti DC,Salale,Mfisini,Mfisini kati,MFN
hamlet,Other,Outro,Nyingine,Tanzania,Pwani,Kibiti DC,Salale,Mfisini,Other,NA
hamlet,Kihingi Pwani,Kihingi Pwani,Kihingi Pwani,Tanzania,Pwani,Kibiti DC,Salale,Nyamisati,Kihingi Pwani,KKP
hamlet,Kihingi Shule,Kihingi Shule,Kihingi Shule,Tanzania,Pwani,Kibiti DC,Salale,Nyamisati,Kihingi Shule,KIH
hamlet,Mjengea,Mjengea,Mjengea,Tanzania,Pwani,Kibiti DC,Salale,Nyamisati,Mjengea,MJE
hamlet,Other,Outro,Nyingine,Tanzania,Pwani,Kibiti DC,Salale,Nyamisati,Other,NA
hamlet,Other,Outro,Nyingine,Tanzania,Pwani,Kibiti DC,Salale,Other,Other,NA
hamlet,Golani,Golani,Golani,Tanzania,Pwani,Rufiji DC,Chemchem,Golani,Golani,GOA
hamlet,Other,Outro,Nyingine,Tanzania,Pwani,Rufiji DC,Chemchem,Golani,Other,NA
hamlet,Kindwiti/Kidwitwi,Kindwiti/Kidwitwi,Kindwiti/Kidwitwi,Tanzania,Pwani,Rufiji DC,Chemchem,Kindwiti/Kidwitwi,Kindwiti/Kidwitwi,KWI
hamlet,Other,Outro,Nyingine,Tanzania,Pwani,Rufiji DC,Chemchem,Kindwiti/Kidwitwi,Other,NA
hamlet,Kipei,Kipei,Kipei,Tanzania,Pwani,Rufiji DC,Chemchem,Kipei,Kipei,KEI
hamlet,Other,Outro,Nyingine,Tanzania,Pwani,Rufiji DC,Chemchem,Kipei,Other,NA
hamlet,Nyandakatundu,Nyandakatundu,Nyandakatundu,Tanzania,Pwani,Rufiji DC,Chemchem,Nyandakatundu,Nyandakatundu,NTY
hamlet,Other,Outro,Nyingine,Tanzania,Pwani,Rufiji DC,Chemchem,Nyandakatundu,Other,NA
hamlet,Nyandumbi,Nyandumbi,Nyandumbi,Tanzania,Pwani,Rufiji DC,Chemchem,Nyandumbi,Nyandumbi,NUD
hamlet,Other,Outro,Nyingine,Tanzania,Pwani,Rufiji DC,Chemchem,Nyandumbi,Other,NA
hamlet,Nyangwai,Nyangwai,Nyangwai,Tanzania,Pwani,Rufiji DC,Chemchem,Nyangwai,Nyangwai,NIY
hamlet,Other,Outro,Nyingine,Tanzania,Pwani,Rufiji DC,Chemchem,Nyangwai,Other,NA
hamlet,Nyawanje/ngwembele,Nyawanje/ngwembele,Nyawanje/ngwembele,Tanzania,Pwani,Rufiji DC,Chemchem,Nyawanje/Ngwembele,Nyawanje/ngwembele,NNB
hamlet,Other,Outro,Nyingine,Tanzania,Pwani,Rufiji DC,Chemchem,Nyawanje/Ngwembele,Other,NA
hamlet,Other,Outro,Nyingine,Tanzania,Pwani,Rufiji DC,Chemchem,Other,Other,NA
hamlet,Ipengo,Ipengo,Ipengo,Tanzania,Pwani,Rufiji DC,Chumbi,Chumbi A,Ipengo,IPE
hamlet,Kiegele,Kiegele,Kiegele,Tanzania,Pwani,Rufiji DC,Chumbi,Chumbi A,Kiegele,KIE
hamlet,Kigogo,Kigogo,Kigogo,Tanzania,Pwani,Rufiji DC,Chumbi,Chumbi A,Kigogo,KGO
hamlet,Tangini,Tangini,Tangini,Tanzania,Pwani,Rufiji DC,Chumbi,Chumbi A,Tangini,TAN
hamlet,Other,Outro,Nyingine,Tanzania,Pwani,Rufiji DC,Chumbi,Chumbi A,Other,NA
hamlet,Boto,Boto,Boto,Tanzania,Pwani,Rufiji DC,Chumbi,Chumbi B,Boto,BOT
hamlet,Kilindi,Kilindi,Kilindi,Tanzania,Pwani,Rufiji DC,Chumbi,Chumbi B,Kilindi,KKN
hamlet,Kipoka,Kipoka,Kipoka,Tanzania,Pwani,Rufiji DC,Chumbi,Chumbi B,Kipoka,KKO
hamlet,Kipoka msomeni,Kipoka msomeni,Kipoka msomeni,Tanzania,Pwani,Rufiji DC,Chumbi,Chumbi B,Kipoka msomeni,KSP
hamlet,Msikitini,Msikitini,Msikitini,Tanzania,Pwani,Rufiji DC,Chumbi,Chumbi B,Msikitini,MST
hamlet,Other,Outro,Nyingine,Tanzania,Pwani,Rufiji DC,Chumbi,Chumbi B,Other,NA
hamlet,Chumbi Magharibi,Chumbi Magharibi,Chumbi Magharibi,Tanzania,Pwani,Rufiji DC,Chumbi,Chumbi C,Chumbi Magharibi,CHG
hamlet,Kanga,Kanga,Kanga,Tanzania,Pwani,Rufiji DC,Chumbi,Chumbi C,Kanga,KAN
hamlet,Ngaro,Ngaro,Ngaro,Tanzania,Pwani,Rufiji DC,Chumbi,Chumbi C,Ngaro,NLG
hamlet,Nyakipande,Nyakipande,Nyakipande,Tanzania,Pwani,Rufiji DC,Chumbi,Chumbi C,Nyakipande,NDK
hamlet,Other,Outro,Nyingine,Tanzania,Pwani,Rufiji DC,Chumbi,Chumbi C,Other,NA
hamlet,Other,Outro,Nyingine,Tanzania,Pwani,Rufiji DC,Chumbi,Other,Other,NA
hamlet,Kaunda,Kaunda,Kaunda,Tanzania,Pwani,Rufiji DC,Ikwiriri,Ikwiriri Kaskazini,Kaunda,KAU
hamlet,Kazamoyo,Kazamoyo,Kazamoyo,Tanzania,Pwani,Rufiji DC,Ikwiriri,Ikwiriri Kaskazini,Kazamoyo,KAZ
hamlet,Mparange,Mparange,Mparange,Tanzania,Pwani,Rufiji DC,Ikwiriri,Ikwiriri Kaskazini,Mparange,MPR
hamlet,Mtakuja,Mtakuja,Mtakuja,Tanzania,Pwani,Rufiji DC,Ikwiriri,Ikwiriri Kaskazini,Mtakuja,MTK
hamlet,Mwenge,Mwenge,Mwenge,Tanzania,Pwani,Rufiji DC,Ikwiriri,Ikwiriri Kaskazini,Mwenge,MWG
hamlet,Ujamaa,Ujamaa,Ujamaa,Tanzania,Pwani,Rufiji DC,Ikwiriri,Ikwiriri Kaskazini,Ujamaa,UJM
hamlet,Other,Outro,Nyingine,Tanzania,Pwani,Rufiji DC,Ikwiriri,Ikwiriri Kaskazini,Other,NA
hamlet,Msikitini,Msikitini,Msikitini,Tanzania,Pwani,Rufiji DC,Ikwiriri,Ikwiriri Kati,Msikitini,MSN
hamlet,Mwenge,Mwenge,Mwenge,Tanzania,Pwani,Rufiji DC,Ikwiriri,Ikwiriri Kati,Mwenge,MWW
hamlet,SIDO,SIDO,SIDO,Tanzania,Pwani,Rufiji DC,Ikwiriri,Ikwiriri Kati,SIDO,SID
hamlet,Sisi kwa Sisi,Sisi kwa Sisi,Sisi kwa Sisi,Tanzania,Pwani,Rufiji DC,Ikwiriri,Ikwiriri Kati,Sisi kwa Sisi,SIS
hamlet,Tangimoja,Tangimoja,Tangimoja,Tanzania,Pwani,Rufiji DC,Ikwiriri,Ikwiriri Kati,Tangimoja,TAG
hamlet,Ujirani Mwema,Ujirani Mwema,Ujirani Mwema,Tanzania,Pwani,Rufiji DC,Ikwiriri,Ikwiriri Kati,Ujirani Mwema,UJI
hamlet,Umoja,Umoja,Umoja,Tanzania,Pwani,Rufiji DC,Ikwiriri,Ikwiriri Kati,Umoja,UMO
hamlet,Upendo,Upendo,Upendo,Tanzania,Pwani,Rufiji DC,Ikwiriri,Ikwiriri Kati,Upendo,UPE
hamlet,Other,Outro,Nyingine,Tanzania,Pwani,Rufiji DC,Ikwiriri,Ikwiriri Kati,Other,NA
hamlet,Karume,Karume,Karume,Tanzania,Pwani,Rufiji DC,Ikwiriri,Ikwiriri Kusini,Karume,KAM
hamlet,Kawawa,Kawawa,Kawawa,Tanzania,Pwani,Rufiji DC,Ikwiriri,Ikwiriri Kusini,Kawawa,KAW
hamlet,Malemba,Malemba,Malemba,Tanzania,Pwani,Rufiji DC,Ikwiriri,Ikwiriri Kusini,Malemba,MLM
hamlet,Mpima,Mpima,Mpima,Tanzania,Pwani,Rufiji DC,Ikwiriri,Ikwiriri Kusini,Mpima,MPM
hamlet,Muungano,Muungano,Muungano,Tanzania,Pwani,Rufiji DC,Ikwiriri,Ikwiriri Kusini,Muungano,MOU
hamlet,Nyerere,Nyerere,Nyerere,Tanzania,Pwani,Rufiji DC,Ikwiriri,Ikwiriri Kusini,Nyerere,NYR
hamlet,P/Kisumo,P/Kisumo,P/Kisumo,Tanzania,Pwani,Rufiji DC,Ikwiriri,Ikwiriri Kusini,P/Kisumo,PKI
hamlet,Posta,Posta,Posta,Tanzania,Pwani,Rufiji DC,Ikwiriri,Ikwiriri Kusini,Posta,POT
hamlet,Tangimbili Kusini,Tangimbili Kusini,Tangimbili Kusini,Tanzania,Pwani,Rufiji DC,Ikwiriri,Ikwiriri Kusini,Tangimbili Kusini,TAB
hamlet,Uhuru,Uhuru,Uhuru,Tanzania,Pwani,Rufiji DC,Ikwiriri,Ikwiriri Kusini,Uhuru,UHU
hamlet,Ujamaa,Ujamaa,Ujamaa,Tanzania,Pwani,Rufiji DC,Ikwiriri,Ikwiriri Kusini,Ujamaa,UJJ
hamlet,Other,Outro,Nyingine,Tanzania,Pwani,Rufiji DC,Ikwiriri,Ikwiriri Kusini,Other,NA
hamlet,Other,Outro,Nyingine,Tanzania,Pwani,Rufiji DC,Ikwiriri,Other,Other,NA
hamlet,Mawilo,Mawilo,Mawilo,Tanzania,Pwani,Rufiji DC,Kipugira,Kipo,Mawilo,MOL
hamlet,Mgohori,Mgohori,Mgohori,Tanzania,Pwani,Rufiji DC,Kipugira,Kipo,Mgohori,MGO
hamlet,Mpande,Mpande,Mpande,Tanzania,Pwani,Rufiji DC,Kipugira,Kipo,Mpande,MPN
hamlet,Other,Outro,Nyingine,Tanzania,Pwani,Rufiji DC,Kipugira,Kipo,Other,NA
hamlet,Kipugira,Kipugira,Kipugira,Tanzania,Pwani,Rufiji DC,Kipugira,Kipugira,Kipugira,KUK
hamlet,Pangapanga,Pangapanga,Pangapanga,Tanzania,Pwani,Rufiji DC,Kipugira,Kipugira,Pangapanga,PAG
hamlet,Other,Outro,Nyingine,Tanzania,Pwani,Rufiji DC,Kipugira,Kipugira,Other,NA
hamlet,Nyikanza,Nyikanza,Nyikanza,Tanzania,Pwani,Rufiji DC,Kipugira,Ndundunyikanza,Nyikanza,NYI
hamlet,Tetema,Tetema,Tetema,Tanzania,Pwani,Rufiji DC,Kipugira,Ndundunyikanza,Tetema,TET
hamlet,Other,Outro,Nyingine,Tanzania,Pwani,Rufiji DC,Kipugira,Ndundunyikanza,Other,NA
hamlet,Mtalula,Mtalula,Mtalula,Tanzania,Pwani,Rufiji DC,Kipugira,Nyaminywili,Mtalula,MTT
hamlet,Nyaminywili,Nyaminywili,Nyaminywili,Tanzania,Pwani,Rufiji DC,Kipugira,Nyaminywili,Nyaminywili,NAY
hamlet,Other,Outro,Nyingine,Tanzania,Pwani,Rufiji DC,Kipugira,Nyaminywili,Other,NA
hamlet,Other,Outro,Nyingine,Tanzania,Pwani,Rufiji DC,Kipugira,Other,Other,NA
hamlet,Kitapi Magharibi,Kitapi Magharibi,Kitapi Magharibi,Tanzania,Pwani,Rufiji DC,Mbwara,Kitapi,Kitapi Magharibi,KTA
hamlet,Kitapi Mashariki,Kitapi Mashariki,Kitapi Mashariki,Tanzania,Pwani,Rufiji DC,Mbwara,Kitapi,Kitapi Mashariki,KTH
hamlet,Namahamba,Namahamba,Namahamba,Tanzania,Pwani,Rufiji DC,Mbwara,Kitapi,Namahamba,NAH
hamlet,Other,Outro,Nyingine,Tanzania,Pwani,Rufiji DC,Mbwara,Kitapi,Other,NA
hamlet,Mbwara magharibi,Mbwara magharibi,Mbwara magharibi,Tanzania,Pwani,Rufiji DC,Mbwara,Mbwara,Mbwara magharibi,MBW
hamlet,Mbwara Mashariki,Mbwara Mashariki,Mbwara Mashariki,Tanzania,Pwani,Rufiji DC,Mbwara,Mbwara,Mbwara Mashariki,MBR
hamlet,Misimbo,Misimbo,Misimbo,Tanzania,Pwani,Rufiji DC,Mbwara,Mbwara,Misimbo,MMI
hamlet,Other,Outro,Nyingine,Tanzania,Pwani,Rufiji DC,Mbwara,Mbwara,Other,NA
hamlet,Kikibu,Kikibu,Kikibu,Tanzania,Pwani,Rufiji DC,Mbwara,Nambunju,Kikibu,KBU
hamlet,Miangalaya,Miangalaya,Miangalaya,Tanzania,Pwani,Rufiji DC,Mbwara,Nambunju,Miangalaya,MIA
hamlet,Namakono,Namakono,Namakono,Tanzania,Pwani,Rufiji DC,Mbwara,Nambunju,Namakono,NAK
hamlet,Nambunju Magharibi,Nambunju Magharibi,Nambunju Magharibi,Tanzania,Pwani,Rufiji DC,Mbwara,Nambunju,Nambunju Magharibi,NAB
hamlet,Nambunju mashariki,Nambunju mashariki,Nambunju mashariki,Tanzania,Pwani,Rufiji DC,Mbwara,Nambunju,Nambunju mashariki,NAU
hamlet,Other,Outro,Nyingine,Tanzania,Pwani,Rufiji DC,Mbwara,Nambunju,Other,NA
hamlet,Nyamwage Magharibi,Nyamwage Magharibi,Nyamwage Magharibi,Tanzania,Pwani,Rufiji DC,Mbwara,Nyamwage,Nyamwage Magharibi,NNR
hamlet,Nyamwage Mashariki,Nyamwage Mashariki,Nyamwage Mashariki,Tanzania,Pwani,Rufiji DC,Mbwara,Nyamwage,Nyamwage Mashariki,NYS
hamlet,Shauri moyo,Shauri moyo,Shauri moyo,Tanzania,Pwani,Rufiji DC,Mbwara,Nyamwage,Shauri moyo,SHA
hamlet,Other,Outro,Nyingine,Tanzania,Pwani,Rufiji DC,Mbwara,Nyamwage,Other,NA
hamlet,Gege,Gege,Gege,Tanzania,Pwani,Rufiji DC,Mbwara,Tawi,Gege,GEG
hamlet,Kikobo,Kikobo,Kikobo,Tanzania,Pwani,Rufiji DC,Mbwara,Tawi,Kikobo,KOB
hamlet,Mkukiki,Mkukiki,Mkukiki,Tanzania,Pwani,Rufiji DC,Mbwara,Tawi,Mkukiki,MMK
hamlet,Mkwiri,Mkwiri,Mkwiri,Tanzania,Pwani,Rufiji DC,Mbwara,Tawi,Mkwiri,MMW
hamlet,Other,Outro,Nyingine,Tanzania,Pwani,Rufiji DC,Mbwara,Tawi,Other,NA
hamlet,Other,Outro,Nyingine,Tanzania,Pwani,Rufiji DC,Mbwara,Other,Other,NA
hamlet,Jitegemee,Jitegemee,Jitegemee,Tanzania,Pwani,Rufiji DC,Mgomba,Mgomba Kaskazini,Jitegemee,JIT
hamlet,Mpima,Mpima,Mpima,Tanzania,Pwani,Rufiji DC,Mgomba,Mgomba Kaskazini,Mpima,MPP
hamlet,Sekondari,Sekondari,Sekondari,Tanzania,Pwani,Rufiji DC,Mgomba,Mgomba Kaskazini,Sekondari,SEK
hamlet,Ujamaa,Ujamaa,Ujamaa,Tanzania,Pwani,Rufiji DC,Mgomba,Mgomba Kaskazini,Ujamaa,UJU
hamlet,Other,Outro,Nyingine,Tanzania,Pwani,Rufiji DC,Mgomba,Mgomba Kaskazini,Other,NA
hamlet,Kiapo,Kiapo,Kiapo,Tanzania,Pwani,Rufiji DC,Mgomba,Mgomba Kati,Kiapo,KIA
hamlet,Malenda,Malenda,Malenda,Tanzania,Pwani,Rufiji DC,Mgomba,Mgomba Kati,Malenda,MNM
hamlet,Masenda,Masenda,Masenda,Tanzania,Pwani,Rufiji DC,Mgomba,Mgomba Kati,Masenda,MDE
hamlet,Mtupa,Mtupa,Mtupa,Tanzania,Pwani,Rufiji DC,Mgomba,Mgomba Kati,Mtupa,MTP
hamlet,Other,Outro,Nyingine,Tanzania,Pwani,Rufiji DC,Mgomba,Mgomba Kati,Other,NA
hamlet,Kijonjo,Kijonjo,Kijonjo,Tanzania,Pwani,Rufiji DC,Mgomba,Mgomba Kusini,Kijonjo,KIJ
hamlet,Kingwande,Kingwande,Kingwande,Tanzania,Pwani,Rufiji DC,Mgomba,Mgomba Kusini,Kingwande,KWN
hamlet,Malipia,Malipia,Malipia,Tanzania,Pwani,Rufiji DC,Mgomba,Mgomba Kusini,Malipia,MLP
hamlet,Nongwa,Nongwa,Nongwa,Tanzania,Pwani,Rufiji DC,Mgomba,Mgomba Kusini,Nongwa,NON
hamlet,Other,Outro,Nyingine,Tanzania,Pwani,Rufiji DC,Mgomba,Mgomba Kusini,Other,NA
hamlet,Other,Outro,Nyingine,Tanzania,Pwani,Rufiji DC,Mgomba,Other,Other,NA
hamlet,Mbunju,Mbunju,Mbunju,Tanzania,Pwani,Rufiji DC,Mkongo,Mbunju Mvuleni,Mbunju,MBJ
hamlet,Mvuleni,Mvuleni,Mvuleni,Tanzania,Pwani,Rufiji DC,Mkongo,Mbunju Mvuleni,Mvuleni,MVU
hamlet,Other,Outro,Nyingine,Tanzania,Pwani,Rufiji DC,Mkongo,Mbunju Mvuleni,Other,NA
hamlet,Karakana,Karakana,Karakana,Tanzania,Pwani,Rufiji DC,Mkongo,Mkongo Kaskazini,Karakana,KAA
hamlet,Nyipara,Nyipara,Nyipara,Tanzania,Pwani,Rufiji DC,Mkongo,Mkongo Kaskazini,Nyipara,NRN
hamlet,Rusende,Rusende,Rusende,Tanzania,Pwani,Rufiji DC,Mkongo,Mkongo Kaskazini,Rusende,RUS
hamlet,Other,Outro,Nyingine,Tanzania,Pwani,Rufiji DC,Mkongo,Mkongo Kaskazini,Other,NA
hamlet,Kitundu,Kitundu,Kitundu,Tanzania,Pwani,Rufiji DC,Mkongo,Mkongo Kusini,Kitundu,KTK
hamlet,Kiwili,Kiwili,Kiwili,Tanzania,Pwani,Rufiji DC,Mkongo,Mkongo Kusini,Kiwili,KLK
hamlet,Makonge,Makonge,Makonge,Tanzania,Pwani,Rufiji DC,Mkongo,Mkongo Kusini,Makonge,MME
hamlet,Mkunga,Mkunga,Mkunga,Tanzania,Pwani,Rufiji DC,Mkongo,Mkongo Kusini,Mkunga,MGN
hamlet,Other,Outro,Nyingine,Tanzania,Pwani,Rufiji DC,Mkongo,Mkongo Kusini,Other,NA
hamlet,Beta,Beta,Beta,Tanzania,Pwani,Rufiji DC,Mkongo,Ruwe,Beta,BEA
hamlet,Kipera,Kipera,Kipera,Tanzania,Pwani,Rufiji DC,Mkongo,Ruwe,Kipera,KRE
hamlet,Nyaringwe,Nyaringwe,Nyaringwe,Tanzania,Pwani,Rufiji DC,Mkongo,Ruwe,Nyaringwe,NWE
hamlet,Other,Outro,Nyingine,Tanzania,Pwani,Rufiji DC,Mkongo,Ruwe,Other,NA
hamlet,Other,Outro,Nyingine,Tanzania,Pwani,Rufiji DC,Mkongo,Other,Other,NA
hamlet,Chayonge,Chayonge,Chayonge,Tanzania,Pwani,Rufiji DC,Mohoro,King'ong'o,Chayonge,CHY
hamlet,King'ong'o,King'ong'o,King'ong'o,Tanzania,Pwani,Rufiji DC,Mohoro,King'ong'o,King'ong'o,KNK
hamlet,Kisangi,Kisangi,Kisangi,Tanzania,Pwani,Rufiji DC,Mohoro,King'ong'o,Kisangi,KNI
hamlet,Kwampakwila,Kwampakwila,Kwampakwila,Tanzania,Pwani,Rufiji DC,Mohoro,King'ong'o,Kwampakwila,KWA
hamlet,Mpilipili,Mpilipili,Mpilipili,Tanzania,Pwani,Rufiji DC,Mohoro,King'ong'o,Mpilipili,MPL
hamlet,Other,Outro,Nyingine,Tanzania,Pwani,Rufiji DC,Mohoro,King'ong'o,Other,NA
hamlet,Kiwanga,Kiwanga,Kiwanga,Tanzania,Pwani,Rufiji DC,Mohoro,Kiwanga,Kiwanga,KAG
hamlet,Londondo,Londondo,Londondo,Tanzania,Pwani,Rufiji DC,Mohoro,Kiwanga,Londondo,LON
hamlet,Mihiru,Mihiru,Mihiru,Tanzania,Pwani,Rufiji DC,Mohoro,Kiwanga,Mihiru,MIH
hamlet,Other,Outro,Nyingine,Tanzania,Pwani,Rufiji DC,Mohoro,Kiwanga,Other,NA
hamlet,Mwanani,Mwanani,Mwanani,Tanzania,Pwani,Rufiji DC,Mohoro,Mohoro Magharibi,Mwanani,MWA
hamlet,Nyakikai,Nyakikai,Nyakikai,Tanzania,Pwani,Rufiji DC,Mohoro,Mohoro Magharibi,Nyakikai,NKA
hamlet,Nyandote,Nyandote,Nyandote,Tanzania,Pwani,Rufiji DC,Mohoro,Mohoro Magharibi,Nyandote,NOD
hamlet,Oldmohoro,Oldmohoro,Oldmohoro,Tanzania,Pwani,Rufiji DC,Mohoro,Mohoro Magharibi,Oldmohoro,OLD
hamlet,Sunga Bara,Sunga Bara,Sunga Bara,Tanzania,Pwani,Rufiji DC,Mohoro,Mohoro Magharibi,Sunga Bara,SUG
hamlet,Sungapwani,Sungapwani,Sungapwani,Tanzania,Pwani,Rufiji DC,Mohoro,Mohoro Magharibi,Sungapwani,SUA
hamlet,Other,Outro,Nyingine,Tanzania,Pwani,Rufiji DC,Mohoro,Mohoro Magharibi,Other,NA
hamlet,Nyamidege/Chamwenge,Nyamidege/Chamwenge,Nyamidege/Chamwenge,Tanzania,Pwani,Rufiji DC,Mohoro,Mohoro Mashariki,Nyamidege/Chamwenge,NEI
hamlet,Nyampaku bara,Nyampaku bara,Nyampaku bara,Tanzania,Pwani,Rufiji DC,Mohoro,Mohoro Mashariki,Nyampaku bara,NBN
hamlet,Nyampaku mashariki,Nyampaku mashariki,Nyampaku mashariki,Tanzania,Pwani,Rufiji DC,Mohoro,Mohoro Mashariki,Nyampaku mashariki,NIK
hamlet,Nyampaku pwani,Nyampaku pwani,Nyampaku pwani,Tanzania,Pwani,Rufiji DC,Mohoro,Mohoro Mashariki,Nyampaku pwani,NIM
hamlet,Nyautika,Nyautika,Nyautika,Tanzania,Pwani,Rufiji DC,Mohoro,Mohoro Mashariki,Nyautika,NAT
hamlet,Other,Outro,Nyingine,Tanzania,Pwani,Rufiji DC,Mohoro,Mohoro Mashariki,Other,NA
hamlet,Makenzi,Makenzi,Makenzi,Tanzania,Pwani,Rufiji DC,Mohoro,Ndundutawa,Makenzi,MNE
hamlet,Msikitini,Msikitini,Msikitini,Tanzania,Pwani,Rufiji DC,Mohoro,Ndundutawa,Msikitini,MSM
hamlet,Ndundutawa,Ndundutawa,Ndundutawa,Tanzania,Pwani,Rufiji DC,Mohoro,Ndundutawa,Ndundutawa,NDU
hamlet,Nyalindi,Nyalindi,Nyalindi,Tanzania,Pwani,Rufiji DC,Mohoro,Ndundutawa,Nyalindi,NDA
hamlet,Other,Outro,Nyingine,Tanzania,Pwani,Rufiji DC,Mohoro,Ndundutawa,Other,NA
hamlet,Kindwitwi,Kindwitwi,Kindwitwi,Tanzania,Pwani,Rufiji DC,Mohoro,Shela,Kindwitwi,KKT
hamlet,Mikolwa,Mikolwa,Mikolwa,Tanzania,Pwani,Rufiji DC,Mohoro,Shela,Mikolwa,MOW
hamlet,Rangitatu,Rangitatu,Rangitatu,Tanzania,Pwani,Rufiji DC,Mohoro,Shela,Rangitatu,RAN
hamlet,Stendi,Stendi,Stendi,Tanzania,Pwani,Rufiji DC,Mohoro,Shela,Stendi,STE
hamlet,Other,Outro,Nyingine,Tanzania,Pwani,Rufiji DC,Mohoro,Shela,Other,NA
hamlet,Other,Outro,Nyingine,Tanzania,Pwani,Rufiji DC,Mohoro,Other,Other,NA
hamlet,Kwangwazi,Kwangwazi,Kwangwazi,Tanzania,Pwani,Rufiji DC,Mwaseni,Mloka,Kwangwazi,KWG
hamlet,Mkange,Mkange,Mkange,Tanzania,Pwani,Rufiji DC,Mwaseni,Mloka,Mkange,MNA
hamlet,Mpanganya,Mpanganya,Mpanganya,Tanzania,Pwani,Rufiji DC,Mwaseni,Mloka,Mpanganya,MPG
hamlet,Nyakisiku,Nyakisiku,Nyakisiku,Tanzania,Pwani,Rufiji DC,Mwaseni,Mloka,Nyakisiku,NKY
hamlet,Other,Outro,Nyingine,Tanzania,Pwani,Rufiji DC,Mwaseni,Mloka,Other,NA
hamlet,Bizi,Bizi,Bizi,Tanzania,Pwani,Rufiji DC,Mwaseni,Mtanza /Msona,Bizi,BIZ
hamlet,Msiga,Msiga,Msiga,Tanzania,Pwani,Rufiji DC,Mwaseni,Mtanza /Msona,Msiga,MSG
hamlet,Mtanza,Mtanza,Mtanza,Tanzania,Pwani,Rufiji DC,Mwaseni,Mtanza /Msona,Mtanza,MTZ
hamlet,Mturuma,Mturuma,Mturuma,Tanzania,Pwani,Rufiji DC,Mwaseni,Mtanza /Msona,Mturuma,MTR
hamlet,Other,Outro,Nyingine,Tanzania,Pwani,Rufiji DC,Mwaseni,Mtanza /Msona,Other,NA
hamlet,Mibuyusaba,Mibuyusaba,Mibuyusaba,Tanzania,Pwani,Rufiji DC,Mwaseni,Mwaseni,Mibuyusaba,MIY
hamlet,Mwaseni,Mwaseni,Mwaseni,Tanzania,Pwani,Rufiji DC,Mwaseni,Mwaseni,Mwaseni,MWS
hamlet,Zombe,Zombe,Zombe,Tanzania,Pwani,Rufiji DC,Mwaseni,Mwaseni,Zombe,ZOB
hamlet,Other,Outro,Nyingine,Tanzania,Pwani,Rufiji DC,Mwaseni,Mwaseni,Other,NA
hamlet,Other,Outro,Nyingine,Tanzania,Pwani,Rufiji DC,Mwaseni,Other,Other,NA
hamlet,Kungulwe,Kungulwe,Kungulwe,Tanzania,Pwani,Rufiji DC,Ngarambe,Kungulwe,Kungulwe,KUN
hamlet,Other,Outro,Nyingine,Tanzania,Pwani,Rufiji DC,Ngarambe,Kungulwe,Other,NA
hamlet,Namakono,Namakono,Namakono,Tanzania,Pwani,Rufiji DC,Ngarambe,Namakono,Namakono,NAO
hamlet,Other,Outro,Nyingine,Tanzania,Pwani,Rufiji DC,Ngarambe,Namakono,Other,NA
hamlet,Ngarambe Mashariki,Ngarambe Mashariki,Ngarambe Mashariki,Tanzania,Pwani,Rufiji DC,Ngarambe,Ngarambe Mashariki,Ngarambe Mashariki,NGB
hamlet,Other,Outro,Nyingine,Tanzania,Pwani,Rufiji DC,Ngarambe,Ngarambe Mashariki,Other,NA
hamlet,NgarambeMagharibi,NgarambeMagharibi,NgarambeMagharibi,Tanzania,Pwani,Rufiji DC,Ngarambe,Ngarambemagharibi,NgarambeMagharibi,NGE
hamlet,Other,Outro,Nyingine,Tanzania,Pwani,Rufiji DC,Ngarambe,Ngarambemagharibi,Other,NA
hamlet,Tapika,Tapika,Tapika,Tanzania,Pwani,Rufiji DC,Ngarambe,Tapika,Tapika,TAP
hamlet,Other,Outro,Nyingine,Tanzania,Pwani,Rufiji DC,Ngarambe,Tapika,Other,NA
hamlet,Other,Outro,Nyingine,Tanzania,Pwani,Rufiji DC,Ngarambe,Other,Other,NA
hamlet,Kilombero,Kilombero,Kilombero,Tanzania,Pwani,Rufiji DC,Ngorongo,Kilimani Magharibi,Kilombero,KLB
hamlet,Kisagai,Kisagai,Kisagai,Tanzania,Pwani,Rufiji DC,Ngorongo,Kilimani Magharibi,Kisagai,KSG
hamlet,Mbuyuni,Mbuyuni,Mbuyuni,Tanzania,Pwani,Rufiji DC,Ngorongo,Kilimani Magharibi,Mbuyuni,MBY
hamlet,Mpanganya,Mpanganya,Mpanganya,Tanzania,Pwani,Rufiji DC,Ngorongo,Kilimani Magharibi,Mpanganya,MPY
hamlet,Tangini,Tangini,Tangini,Tanzania,Pwani,Rufiji DC,Ngorongo,Kilimani Magharibi,Tangini,TAT
hamlet,Other,Outro,Nyingine,Tanzania,Pwani,Rufiji DC,Ngorongo,Kilimani Magharibi,Other,NA
hamlet,Gefu,Gefu,Gefu,Tanzania,Pwani,Rufiji DC,Ngorongo,Kilimani Mashariki,Gefu,GEU
hamlet,Ginnery,Ginnery,Ginnery,Tanzania,Pwani,Rufiji DC,Ngorongo,Kilimani Mashariki,Ginnery,GIE
hamlet,Mkongeni,Mkongeni,Mkongeni,Tanzania,Pwani,Rufiji DC,Ngorongo,Kilimani Mashariki,Mkongeni,MEN
hamlet,Mkunga,Mkunga,Mkunga,Tanzania,Pwani,Rufiji DC,Ngorongo,Kilimani Mashariki,Mkunga,MNK
hamlet,Unyonge,Unyonge,Unyonge,Tanzania,Pwani,Rufiji DC,Ngorongo,Kilimani Mashariki,Unyonge,UNO
hamlet,Other,Outro,Nyingine,Tanzania,Pwani,Rufiji DC,Ngorongo,Kilimani Mashariki,Other,NA
hamlet,Kikongono,Kikongono,Kikongono,Tanzania,Pwani,Rufiji DC,Ngorongo,Ngorongo Magharibi,Kikongono,KOG
hamlet,Nyasungwi,Nyasungwi,Nyasungwi,Tanzania,Pwani,Rufiji DC,Ngorongo,Ngorongo Magharibi,Nyasungwi,NNS
hamlet,Other,Outro,Nyingine,Tanzania,Pwani,Rufiji DC,Ngorongo,Ngorongo Magharibi,Other,NA
hamlet,Kipenda moyo,Kipenda moyo,Kipenda moyo,Tanzania,Pwani,Rufiji DC,Ngorongo,Ngorongo Mashariki,Kipenda moyo,KAK
hamlet,Nyarwiru,Nyarwiru,Nyarwiru,Tanzania,Pwani,Rufiji DC,Ngorongo,Ngorongo Mashariki,Nyarwiru,NRI
hamlet,Other,Outro,Nyingine,Tanzania,Pwani,Rufiji DC,Ngorongo,Ngorongo Mashariki,Other,NA
hamlet,Other,Outro,Nyingine,Tanzania,Pwani,Rufiji DC,Ngorongo,Other,Other,NA
hamlet,Kilwa road,Kilwa road,Kilwa road,Tanzania,Pwani,Rufiji DC,Umwe,Umwe Kaskazini,Kilwa road,KLD
hamlet,Mchikichini,Mchikichini,Mchikichini,Tanzania,Pwani,Rufiji DC,Umwe,Umwe Kaskazini,Mchikichini,MCK
hamlet,Mjimwema,Mjimwema,Mjimwema,Tanzania,Pwani,Rufiji DC,Umwe,Umwe Kaskazini,Mjimwema,MJM
hamlet,Mparange,Mparange,Mparange,Tanzania,Pwani,Rufiji DC,Umwe,Umwe Kaskazini,Mparange,MMR
hamlet,Msikitini,Msikitini,Msikitini,Tanzania,Pwani,Rufiji DC,Umwe,Umwe Kaskazini,Msikitini,MSS
hamlet,Viwandani,Viwandani,Viwandani,Tanzania,Pwani,Rufiji DC,Umwe,Umwe Kaskazini,Viwandani,VIW
hamlet,Other,Outro,Nyingine,Tanzania,Pwani,Rufiji DC,Umwe,Umwe Kaskazini,Other,NA
hamlet,Amani,Amani,Amani,Tanzania,Pwani,Rufiji DC,Umwe,Umwe Kati,Amani,AMA
hamlet,Azimio,Azimio,Azimio,Tanzania,Pwani,Rufiji DC,Umwe,Umwe Kati,Azimio,AZM
hamlet,Msikitini,Msikitini,Msikitini,Tanzania,Pwani,Rufiji DC,Umwe,Umwe Kati,Msikitini,MTS
hamlet,Siasa,Siasa,Siasa,Tanzania,Pwani,Rufiji DC,Umwe,Umwe Kati,Siasa,SIA
hamlet,Sokoni,Sokoni,Sokoni,Tanzania,Pwani,Rufiji DC,Umwe,Umwe Kati,Sokoni,SOI
hamlet,Ujamaa,Ujamaa,Ujamaa,Tanzania,Pwani,Rufiji DC,Umwe,Umwe Kati,Ujamaa,UMA
hamlet,Umoja,Umoja,Umoja,Tanzania,Pwani,Rufiji DC,Umwe,Umwe Kati,Umoja,UMJ
hamlet,Umwe,Umwe,Umwe,Tanzania,Pwani,Rufiji DC,Umwe,Umwe Kati,Umwe,UMW
hamlet,Other,Outro,Nyingine,Tanzania,Pwani,Rufiji DC,Umwe,Umwe Kati,Other,NA
hamlet,Makaravati,Makaravati,Makaravati,Tanzania,Pwani,Rufiji DC,Umwe,Umwe Kusini,Makaravati,MAF
hamlet,Makombe,Makombe,Makombe,Tanzania,Pwani,Rufiji DC,Umwe,Umwe Kusini,Makombe,MEK
hamlet,Makumbusho,Makumbusho,Makumbusho,Tanzania,Pwani,Rufiji DC,Umwe,Umwe Kusini,Makumbusho,MOB
hamlet,Mbuyuni,Mbuyuni,Mbuyuni,Tanzania,Pwani,Rufiji DC,Umwe,Umwe Kusini,Mbuyuni,MYU
hamlet,Msikitini,Msikitini,Msikitini,Tanzania,Pwani,Rufiji DC,Umwe,Umwe Kusini,Msikitini,MTI
hamlet,Mwembe Muhoro,Mwembe Muhoro,Mwembe Muhoro,Tanzania,Pwani,Rufiji DC,Umwe,Umwe Kusini,Mwembe Muhoro,MWU
hamlet,Ngasinda,Ngasinda,Ngasinda,Tanzania,Pwani,Rufiji DC,Umwe,Umwe Kusini,Ngasinda,NGS
hamlet,Njogoro,Njogoro,Njogoro,Tanzania,Pwani,Rufiji DC,Umwe,Umwe Kusini,Njogoro,NJO
hamlet,Other,Outro,Nyingine,Tanzania,Pwani,Rufiji DC,Umwe,Umwe Kusini,Other,NA
hamlet,Other,Outro,Nyingine,Tanzania,Pwani,Rufiji DC,Umwe,Other,Other,NA
hamlet,Kitundu,Kitundu,Kitundu,Tanzania,Pwani,Rufiji DC,Utete,Kitundu,Kitundu,KTU
hamlet,Other,Outro,Nyingine,Tanzania,Pwani,Rufiji DC,Utete,Kitundu,Other,NA
hamlet,Kiwili,Kiwili,Kiwili,Tanzania,Pwani,Rufiji DC,Utete,Kiwili,Kiwili,KWL
hamlet,Other,Outro,Nyingine,Tanzania,Pwani,Rufiji DC,Utete,Kiwili,Other,NA
hamlet,Siasa,Siasa,Siasa,Tanzania,Pwani,Rufiji DC,Utete,Siasa,Siasa,SII
hamlet,Other,Outro,Nyingine,Tanzania,Pwani,Rufiji DC,Utete,Siasa,Other,NA
hamlet,Other,Outro,Nyingine,Tanzania,Pwani,Rufiji DC,Utete,Other,Other,NA
