"list_name","name","label::English","label::Portuguese","label::Swahili","country","region","district","ward","village"
"region","Zambezia","Zambezia","Zambezia","Zambezia","Mozambique","NA","NA","NA","NA"
"region","Pwani","Pwani","Pwani","Pwani","Tanzania","NA","NA","NA","NA"
"district","Mopeia","Mopeia","Mopeia","Mopeia","Mozambique","Zambezia","NA","NA","NA"
"district","Kibiti DC","Kibiti DC","Kibiti DC","Kibiti DC","Tanzania","Pwani","NA","NA","NA"
"district","Rufiji DC","Rufiji DC","Rufiji DC","Rufiji DC","Tanzania","Pwani","NA","NA","NA"
"ward","Mopeia Sede","Mopeia Sede","Mopeia Sede","Mopeia Sede","Mozambique","Zambezia","Mopeia","NA","NA"
"ward","Posto Campo","Posto Campo","Posto Campo","Posto Campo","Mozambique","Zambezia","Mopeia","NA","NA"
"ward","Sambalendo","Sambalendo","Sambalendo","Sambalendo","Mozambique","Zambezia","Mopeia","NA","NA"
"ward","Bungu","Bungu","Bungu","Bungu","Tanzania","Pwani","Kibiti DC","NA","NA"
"ward","Dimani","Dimani","Dimani","Dimani","Tanzania","Pwani","Kibiti DC","NA","NA"
"ward","Kibiti","Kibiti","Kibiti","Kibiti","Tanzania","Pwani","Kibiti DC","NA","NA"
"ward","Kiongoroni","Kiongoroni","Kiongoroni","Kiongoroni","Tanzania","Pwani","Kibiti DC","NA","NA"
"ward","Mahege","Mahege","Mahege","Mahege","Tanzania","Pwani","Kibiti DC","NA","NA"
"ward","Maparoni","Maparoni","Maparoni","Maparoni","Tanzania","Pwani","Kibiti DC","NA","NA"
"ward","Mbuchi","Mbuchi","Mbuchi","Mbuchi","Tanzania","Pwani","Kibiti DC","NA","NA"
"ward","Mchukwi","Mchukwi","Mchukwi","Mchukwi","Tanzania","Pwani","Kibiti DC","NA","NA"
"ward","Mjawa","Mjawa","Mjawa","Mjawa","Tanzania","Pwani","Kibiti DC","NA","NA"
"ward","Mlanzi","Mlanzi","Mlanzi","Mlanzi","Tanzania","Pwani","Kibiti DC","NA","NA"
"ward","Msala","Msala","Msala","Msala","Tanzania","Pwani","Kibiti DC","NA","NA"
"ward","Mtawanya","Mtawanya","Mtawanya","Mtawanya","Tanzania","Pwani","Kibiti DC","NA","NA"
"ward","Mtunda","Mtunda","Mtunda","Mtunda","Tanzania","Pwani","Kibiti DC","NA","NA"
"ward","Mwambao","Mwambao","Mwambao","Mwambao","Tanzania","Pwani","Kibiti DC","NA","NA"
"ward","Ruaruke","Ruaruke","Ruaruke","Ruaruke","Tanzania","Pwani","Kibiti DC","NA","NA"
"ward","Salale","Salale","Salale","Salale","Tanzania","Pwani","Kibiti DC","NA","NA"
"ward","Chemchem","Chemchem","Chemchem","Chemchem","Tanzania","Pwani","Rufiji DC","NA","NA"
"ward","Chumbi","Chumbi","Chumbi","Chumbi","Tanzania","Pwani","Rufiji DC","NA","NA"
"ward","Ikwiriri","Ikwiriri","Ikwiriri","Ikwiriri","Tanzania","Pwani","Rufiji DC","NA","NA"
"ward","Kipugira","Kipugira","Kipugira","Kipugira","Tanzania","Pwani","Rufiji DC","NA","NA"
"ward","Mbwara","Mbwara","Mbwara","Mbwara","Tanzania","Pwani","Rufiji DC","NA","NA"
"ward","Mgomba","Mgomba","Mgomba","Mgomba","Tanzania","Pwani","Rufiji DC","NA","NA"
"ward","Mkongo","Mkongo","Mkongo","Mkongo","Tanzania","Pwani","Rufiji DC","NA","NA"
"ward","Mohoro","Mohoro","Mohoro","Mohoro","Tanzania","Pwani","Rufiji DC","NA","NA"
"ward","Mwaseni","Mwaseni","Mwaseni","Mwaseni","Tanzania","Pwani","Rufiji DC","NA","NA"
"ward","Ngarambe","Ngarambe","Ngarambe","Ngarambe","Tanzania","Pwani","Rufiji DC","NA","NA"
"ward","Ngorongo","Ngorongo","Ngorongo","Ngorongo","Tanzania","Pwani","Rufiji DC","NA","NA"
"ward","Umwe","Umwe","Umwe","Umwe","Tanzania","Pwani","Rufiji DC","NA","NA"
"ward","Utete","Utete","Utete","Utete","Tanzania","Pwani","Rufiji DC","NA","NA"
"village","Mopeia Sede/Cuacua","Mopeia Sede/Cuacua","Mopeia Sede/Cuacua","Mopeia Sede/Cuacua","Mozambique","Zambezia","Mopeia","Mopeia Sede","NA"
"village","Rovuma/Conho","Rovuma/Conho","Rovuma/Conho","Rovuma/Conho","Mozambique","Zambezia","Mopeia","Mopeia Sede","NA"
"village","Other","Other","Outro","Nyingine","Mozambique","Zambezia","Mopeia","Mopeia Sede","NA"
"village","Campo Sede","Campo Sede","Campo Sede","Campo Sede","Mozambique","Zambezia","Mopeia","Posto Campo","NA"
"village","Catale","Catale","Catale","Catale","Mozambique","Zambezia","Mopeia","Posto Campo","NA"
"village","Luala","Luala","Luala","Luala","Mozambique","Zambezia","Mopeia","Posto Campo","NA"
"village","Mungane","Mungane","Mungane","Mungane","Mozambique","Zambezia","Mopeia","Posto Campo","NA"
"village","Other","Other","Outro","Nyingine","Mozambique","Zambezia","Mopeia","Posto Campo","NA"
"village","Sambalendo","Sambalendo","Sambalendo","Sambalendo","Mozambique","Zambezia","Mopeia","Sambalendo","NA"
"village","Other","Other","Outro","Nyingine","Mozambique","Zambezia","Mopeia","Sambalendo","NA"
"village","Bungu A","Bungu A","Bungu A","Bungu A","Tanzania","Pwani","Kibiti DC","Bungu","NA"
"village","Bungu B","Bungu B","Bungu B","Bungu B","Tanzania","Pwani","Kibiti DC","Bungu","NA"
"village","Mangombela","Mangombela","Mangombela","Mangombela","Tanzania","Pwani","Kibiti DC","Bungu","NA"
"village","Msafiri","Msafiri","Msafiri","Msafiri","Tanzania","Pwani","Kibiti DC","Bungu","NA"
"village","Nyambili","Nyambili","Nyambili","Nyambili","Tanzania","Pwani","Kibiti DC","Bungu","NA"
"village","Nyambunda","Nyambunda","Nyambunda","Nyambunda","Tanzania","Pwani","Kibiti DC","Bungu","NA"
"village","Pagae","Pagae","Pagae","Pagae","Tanzania","Pwani","Kibiti DC","Bungu","NA"
"village","Other","Other","Outro","Nyingine","Tanzania","Pwani","Kibiti DC","Bungu","NA"
"village","Bondeni","Bondeni","Bondeni","Bondeni","Tanzania","Pwani","Kibiti DC","Dimani","NA"
"village","Dimani","Dimani","Dimani","Dimani","Tanzania","Pwani","Kibiti DC","Dimani","NA"
"village","Dimani A","Dimani A","Dimani A","Dimani A","Tanzania","Pwani","Kibiti DC","Dimani","NA"
"village","Dimani B","Dimani B","Dimani B","Dimani B","Tanzania","Pwani","Kibiti DC","Dimani","NA"
"village","Kilimbili","Kilimbili","Kilimbili","Kilimbili","Tanzania","Pwani","Kibiti DC","Dimani","NA"
"village","Kimbuga","Kimbuga","Kimbuga","Kimbuga","Tanzania","Pwani","Kibiti DC","Dimani","NA"
"village","Ng'ambo","Ng'ambo","Ng'ambo","Ng'ambo","Tanzania","Pwani","Kibiti DC","Dimani","NA"
"village","Ngulakula","Ngulakula","Ngulakula","Ngulakula","Tanzania","Pwani","Kibiti DC","Dimani","NA"
"village","Nyambangala","Nyambangala","Nyambangala","Nyambangala","Tanzania","Pwani","Kibiti DC","Dimani","NA"
"village","Penda","Penda","Penda","Penda","Tanzania","Pwani","Kibiti DC","Dimani","NA"
"village","Penda-kimbuga","Penda-kimbuga","Penda-kimbuga","Penda-kimbuga","Tanzania","Pwani","Kibiti DC","Dimani","NA"
"village","Penda-miwaga","Penda-miwaga","Penda-miwaga","Penda-miwaga","Tanzania","Pwani","Kibiti DC","Dimani","NA"
"village","Other","Other","Outro","Nyingine","Tanzania","Pwani","Kibiti DC","Dimani","NA"
"village","Kibiti Kati","Kibiti Kati","Kibiti Kati","Kibiti Kati","Tanzania","Pwani","Kibiti DC","Kibiti","NA"
"village","Kibiti Kusini","Kibiti Kusini","Kibiti Kusini","Kibiti Kusini","Tanzania","Pwani","Kibiti DC","Kibiti","NA"
"village","Kingwira","Kingwira","Kingwira","Kingwira","Tanzania","Pwani","Kibiti DC","Kibiti","NA"
"village","Kitembo","Kitembo","Kitembo","Kitembo","Tanzania","Pwani","Kibiti DC","Kibiti","NA"
"village","Lumionzi","Lumionzi","Lumionzi","Lumionzi","Tanzania","Pwani","Kibiti DC","Kibiti","NA"
"village","Makaoni","Makaoni","Makaoni","Makaoni","Tanzania","Pwani","Kibiti DC","Kibiti","NA"
"village","Mbebetini","Mbebetini","Mbebetini","Mbebetini","Tanzania","Pwani","Kibiti DC","Kibiti","NA"
"village","Mkubuge","Mkubuge","Mkubuge","Mkubuge","Tanzania","Pwani","Kibiti DC","Kibiti","NA"
"village","Mkundi","Mkundi","Mkundi","Mkundi","Tanzania","Pwani","Kibiti DC","Kibiti","NA"
"village","Mkupuka","Mkupuka","Mkupuka","Mkupuka","Tanzania","Pwani","Kibiti DC","Kibiti","NA"
"village","Nyamakingili","Nyamakingili","Nyamakingili","Nyamakingili","Tanzania","Pwani","Kibiti DC","Kibiti","NA"
"village","Nyangwego","Nyangwego","Nyangwego","Nyangwego","Tanzania","Pwani","Kibiti DC","Kibiti","NA"
"village","Nyatanga","Nyatanga","Nyatanga","Nyatanga","Tanzania","Pwani","Kibiti DC","Kibiti","NA"
"village","Runyozi","Runyozi","Runyozi","Runyozi","Tanzania","Pwani","Kibiti DC","Kibiti","NA"
"village","Sokoni","Sokoni","Sokoni","Sokoni","Tanzania","Pwani","Kibiti DC","Kibiti","NA"
"village","Zimbwini","Zimbwini","Zimbwini","Zimbwini","Tanzania","Pwani","Kibiti DC","Kibiti","NA"
"village","Other","Other","Outro","Nyingine","Tanzania","Pwani","Kibiti DC","Kibiti","NA"
"village","Jaja","Jaja","Jaja","Jaja","Tanzania","Pwani","Kibiti DC","Kiongoroni","NA"
"village","Kiongoroni","Kiongoroni","Kiongoroni","Kiongoroni","Tanzania","Pwani","Kibiti DC","Kiongoroni","NA"
"village","Pombwe","Pombwe","Pombwe","Pombwe","Tanzania","Pwani","Kibiti DC","Kiongoroni","NA"
"village","Ruma","Ruma","Ruma","Ruma","Tanzania","Pwani","Kibiti DC","Kiongoroni","NA"
"village","Other","Other","Outro","Nyingine","Tanzania","Pwani","Kibiti DC","Kiongoroni","NA"
"village","Hanga","Hanga","Hanga","Hanga","Tanzania","Pwani","Kibiti DC","Mahege","NA"
"village","Mahege","Mahege","Mahege","Mahege","Tanzania","Pwani","Kibiti DC","Mahege","NA"
"village","Nyakinyo","Nyakinyo","Nyakinyo","Nyakinyo","Tanzania","Pwani","Kibiti DC","Mahege","NA"
"village","Nyanjati","Nyanjati","Nyanjati","Nyanjati","Tanzania","Pwani","Kibiti DC","Mahege","NA"
"village","Tomoni","Tomoni","Tomoni","Tomoni","Tanzania","Pwani","Kibiti DC","Mahege","NA"
"village","Other","Other","Outro","Nyingine","Tanzania","Pwani","Kibiti DC","Mahege","NA"
"village","Kiechuru","Kiechuru","Kiechuru","Kiechuru","Tanzania","Pwani","Kibiti DC","Maparoni","NA"
"village","Maparoni","Maparoni","Maparoni","Maparoni","Tanzania","Pwani","Kibiti DC","Maparoni","NA"
"village","Other","Other","Outro","Nyingine","Tanzania","Pwani","Kibiti DC","Maparoni","NA"
"village","Mbuchi","Mbuchi","Mbuchi","Mbuchi","Tanzania","Pwani","Kibiti DC","Mbuchi","NA"
"village","Mbwera Magharibi","Mbwera Magharibi","Mbwera Magharibi","Mbwera Magharibi","Tanzania","Pwani","Kibiti DC","Mbuchi","NA"
"village","Mbwera Mashariki","Mbwera Mashariki","Mbwera Mashariki","Mbwera Mashariki","Tanzania","Pwani","Kibiti DC","Mbuchi","NA"
"village","Other","Other","Outro","Nyingine","Tanzania","Pwani","Kibiti DC","Mbuchi","NA"
"village","Mangwi","Mangwi","Mangwi","Mangwi","Tanzania","Pwani","Kibiti DC","Mchukwi","NA"
"village","Mchukwi A","Mchukwi A","Mchukwi A","Mchukwi A","Tanzania","Pwani","Kibiti DC","Mchukwi","NA"
"village","Mchukwi B","Mchukwi B","Mchukwi B","Mchukwi B","Tanzania","Pwani","Kibiti DC","Mchukwi","NA"
"village","Mkupuka","Mkupuka","Mkupuka","Mkupuka","Tanzania","Pwani","Kibiti DC","Mchukwi","NA"
"village","Other","Other","Outro","Nyingine","Tanzania","Pwani","Kibiti DC","Mchukwi","NA"
"village","Jaribu Magharibi","Jaribu Magharibi","Jaribu Magharibi","Jaribu Magharibi","Tanzania","Pwani","Kibiti DC","Mjawa","NA"
"village","Jaribu Mpakani","Jaribu Mpakani","Jaribu Mpakani","Jaribu Mpakani","Tanzania","Pwani","Kibiti DC","Mjawa","NA"
"village","Mjawa","Mjawa","Mjawa","Mjawa","Tanzania","Pwani","Kibiti DC","Mjawa","NA"
"village","Motomoto","Motomoto","Motomoto","Motomoto","Tanzania","Pwani","Kibiti DC","Mjawa","NA"
"village","Ngalengwa","Ngalengwa","Ngalengwa","Ngalengwa","Tanzania","Pwani","Kibiti DC","Mjawa","NA"
"village","Uchembe","Uchembe","Uchembe","Uchembe","Tanzania","Pwani","Kibiti DC","Mjawa","NA"
"village","Uponda","Uponda","Uponda","Uponda","Tanzania","Pwani","Kibiti DC","Mjawa","NA"
"village","Other","Other","Outro","Nyingine","Tanzania","Pwani","Kibiti DC","Mjawa","NA"
"village","Machipi","Machipi","Machipi","Machipi","Tanzania","Pwani","Kibiti DC","Mlanzi","NA"
"village","Mlanzi","Mlanzi","Mlanzi","Mlanzi","Tanzania","Pwani","Kibiti DC","Mlanzi","NA"
"village","Ngondai","Ngondai","Ngondai","Ngondai","Tanzania","Pwani","Kibiti DC","Mlanzi","NA"
"village","Nyamwimbe","Nyamwimbe","Nyamwimbe","Nyamwimbe","Tanzania","Pwani","Kibiti DC","Mlanzi","NA"
"village","Other","Other","Outro","Nyingine","Tanzania","Pwani","Kibiti DC","Mlanzi","NA"
"village","Kiasi","Kiasi","Kiasi","Kiasi","Tanzania","Pwani","Kibiti DC","Msala","NA"
"village","Msala","Msala","Msala","Msala","Tanzania","Pwani","Kibiti DC","Msala","NA"
"village","Twasalie","Twasalie","Twasalie","Twasalie","Tanzania","Pwani","Kibiti DC","Msala","NA"
"village","Other","Other","Outro","Nyingine","Tanzania","Pwani","Kibiti DC","Msala","NA"
"village","Bumba","Bumba","Bumba","Bumba","Tanzania","Pwani","Kibiti DC","Mtawanya","NA"
"village","Kilimbili","Kilimbili","Kilimbili","Kilimbili","Tanzania","Pwani","Kibiti DC","Mtawanya","NA"
"village","Kinyanya Kati","Kinyanya Kati","Kinyanya Kati","Kinyanya Kati","Tanzania","Pwani","Kibiti DC","Mtawanya","NA"
"village","Magogo Matatu","Magogo Matatu","Magogo Matatu","Magogo Matatu","Tanzania","Pwani","Kibiti DC","Mtawanya","NA"
"village","Matumbi","Matumbi","Matumbi","Matumbi","Tanzania","Pwani","Kibiti DC","Mtawanya","NA"
"village","Mikendo","Mikendo","Mikendo","Mikendo","Tanzania","Pwani","Kibiti DC","Mtawanya","NA"
"village","Msoro","Msoro","Msoro","Msoro","Tanzania","Pwani","Kibiti DC","Mtawanya","NA"
"village","Mulandecha","Mulandecha","Mulandecha","Mulandecha","Tanzania","Pwani","Kibiti DC","Mtawanya","NA"
"village","Ndechamula","Ndechamula","Ndechamula","Ndechamula","Tanzania","Pwani","Kibiti DC","Mtawanya","NA"
"village","Nyamlani","Nyamlani","Nyamlani","Nyamlani","Tanzania","Pwani","Kibiti DC","Mtawanya","NA"
"village","Roja","Roja","Roja","Roja","Tanzania","Pwani","Kibiti DC","Mtawanya","NA"
"village","Ugezi","Ugezi","Ugezi","Ugezi","Tanzania","Pwani","Kibiti DC","Mtawanya","NA"
"village","Umikendo","Umikendo","Umikendo","Umikendo","Tanzania","Pwani","Kibiti DC","Mtawanya","NA"
"village","Umkunama","Umkunama","Umkunama","Umkunama","Tanzania","Pwani","Kibiti DC","Mtawanya","NA"
"village","Unyamlani","Unyamlani","Unyamlani","Unyamlani","Tanzania","Pwani","Kibiti DC","Mtawanya","NA"
"village","Upazi","Upazi","Upazi","Upazi","Tanzania","Pwani","Kibiti DC","Mtawanya","NA"
"village","Zomboko","Zomboko","Zomboko","Zomboko","Tanzania","Pwani","Kibiti DC","Mtawanya","NA"
"village","Other","Other","Outro","Nyingine","Tanzania","Pwani","Kibiti DC","Mtawanya","NA"
"village","Kikale","Kikale","Kikale","Kikale","Tanzania","Pwani","Kibiti DC","Mtunda","NA"
"village","Mtunda A","Mtunda A","Mtunda A","Mtunda A","Tanzania","Pwani","Kibiti DC","Mtunda","NA"
"village","Mtunda B","Mtunda B","Mtunda B","Mtunda B","Tanzania","Pwani","Kibiti DC","Mtunda","NA"
"village","Muyuyu","Muyuyu","Muyuyu","Muyuyu","Tanzania","Pwani","Kibiti DC","Mtunda","NA"
"village","Other","Other","Outro","Nyingine","Tanzania","Pwani","Kibiti DC","Mtunda","NA"
"village","Kigunguli","Kigunguli","Kigunguli","Kigunguli","Tanzania","Pwani","Kibiti DC","Mwambao","NA"
"village","Kivinja A","Kivinja A","Kivinja A","Kivinja A","Tanzania","Pwani","Kibiti DC","Mwambao","NA"
"village","Kivinja B","Kivinja B","Kivinja B","Kivinja B","Tanzania","Pwani","Kibiti DC","Mwambao","NA"
"village","Mchungu","Mchungu","Mchungu","Mchungu","Tanzania","Pwani","Kibiti DC","Mwambao","NA"
"village","Mkenda","Mkenda","Mkenda","Mkenda","Tanzania","Pwani","Kibiti DC","Mwambao","NA"
"village","Msindaji","Msindaji","Msindaji","Msindaji","Tanzania","Pwani","Kibiti DC","Mwambao","NA"
"village","Other","Other","Outro","Nyingine","Tanzania","Pwani","Kibiti DC","Mwambao","NA"
"village","Kilulatambwe","Kilulatambwe","Kilulatambwe","Kilulatambwe","Tanzania","Pwani","Kibiti DC","Ruaruke","NA"
"village","Nyamatanga","Nyamatanga","Nyamatanga","Nyamatanga","Tanzania","Pwani","Kibiti DC","Ruaruke","NA"
"village","Ruaruke A Nyamatimba","Ruaruke A Nyamatimba","Ruaruke A Nyamatimba","Ruaruke A Nyamatimba","Tanzania","Pwani","Kibiti DC","Ruaruke","NA"
"village","Ruaruke B","Ruaruke B","Ruaruke B","Ruaruke B","Tanzania","Pwani","Kibiti DC","Ruaruke","NA"
"village","Rungungu","Rungungu","Rungungu","Rungungu","Tanzania","Pwani","Kibiti DC","Ruaruke","NA"
"village","Other","Other","Outro","Nyingine","Tanzania","Pwani","Kibiti DC","Ruaruke","NA"
"village","Kiomboni","Kiomboni","Kiomboni","Kiomboni","Tanzania","Pwani","Kibiti DC","Salale","NA"
"village","Mchinga","Mchinga","Mchinga","Mchinga","Tanzania","Pwani","Kibiti DC","Salale","NA"
"village","Mfisini","Mfisini","Mfisini","Mfisini","Tanzania","Pwani","Kibiti DC","Salale","NA"
"village","Nyamisati","Nyamisati","Nyamisati","Nyamisati","Tanzania","Pwani","Kibiti DC","Salale","NA"
"village","Other","Other","Outro","Nyingine","Tanzania","Pwani","Kibiti DC","Salale","NA"
"village","Golani","Golani","Golani","Golani","Tanzania","Pwani","Rufiji DC","Chemchem","NA"
"village","Kindwiti","Kindwiti","Kindwiti","Kindwiti","Tanzania","Pwani","Rufiji DC","Chemchem","NA"
"village","Kipei","Kipei","Kipei","Kipei","Tanzania","Pwani","Rufiji DC","Chemchem","NA"
"village","Nyandakatundu","Nyandakatundu","Nyandakatundu","Nyandakatundu","Tanzania","Pwani","Rufiji DC","Chemchem","NA"
"village","Nyandumbi","Nyandumbi","Nyandumbi","Nyandumbi","Tanzania","Pwani","Rufiji DC","Chemchem","NA"
"village","Nyangwai","Nyangwai","Nyangwai","Nyangwai","Tanzania","Pwani","Rufiji DC","Chemchem","NA"
"village","Nyawanje/Ngwembele","Nyawanje/Ngwembele","Nyawanje/Ngwembele","Nyawanje/Ngwembele","Tanzania","Pwani","Rufiji DC","Chemchem","NA"
"village","Other","Other","Outro","Nyingine","Tanzania","Pwani","Rufiji DC","Chemchem","NA"
"village","Chumbi A","Chumbi A","Chumbi A","Chumbi A","Tanzania","Pwani","Rufiji DC","Chumbi","NA"
"village","Chumbi B","Chumbi B","Chumbi B","Chumbi B","Tanzania","Pwani","Rufiji DC","Chumbi","NA"
"village","Chumbi C","Chumbi C","Chumbi C","Chumbi C","Tanzania","Pwani","Rufiji DC","Chumbi","NA"
"village","Other","Other","Outro","Nyingine","Tanzania","Pwani","Rufiji DC","Chumbi","NA"
"village","Ikwiriri Kaskazini","Ikwiriri Kaskazini","Ikwiriri Kaskazini","Ikwiriri Kaskazini","Tanzania","Pwani","Rufiji DC","Ikwiriri","NA"
"village","Ikwiriri Kati","Ikwiriri Kati","Ikwiriri Kati","Ikwiriri Kati","Tanzania","Pwani","Rufiji DC","Ikwiriri","NA"
"village","Ikwiriri Kusini","Ikwiriri Kusini","Ikwiriri Kusini","Ikwiriri Kusini","Tanzania","Pwani","Rufiji DC","Ikwiriri","NA"
"village","Other","Other","Outro","Nyingine","Tanzania","Pwani","Rufiji DC","Ikwiriri","NA"
"village","Kipo","Kipo","Kipo","Kipo","Tanzania","Pwani","Rufiji DC","Kipugira","NA"
"village","Kipugira","Kipugira","Kipugira","Kipugira","Tanzania","Pwani","Rufiji DC","Kipugira","NA"
"village","Ndundunyikanza","Ndundunyikanza","Ndundunyikanza","Ndundunyikanza","Tanzania","Pwani","Rufiji DC","Kipugira","NA"
"village","Nyaminywili","Nyaminywili","Nyaminywili","Nyaminywili","Tanzania","Pwani","Rufiji DC","Kipugira","NA"
"village","Other","Other","Outro","Nyingine","Tanzania","Pwani","Rufiji DC","Kipugira","NA"
"village","Kitapi","Kitapi","Kitapi","Kitapi","Tanzania","Pwani","Rufiji DC","Mbwara","NA"
"village","Mbwara","Mbwara","Mbwara","Mbwara","Tanzania","Pwani","Rufiji DC","Mbwara","NA"
"village","Nambunju","Nambunju","Nambunju","Nambunju","Tanzania","Pwani","Rufiji DC","Mbwara","NA"
"village","Nyamwage","Nyamwage","Nyamwage","Nyamwage","Tanzania","Pwani","Rufiji DC","Mbwara","NA"
"village","Tawi","Tawi","Tawi","Tawi","Tanzania","Pwani","Rufiji DC","Mbwara","NA"
"village","Other","Other","Outro","Nyingine","Tanzania","Pwani","Rufiji DC","Mbwara","NA"
"village","Mgomba Kaskazini","Mgomba Kaskazini","Mgomba Kaskazini","Mgomba Kaskazini","Tanzania","Pwani","Rufiji DC","Mgomba","NA"
"village","Mgomba Kati","Mgomba Kati","Mgomba Kati","Mgomba Kati","Tanzania","Pwani","Rufiji DC","Mgomba","NA"
"village","Mgomba Kusini","Mgomba Kusini","Mgomba Kusini","Mgomba Kusini","Tanzania","Pwani","Rufiji DC","Mgomba","NA"
"village","Other","Other","Outro","Nyingine","Tanzania","Pwani","Rufiji DC","Mgomba","NA"
"village","Mbunju Mvuleni","Mbunju Mvuleni","Mbunju Mvuleni","Mbunju Mvuleni","Tanzania","Pwani","Rufiji DC","Mkongo","NA"
"village","Mkongo Kaskazini","Mkongo Kaskazini","Mkongo Kaskazini","Mkongo Kaskazini","Tanzania","Pwani","Rufiji DC","Mkongo","NA"
"village","Mkongo Kusini","Mkongo Kusini","Mkongo Kusini","Mkongo Kusini","Tanzania","Pwani","Rufiji DC","Mkongo","NA"
"village","Ruwe","Ruwe","Ruwe","Ruwe","Tanzania","Pwani","Rufiji DC","Mkongo","NA"
"village","Other","Other","Outro","Nyingine","Tanzania","Pwani","Rufiji DC","Mkongo","NA"
"village","King'ong'o","King'ong'o","King'ong'o","King'ong'o","Tanzania","Pwani","Rufiji DC","Mohoro","NA"
"village","Kiwanga","Kiwanga","Kiwanga","Kiwanga","Tanzania","Pwani","Rufiji DC","Mohoro","NA"
"village","Mohoro Magharibi","Mohoro Magharibi","Mohoro Magharibi","Mohoro Magharibi","Tanzania","Pwani","Rufiji DC","Mohoro","NA"
"village","Mohoro Mashariki","Mohoro Mashariki","Mohoro Mashariki","Mohoro Mashariki","Tanzania","Pwani","Rufiji DC","Mohoro","NA"
"village","Ndundutawa","Ndundutawa","Ndundutawa","Ndundutawa","Tanzania","Pwani","Rufiji DC","Mohoro","NA"
"village","Shela","Shela","Shela","Shela","Tanzania","Pwani","Rufiji DC","Mohoro","NA"
"village","Other","Other","Outro","Nyingine","Tanzania","Pwani","Rufiji DC","Mohoro","NA"
"village","Mloka","Mloka","Mloka","Mloka","Tanzania","Pwani","Rufiji DC","Mwaseni","NA"
"village","Mtanza /Msona","Mtanza /Msona","Mtanza /Msona","Mtanza /Msona","Tanzania","Pwani","Rufiji DC","Mwaseni","NA"
"village","Mwaseni","Mwaseni","Mwaseni","Mwaseni","Tanzania","Pwani","Rufiji DC","Mwaseni","NA"
"village","Other","Other","Outro","Nyingine","Tanzania","Pwani","Rufiji DC","Mwaseni","NA"
"village","Kungulwe","Kungulwe","Kungulwe","Kungulwe","Tanzania","Pwani","Rufiji DC","Ngarambe","NA"
"village","Namakono","Namakono","Namakono","Namakono","Tanzania","Pwani","Rufiji DC","Ngarambe","NA"
"village","Ngarambe Mashariki","Ngarambe Mashariki","Ngarambe Mashariki","Ngarambe Mashariki","Tanzania","Pwani","Rufiji DC","Ngarambe","NA"
"village","Ngarambemagharibi","Ngarambemagharibi","Ngarambemagharibi","Ngarambemagharibi","Tanzania","Pwani","Rufiji DC","Ngarambe","NA"
"village","Tapika","Tapika","Tapika","Tapika","Tanzania","Pwani","Rufiji DC","Ngarambe","NA"
"village","Other","Other","Outro","Nyingine","Tanzania","Pwani","Rufiji DC","Ngarambe","NA"
"village","Kilimani Magharibi","Kilimani Magharibi","Kilimani Magharibi","Kilimani Magharibi","Tanzania","Pwani","Rufiji DC","Ngorongo","NA"
"village","Kilimani Mashariki","Kilimani Mashariki","Kilimani Mashariki","Kilimani Mashariki","Tanzania","Pwani","Rufiji DC","Ngorongo","NA"
"village","Ngorongo Magharibi","Ngorongo Magharibi","Ngorongo Magharibi","Ngorongo Magharibi","Tanzania","Pwani","Rufiji DC","Ngorongo","NA"
"village","Ngorongo Mashariki","Ngorongo Mashariki","Ngorongo Mashariki","Ngorongo Mashariki","Tanzania","Pwani","Rufiji DC","Ngorongo","NA"
"village","Other","Other","Outro","Nyingine","Tanzania","Pwani","Rufiji DC","Ngorongo","NA"
"village","Umwe Kaskazini","Umwe Kaskazini","Umwe Kaskazini","Umwe Kaskazini","Tanzania","Pwani","Rufiji DC","Umwe","NA"
"village","Umwe Kati","Umwe Kati","Umwe Kati","Umwe Kati","Tanzania","Pwani","Rufiji DC","Umwe","NA"
"village","Umwe Kusini","Umwe Kusini","Umwe Kusini","Umwe Kusini","Tanzania","Pwani","Rufiji DC","Umwe","NA"
"village","Other","Other","Outro","Nyingine","Tanzania","Pwani","Rufiji DC","Umwe","NA"
"village","Kitundu","Kitundu","Kitundu","Kitundu","Tanzania","Pwani","Rufiji DC","Utete","NA"
"village","Kiwili","Kiwili","Kiwili","Kiwili","Tanzania","Pwani","Rufiji DC","Utete","NA"
"village","Siasa","Siasa","Siasa","Siasa","Tanzania","Pwani","Rufiji DC","Utete","NA"
"village","Other","Other","Outro","Nyingine","Tanzania","Pwani","Rufiji DC","Utete","NA"
"hamlet","24 de Julho","24 de Julho","24 de Julho","24 de Julho","Mozambique","Zambezia","Mopeia","Mopeia Sede","Mopeia Sede/Cuacua"
"hamlet","25 de Junho","25 de Junho","25 de Junho","25 de Junho","Mozambique","Zambezia","Mopeia","Mopeia Sede","Mopeia Sede/Cuacua"
"hamlet","4 de Outubro","4 de Outubro","4 de Outubro","4 de Outubro","Mozambique","Zambezia","Mopeia","Mopeia Sede","Mopeia Sede/Cuacua"
"hamlet","7 de Abril","7 de Abril","7 de Abril","7 de Abril","Mozambique","Zambezia","Mopeia","Mopeia Sede","Mopeia Sede/Cuacua"
"hamlet","8 de Marco","8 de Marco","8 de Marco","8 de Marco","Mozambique","Zambezia","Mopeia","Mopeia Sede","Mopeia Sede/Cuacua"
"hamlet","Alfredo","Alfredo","Alfredo","Alfredo","Mozambique","Zambezia","Mopeia","Mopeia Sede","Mopeia Sede/Cuacua"
"hamlet","Ambrosio","Ambrosio","Ambrosio","Ambrosio","Mozambique","Zambezia","Mopeia","Mopeia Sede","Mopeia Sede/Cuacua"
"hamlet","Armando Emilio Guebuza","Armando Emilio Guebuza","Armando Emilio Guebuza","Armando Emilio Guebuza","Mozambique","Zambezia","Mopeia","Mopeia Sede","Mopeia Sede/Cuacua"
"hamlet","Batelao","Batelao","Batelao","Batelao","Mozambique","Zambezia","Mopeia","Mopeia Sede","Mopeia Sede/Cuacua"
"hamlet","Benejoaque","Benejoaque","Benejoaque","Benejoaque","Mozambique","Zambezia","Mopeia","Mopeia Sede","Mopeia Sede/Cuacua"
"hamlet","Capece","Capece","Capece","Capece","Mozambique","Zambezia","Mopeia","Mopeia Sede","Mopeia Sede/Cuacua"
"hamlet","Chicote","Chicote","Chicote","Chicote","Mozambique","Zambezia","Mopeia","Mopeia Sede","Mopeia Sede/Cuacua"
"hamlet","Chimpene","Chimpene","Chimpene","Chimpene","Mozambique","Zambezia","Mopeia","Mopeia Sede","Mopeia Sede/Cuacua"
"hamlet","Chitequeteque","Chitequeteque","Chitequeteque","Chitequeteque","Mozambique","Zambezia","Mopeia","Mopeia Sede","Mopeia Sede/Cuacua"
"hamlet","Chiverano","Chiverano","Chiverano","Chiverano","Mozambique","Zambezia","Mopeia","Mopeia Sede","Mopeia Sede/Cuacua"
"hamlet","Chizimba","Chizimba","Chizimba","Chizimba","Mozambique","Zambezia","Mopeia","Mopeia Sede","Mopeia Sede/Cuacua"
"hamlet","Chunga","Chunga","Chunga","Chunga","Mozambique","Zambezia","Mopeia","Mopeia Sede","Mopeia Sede/Cuacua"
"hamlet","Cimento","Cimento","Cimento","Cimento","Mozambique","Zambezia","Mopeia","Mopeia Sede","Mopeia Sede/Cuacua"
"hamlet","Cocorico","Cocorico","Cocorico","Cocorico","Mozambique","Zambezia","Mopeia","Mopeia Sede","Mopeia Sede/Cuacua"
"hamlet","Cunhanhassa","Cunhanhassa","Cunhanhassa","Cunhanhassa","Mozambique","Zambezia","Mopeia","Mopeia Sede","Mopeia Sede/Cuacua"
"hamlet","Dande","Dande","Dande","Dande","Mozambique","Zambezia","Mopeia","Mopeia Sede","Mopeia Sede/Cuacua"
"hamlet","Danhau","Danhau","Danhau","Danhau","Mozambique","Zambezia","Mopeia","Mopeia Sede","Mopeia Sede/Cuacua"
"hamlet","Dombe/Balame","Dombe/Balame","Dombe/Balame","Dombe/Balame","Mozambique","Zambezia","Mopeia","Mopeia Sede","Mopeia Sede/Cuacua"
"hamlet","Eduardo Mondlane","Eduardo Mondlane","Eduardo Mondlane","Eduardo Mondlane","Mozambique","Zambezia","Mopeia","Mopeia Sede","Mopeia Sede/Cuacua"
"hamlet","Forca da Mudanca","Forca da Mudanca","Forca da Mudanca","Forca da Mudanca","Mozambique","Zambezia","Mopeia","Mopeia Sede","Mopeia Sede/Cuacua"
"hamlet","Gale","Gale","Gale","Gale","Mozambique","Zambezia","Mopeia","Mopeia Sede","Mopeia Sede/Cuacua"
"hamlet","Gonda","Gonda","Gonda","Gonda","Mozambique","Zambezia","Mopeia","Mopeia Sede","Mopeia Sede/Cuacua"
"hamlet","Josina Machel","Josina Machel","Josina Machel","Josina Machel","Mozambique","Zambezia","Mopeia","Mopeia Sede","Mopeia Sede/Cuacua"
"hamlet","Liberdade A","Liberdade A","Liberdade A","Liberdade A","Mozambique","Zambezia","Mopeia","Mopeia Sede","Mopeia Sede/Cuacua"
"hamlet","Liberdade B","Liberdade B","Liberdade B","Liberdade B","Mozambique","Zambezia","Mopeia","Mopeia Sede","Mopeia Sede/Cuacua"
"hamlet","Luta Continua","Luta Continua","Luta Continua","Luta Continua","Mozambique","Zambezia","Mopeia","Mopeia Sede","Mopeia Sede/Cuacua"
"hamlet","Magamba","Magamba","Magamba","Magamba","Mozambique","Zambezia","Mopeia","Mopeia Sede","Mopeia Sede/Cuacua"
"hamlet","Malulo","Malulo","Malulo","Malulo","Mozambique","Zambezia","Mopeia","Mopeia Sede","Mopeia Sede/Cuacua"
"hamlet","Mangala","Mangala","Mangala","Mangala","Mozambique","Zambezia","Mopeia","Mopeia Sede","Mopeia Sede/Cuacua"
"hamlet","Mazembe","Mazembe","Mazembe","Mazembe","Mozambique","Zambezia","Mopeia","Mopeia Sede","Mopeia Sede/Cuacua"
"hamlet","Mifarinha","Mifarinha","Mifarinha","Mifarinha","Mozambique","Zambezia","Mopeia","Mopeia Sede","Mopeia Sede/Cuacua"
"hamlet","Migoa","Migoa","Migoa","Migoa","Mozambique","Zambezia","Mopeia","Mopeia Sede","Mopeia Sede/Cuacua"
"hamlet","Mocha","Mocha","Mocha","Mocha","Mozambique","Zambezia","Mopeia","Mopeia Sede","Mopeia Sede/Cuacua"
"hamlet","Mugurrumba Sede","Mugurrumba Sede","Mugurrumba Sede","Mugurrumba Sede","Mozambique","Zambezia","Mopeia","Mopeia Sede","Mopeia Sede/Cuacua"
"hamlet","Mulaira","Mulaira","Mulaira","Mulaira","Mozambique","Zambezia","Mopeia","Mopeia Sede","Mopeia Sede/Cuacua"
"hamlet","Muriwa","Muriwa","Muriwa","Muriwa","Mozambique","Zambezia","Mopeia","Mopeia Sede","Mopeia Sede/Cuacua"
"hamlet","Muto","Muto","Muto","Muto","Mozambique","Zambezia","Mopeia","Mopeia Sede","Mopeia Sede/Cuacua"
"hamlet","Ndima Mangaze","Ndima Mangaze","Ndima Mangaze","Ndima Mangaze","Mozambique","Zambezia","Mopeia","Mopeia Sede","Mopeia Sede/Cuacua"
"hamlet","Nhalumbanda","Nhalumbanda","Nhalumbanda","Nhalumbanda","Mozambique","Zambezia","Mopeia","Mopeia Sede","Mopeia Sede/Cuacua"
"hamlet","Nhamissundo","Nhamissundo","Nhamissundo","Nhamissundo","Mozambique","Zambezia","Mopeia","Mopeia Sede","Mopeia Sede/Cuacua"
"hamlet","Nhanga","Nhanga","Nhanga","Nhanga","Mozambique","Zambezia","Mopeia","Mopeia Sede","Mopeia Sede/Cuacua"
"hamlet","Norte","Norte","Norte","Norte","Mozambique","Zambezia","Mopeia","Mopeia Sede","Mopeia Sede/Cuacua"
"hamlet","Nota","Nota","Nota","Nota","Mozambique","Zambezia","Mopeia","Mopeia Sede","Mopeia Sede/Cuacua"
"hamlet","Nsadgi","Nsadgi","Nsadgi","Nsadgi","Mozambique","Zambezia","Mopeia","Mopeia Sede","Mopeia Sede/Cuacua"
"hamlet","Nsando","Nsando","Nsando","Nsando","Mozambique","Zambezia","Mopeia","Mopeia Sede","Mopeia Sede/Cuacua"
"hamlet","Ntada","Ntada","Ntada","Ntada","Mozambique","Zambezia","Mopeia","Mopeia Sede","Mopeia Sede/Cuacua"
"hamlet","Posso","Posso","Posso","Posso","Mozambique","Zambezia","Mopeia","Mopeia Sede","Mopeia Sede/Cuacua"
"hamlet","Sabesse","Sabesse","Sabesse","Sabesse","Mozambique","Zambezia","Mopeia","Mopeia Sede","Mopeia Sede/Cuacua"
"hamlet","Samurendje","Samurendje","Samurendje","Samurendje","Mozambique","Zambezia","Mopeia","Mopeia Sede","Mopeia Sede/Cuacua"
"hamlet","Serracao","Serracao","Serracao","Serracao","Mozambique","Zambezia","Mopeia","Mopeia Sede","Mopeia Sede/Cuacua"
"hamlet","Tambalico","Tambalico","Tambalico","Tambalico","Mozambique","Zambezia","Mopeia","Mopeia Sede","Mopeia Sede/Cuacua"
"hamlet","Tesoura","Tesoura","Tesoura","Tesoura","Mozambique","Zambezia","Mopeia","Mopeia Sede","Mopeia Sede/Cuacua"
"hamlet","Tewe","Tewe","Tewe","Tewe","Mozambique","Zambezia","Mopeia","Mopeia Sede","Mopeia Sede/Cuacua"
"hamlet","Tiquita","Tiquita","Tiquita","Tiquita","Mozambique","Zambezia","Mopeia","Mopeia Sede","Mopeia Sede/Cuacua"
"hamlet","Vembe","Vembe","Vembe","Vembe","Mozambique","Zambezia","Mopeia","Mopeia Sede","Mopeia Sede/Cuacua"
"hamlet","Vumbe","Vumbe","Vumbe","Vumbe","Mozambique","Zambezia","Mopeia","Mopeia Sede","Mopeia Sede/Cuacua"
"hamlet","Xamanga/Bone","Xamanga/Bone","Xamanga/Bone","Xamanga/Bone","Mozambique","Zambezia","Mopeia","Mopeia Sede","Mopeia Sede/Cuacua"
"hamlet","Zona Verde","Zona Verde","Zona Verde","Zona Verde","Mozambique","Zambezia","Mopeia","Mopeia Sede","Mopeia Sede/Cuacua"
"hamlet","Zondene","Zondene","Zondene","Zondene","Mozambique","Zambezia","Mopeia","Mopeia Sede","Mopeia Sede/Cuacua"
"hamlet","Other","Other","Outro","Nyingine","Mozambique","Zambezia","Mopeia","Mopeia Sede","Mopeia Sede/Cuacua"
"hamlet","Alfredo","Alfredo","Alfredo","Alfredo","Mozambique","Zambezia","Mopeia","Mopeia Sede","Rovuma/Conho"
"hamlet","Cumbalenga","Cumbalenga","Cumbalenga","Cumbalenga","Mozambique","Zambezia","Mopeia","Mopeia Sede","Rovuma/Conho"
"hamlet","Lota","Lota","Lota","Lota","Mozambique","Zambezia","Mopeia","Mopeia Sede","Rovuma/Conho"
"hamlet","Majambe","Majambe","Majambe","Majambe","Mozambique","Zambezia","Mopeia","Mopeia Sede","Rovuma/Conho"
"hamlet","Nhango","Nhango","Nhango","Nhango","Mozambique","Zambezia","Mopeia","Mopeia Sede","Rovuma/Conho"
"hamlet","Nsanzo","Nsanzo","Nsanzo","Nsanzo","Mozambique","Zambezia","Mopeia","Mopeia Sede","Rovuma/Conho"
"hamlet","Ntruzao","Ntruzao","Ntruzao","Ntruzao","Mozambique","Zambezia","Mopeia","Mopeia Sede","Rovuma/Conho"
"hamlet","Other","Other","Outro","Nyingine","Mozambique","Zambezia","Mopeia","Mopeia Sede","Rovuma/Conho"
"hamlet","Other","Other","Outro","Nyingine","Mozambique","Zambezia","Mopeia","Mopeia Sede","Other"
"hamlet","1 de Maio","1 de Maio","1 de Maio","1 de Maio","Mozambique","Zambezia","Mopeia","Posto Campo","Campo Sede"
"hamlet","25 de Junho","25 de Junho","25 de Junho","25 de Junho","Mozambique","Zambezia","Mopeia","Posto Campo","Campo Sede"
"hamlet","25 de Setembro","25 de Setembro","25 de Setembro","25 de Setembro","Mozambique","Zambezia","Mopeia","Posto Campo","Campo Sede"
"hamlet","3 de Fevereiro","3 de Fevereiro","3 de Fevereiro","3 de Fevereiro","Mozambique","Zambezia","Mopeia","Posto Campo","Campo Sede"
"hamlet","4 de Outubro","4 de Outubro","4 de Outubro","4 de Outubro","Mozambique","Zambezia","Mopeia","Posto Campo","Campo Sede"
"hamlet","Acordos de Lusaka","Acordos de Lusaka","Acordos de Lusaka","Acordos de Lusaka","Mozambique","Zambezia","Mopeia","Posto Campo","Campo Sede"
"hamlet","Armando Emilio Guebuza","Armando Emilio Guebuza","Armando Emilio Guebuza","Armando Emilio Guebuza","Mozambique","Zambezia","Mopeia","Posto Campo","Campo Sede"
"hamlet","Assiate","Assiate","Assiate","Assiate","Mozambique","Zambezia","Mopeia","Posto Campo","Campo Sede"
"hamlet","Bajone","Bajone","Bajone","Bajone","Mozambique","Zambezia","Mopeia","Posto Campo","Campo Sede"
"hamlet","Bariela","Bariela","Bariela","Bariela","Mozambique","Zambezia","Mopeia","Posto Campo","Campo Sede"
"hamlet","Caixote","Caixote","Caixote","Caixote","Mozambique","Zambezia","Mopeia","Posto Campo","Campo Sede"
"hamlet","Cundine","Cundine","Cundine","Cundine","Mozambique","Zambezia","Mopeia","Posto Campo","Campo Sede"
"hamlet","Eduardo Mondlane","Eduardo Mondlane","Eduardo Mondlane","Eduardo Mondlane","Mozambique","Zambezia","Mopeia","Posto Campo","Campo Sede"
"hamlet","Jorissa","Jorissa","Jorissa","Jorissa","Mozambique","Zambezia","Mopeia","Posto Campo","Campo Sede"
"hamlet","Josina Machel","Josina Machel","Josina Machel","Josina Machel","Mozambique","Zambezia","Mopeia","Posto Campo","Campo Sede"
"hamlet","Maina","Maina","Maina","Maina","Mozambique","Zambezia","Mopeia","Posto Campo","Campo Sede"
"hamlet","Milange","Milange","Milange","Milange","Mozambique","Zambezia","Mopeia","Posto Campo","Campo Sede"
"hamlet","Namitala","Namitala","Namitala","Namitala","Mozambique","Zambezia","Mopeia","Posto Campo","Campo Sede"
"hamlet","Ntxenga","Ntxenga","Ntxenga","Ntxenga","Mozambique","Zambezia","Mopeia","Posto Campo","Campo Sede"
"hamlet","Sacuane","Sacuane","Sacuane","Sacuane","Mozambique","Zambezia","Mopeia","Posto Campo","Campo Sede"
"hamlet","Samaral","Samaral","Samaral","Samaral","Mozambique","Zambezia","Mopeia","Posto Campo","Campo Sede"
"hamlet","Sololo","Sololo","Sololo","Sololo","Mozambique","Zambezia","Mopeia","Posto Campo","Campo Sede"
"hamlet","Other","Other","Outro","Nyingine","Mozambique","Zambezia","Mopeia","Posto Campo","Campo Sede"
"hamlet","Andale","Andale","Andale","Andale","Mozambique","Zambezia","Mopeia","Posto Campo","Catale"
"hamlet","Antonio","Antonio","Antonio","Antonio","Mozambique","Zambezia","Mopeia","Posto Campo","Catale"
"hamlet","Changaue","Changaue","Changaue","Changaue","Mozambique","Zambezia","Mopeia","Posto Campo","Catale"
"hamlet","Licasse","Licasse","Licasse","Licasse","Mozambique","Zambezia","Mopeia","Posto Campo","Catale"
"hamlet","Manhai","Manhai","Manhai","Manhai","Mozambique","Zambezia","Mopeia","Posto Campo","Catale"
"hamlet","Mbawala","Mbawala","Mbawala","Mbawala","Mozambique","Zambezia","Mopeia","Posto Campo","Catale"
"hamlet","Morais","Morais","Morais","Morais","Mozambique","Zambezia","Mopeia","Posto Campo","Catale"
"hamlet","Muacaniua","Muacaniua","Muacaniua","Muacaniua","Mozambique","Zambezia","Mopeia","Posto Campo","Catale"
"hamlet","Murrongone","Murrongone","Murrongone","Murrongone","Mozambique","Zambezia","Mopeia","Posto Campo","Catale"
"hamlet","Namaria","Namaria","Namaria","Namaria","Mozambique","Zambezia","Mopeia","Posto Campo","Catale"
"hamlet","Nhagoanine","Nhagoanine","Nhagoanine","Nhagoanine","Mozambique","Zambezia","Mopeia","Posto Campo","Catale"
"hamlet","Panela","Panela","Panela","Panela","Mozambique","Zambezia","Mopeia","Posto Campo","Catale"
"hamlet","Raposo","Raposo","Raposo","Raposo","Mozambique","Zambezia","Mopeia","Posto Campo","Catale"
"hamlet","Waluto","Waluto","Waluto","Waluto","Mozambique","Zambezia","Mopeia","Posto Campo","Catale"
"hamlet","Other","Other","Outro","Nyingine","Mozambique","Zambezia","Mopeia","Posto Campo","Catale"
"hamlet","1 de Junho","1 de Junho","1 de Junho","1 de Junho","Mozambique","Zambezia","Mopeia","Posto Campo","Luala"
"hamlet","1 de Maio","1 de Maio","1 de Maio","1 de Maio","Mozambique","Zambezia","Mopeia","Posto Campo","Luala"
"hamlet","25 de Junho","25 de Junho","25 de Junho","25 de Junho","Mozambique","Zambezia","Mopeia","Posto Campo","Luala"
"hamlet","3 de Fevereiro","3 de Fevereiro","3 de Fevereiro","3 de Fevereiro","Mozambique","Zambezia","Mopeia","Posto Campo","Luala"
"hamlet","7 de Abril","7 de Abril","7 de Abril","7 de Abril","Mozambique","Zambezia","Mopeia","Posto Campo","Luala"
"hamlet","Acordos de Lusaka","Acordos de Lusaka","Acordos de Lusaka","Acordos de Lusaka","Mozambique","Zambezia","Mopeia","Posto Campo","Luala"
"hamlet","Cadongo","Cadongo","Cadongo","Cadongo","Mozambique","Zambezia","Mopeia","Posto Campo","Luala"
"hamlet","Caline","Caline","Caline","Caline","Mozambique","Zambezia","Mopeia","Posto Campo","Luala"
"hamlet","Ceta","Ceta","Ceta","Ceta","Mozambique","Zambezia","Mopeia","Posto Campo","Luala"
"hamlet","Chiurine","Chiurine","Chiurine","Chiurine","Mozambique","Zambezia","Mopeia","Posto Campo","Luala"
"hamlet","Liberdade","Liberdade","Liberdade","Liberdade","Mozambique","Zambezia","Mopeia","Posto Campo","Luala"
"hamlet","Lima","Lima","Lima","Lima","Mozambique","Zambezia","Mopeia","Posto Campo","Luala"
"hamlet","Mauia","Mauia","Mauia","Mauia","Mozambique","Zambezia","Mopeia","Posto Campo","Luala"
"hamlet","Micombezi","Micombezi","Micombezi","Micombezi","Mozambique","Zambezia","Mopeia","Posto Campo","Luala"
"hamlet","Mirrongone","Mirrongone","Mirrongone","Mirrongone","Mozambique","Zambezia","Mopeia","Posto Campo","Luala"
"hamlet","Mpiaeca","Mpiaeca","Mpiaeca","Mpiaeca","Mozambique","Zambezia","Mopeia","Posto Campo","Luala"
"hamlet","Mudiba","Mudiba","Mudiba","Mudiba","Mozambique","Zambezia","Mopeia","Posto Campo","Luala"
"hamlet","Nasarone","Nasarone","Nasarone","Nasarone","Mozambique","Zambezia","Mopeia","Posto Campo","Luala"
"hamlet","Nhamirimba","Nhamirimba","Nhamirimba","Nhamirimba","Mozambique","Zambezia","Mopeia","Posto Campo","Luala"
"hamlet","Paz","Paz","Paz","Paz","Mozambique","Zambezia","Mopeia","Posto Campo","Luala"
"hamlet","Rimba","Rimba","Rimba","Rimba","Mozambique","Zambezia","Mopeia","Posto Campo","Luala"
"hamlet","Simogo","Simogo","Simogo","Simogo","Mozambique","Zambezia","Mopeia","Posto Campo","Luala"
"hamlet","Sitone","Sitone","Sitone","Sitone","Mozambique","Zambezia","Mopeia","Posto Campo","Luala"
"hamlet","Other","Other","Outro","Nyingine","Mozambique","Zambezia","Mopeia","Posto Campo","Luala"
"hamlet","Compone","Compone","Compone","Compone","Mozambique","Zambezia","Mopeia","Posto Campo","Mungane"
"hamlet","Guia","Guia","Guia","Guia","Mozambique","Zambezia","Mopeia","Posto Campo","Mungane"
"hamlet","Luala","Luala","Luala","Luala","Mozambique","Zambezia","Mopeia","Posto Campo","Mungane"
"hamlet","Micajune","Micajune","Micajune","Micajune","Mozambique","Zambezia","Mopeia","Posto Campo","Mungane"
"hamlet","Mipurene","Mipurene","Mipurene","Mipurene","Mozambique","Zambezia","Mopeia","Posto Campo","Mungane"
"hamlet","Mirerene","Mirerene","Mirerene","Mirerene","Mozambique","Zambezia","Mopeia","Posto Campo","Mungane"
"hamlet","Muanamaino","Muanamaino","Muanamaino","Muanamaino","Mozambique","Zambezia","Mopeia","Posto Campo","Mungane"
"hamlet","Namicole","Namicole","Namicole","Namicole","Mozambique","Zambezia","Mopeia","Posto Campo","Mungane"
"hamlet","Pambane","Pambane","Pambane","Pambane","Mozambique","Zambezia","Mopeia","Posto Campo","Mungane"
"hamlet","Vareia","Vareia","Vareia","Vareia","Mozambique","Zambezia","Mopeia","Posto Campo","Mungane"
"hamlet","Zengue","Zengue","Zengue","Zengue","Mozambique","Zambezia","Mopeia","Posto Campo","Mungane"
"hamlet","Other","Other","Outro","Nyingine","Mozambique","Zambezia","Mopeia","Posto Campo","Mungane"
"hamlet","Other","Other","Outro","Nyingine","Mozambique","Zambezia","Mopeia","Posto Campo","Other"
"hamlet","1 de Maio","1 de Maio","1 de Maio","1 de Maio","Mozambique","Zambezia","Mopeia","Sambalendo","Sambalendo"
"hamlet","25 de Setembro","25 de Setembro","25 de Setembro","25 de Setembro","Mozambique","Zambezia","Mopeia","Sambalendo","Sambalendo"
"hamlet","3 de Fevereiro","3 de Fevereiro","3 de Fevereiro","3 de Fevereiro","Mozambique","Zambezia","Mopeia","Sambalendo","Sambalendo"
"hamlet","7 de Setembro","7 de Setembro","7 de Setembro","7 de Setembro","Mozambique","Zambezia","Mopeia","Sambalendo","Sambalendo"
"hamlet","Acordos de Lusaka","Acordos de Lusaka","Acordos de Lusaka","Acordos de Lusaka","Mozambique","Zambezia","Mopeia","Sambalendo","Sambalendo"
"hamlet","Agostinho Neto","Agostinho Neto","Agostinho Neto","Agostinho Neto","Mozambique","Zambezia","Mopeia","Sambalendo","Sambalendo"
"hamlet","Armando Emilio Guebuza","Armando Emilio Guebuza","Armando Emilio Guebuza","Armando Emilio Guebuza","Mozambique","Zambezia","Mopeia","Sambalendo","Sambalendo"
"hamlet","Braz","Braz","Braz","Braz","Mozambique","Zambezia","Mopeia","Sambalendo","Sambalendo"
"hamlet","Chimuara Sede","Chimuara Sede","Chimuara Sede","Chimuara Sede","Mozambique","Zambezia","Mopeia","Sambalendo","Sambalendo"
"hamlet","Chitucotuco","Chitucotuco","Chitucotuco","Chitucotuco","Mozambique","Zambezia","Mopeia","Sambalendo","Sambalendo"
"hamlet","Chizimba","Chizimba","Chizimba","Chizimba","Mozambique","Zambezia","Mopeia","Sambalendo","Sambalendo"
"hamlet","Cimento","Cimento","Cimento","Cimento","Mozambique","Zambezia","Mopeia","Sambalendo","Sambalendo"
"hamlet","Coyowe","Coyowe","Coyowe","Coyowe","Mozambique","Zambezia","Mopeia","Sambalendo","Sambalendo"
"hamlet","Eduardo Mondlane","Eduardo Mondlane","Eduardo Mondlane","Eduardo Mondlane","Mozambique","Zambezia","Mopeia","Sambalendo","Sambalendo"
"hamlet","Fardo","Fardo","Fardo","Fardo","Mozambique","Zambezia","Mopeia","Sambalendo","Sambalendo"
"hamlet","Gulamo","Gulamo","Gulamo","Gulamo","Mozambique","Zambezia","Mopeia","Sambalendo","Sambalendo"
"hamlet","Janeiro","Janeiro","Janeiro","Janeiro","Mozambique","Zambezia","Mopeia","Sambalendo","Sambalendo"
"hamlet","Josina Machel","Josina Machel","Josina Machel","Josina Machel","Mozambique","Zambezia","Mopeia","Sambalendo","Sambalendo"
"hamlet","Julius Nyerere","Julius Nyerere","Julius Nyerere","Julius Nyerere","Mozambique","Zambezia","Mopeia","Sambalendo","Sambalendo"
"hamlet","Liberdade","Liberdade","Liberdade","Liberdade","Mozambique","Zambezia","Mopeia","Sambalendo","Sambalendo"
"hamlet","Magaio","Magaio","Magaio","Magaio","Mozambique","Zambezia","Mopeia","Sambalendo","Sambalendo"
"hamlet","Mambucha","Mambucha","Mambucha","Mambucha","Mozambique","Zambezia","Mopeia","Sambalendo","Sambalendo"
"hamlet","Mandawa","Mandawa","Mandawa","Mandawa","Mozambique","Zambezia","Mopeia","Sambalendo","Sambalendo"
"hamlet","Mefula","Mefula","Mefula","Mefula","Mozambique","Zambezia","Mopeia","Sambalendo","Sambalendo"
"hamlet","Minjale","Minjale","Minjale","Minjale","Mozambique","Zambezia","Mopeia","Sambalendo","Sambalendo"
"hamlet","Namigonhane","Namigonhane","Namigonhane","Namigonhane","Mozambique","Zambezia","Mopeia","Sambalendo","Sambalendo"
"hamlet","Navena","Navena","Navena","Navena","Mozambique","Zambezia","Mopeia","Sambalendo","Sambalendo"
"hamlet","Ncomati","Ncomati","Ncomati","Ncomati","Mozambique","Zambezia","Mopeia","Sambalendo","Sambalendo"
"hamlet","Nhacatundo","Nhacatundo","Nhacatundo","Nhacatundo","Mozambique","Zambezia","Mopeia","Sambalendo","Sambalendo"
"hamlet","Nhamingulo","Nhamingulo","Nhamingulo","Nhamingulo","Mozambique","Zambezia","Mopeia","Sambalendo","Sambalendo"
"hamlet","Nhamipama","Nhamipama","Nhamipama","Nhamipama","Mozambique","Zambezia","Mopeia","Sambalendo","Sambalendo"
"hamlet","Nhamirere","Nhamirere","Nhamirere","Nhamirere","Mozambique","Zambezia","Mopeia","Sambalendo","Sambalendo"
"hamlet","Nhamizinga","Nhamizinga","Nhamizinga","Nhamizinga","Mozambique","Zambezia","Mopeia","Sambalendo","Sambalendo"
"hamlet","Nhanga","Nhanga","Nhanga","Nhanga","Mozambique","Zambezia","Mopeia","Sambalendo","Sambalendo"
"hamlet","Noere","Noere","Noere","Noere","Mozambique","Zambezia","Mopeia","Sambalendo","Sambalendo"
"hamlet","Nsussa","Nsussa","Nsussa","Nsussa","Mozambique","Zambezia","Mopeia","Sambalendo","Sambalendo"
"hamlet","Nzanza Sede","Nzanza Sede","Nzanza Sede","Nzanza Sede","Mozambique","Zambezia","Mopeia","Sambalendo","Sambalendo"
"hamlet","Quembo","Quembo","Quembo","Quembo","Mozambique","Zambezia","Mopeia","Sambalendo","Sambalendo"
"hamlet","Sambalendo","Sambalendo","Sambalendo","Sambalendo","Mozambique","Zambezia","Mopeia","Sambalendo","Sambalendo"
"hamlet","Sambane","Sambane","Sambane","Sambane","Mozambique","Zambezia","Mopeia","Sambalendo","Sambalendo"
"hamlet","Samora Machel","Samora Machel","Samora Machel","Samora Machel","Mozambique","Zambezia","Mopeia","Sambalendo","Sambalendo"
"hamlet","Sangate","Sangate","Sangate","Sangate","Mozambique","Zambezia","Mopeia","Sambalendo","Sambalendo"
"hamlet","Sassune","Sassune","Sassune","Sassune","Mozambique","Zambezia","Mopeia","Sambalendo","Sambalendo"
"hamlet","Soares","Soares","Soares","Soares","Mozambique","Zambezia","Mopeia","Sambalendo","Sambalendo"
"hamlet","Somopo","Somopo","Somopo","Somopo","Mozambique","Zambezia","Mopeia","Sambalendo","Sambalendo"
"hamlet","Taibo","Taibo","Taibo","Taibo","Mozambique","Zambezia","Mopeia","Sambalendo","Sambalendo"
"hamlet","Valeta","Valeta","Valeta","Valeta","Mozambique","Zambezia","Mopeia","Sambalendo","Sambalendo"
"hamlet","Other","Other","Outro","Nyingine","Mozambique","Zambezia","Mopeia","Sambalendo","Sambalendo"
"hamlet","Other","Other","Outro","Nyingine","Mozambique","Zambezia","Mopeia","Sambalendo","Other"
"hamlet","Mkundi","Mkundi","Mkundi","Mkundi","Tanzania","Pwani","Kibiti DC","Bungu","Bungu A"
"hamlet","Mwenge","Mwenge","Mwenge","Mwenge","Tanzania","Pwani","Kibiti DC","Bungu","Bungu A"
"hamlet","Mwongozo","Mwongozo","Mwongozo","Mwongozo","Tanzania","Pwani","Kibiti DC","Bungu","Bungu A"
"hamlet","Nyamango","Nyamango","Nyamango","Nyamango","Tanzania","Pwani","Kibiti DC","Bungu","Bungu A"
"hamlet","Other","Other","Outro","Nyingine","Tanzania","Pwani","Kibiti DC","Bungu","Bungu A"
"hamlet","Kibaoni","Kibaoni","Kibaoni","Kibaoni","Tanzania","Pwani","Kibiti DC","Bungu","Bungu B"
"hamlet","Kibwibwi","Kibwibwi","Kibwibwi","Kibwibwi","Tanzania","Pwani","Kibiti DC","Bungu","Bungu B"
"hamlet","Kinyamale","Kinyamale","Kinyamale","Kinyamale","Tanzania","Pwani","Kibiti DC","Bungu","Bungu B"
"hamlet","Kipenya","Kipenya","Kipenya","Kipenya","Tanzania","Pwani","Kibiti DC","Bungu","Bungu B"
"hamlet","Kitula","Kitula","Kitula","Kitula","Tanzania","Pwani","Kibiti DC","Bungu","Bungu B"
"hamlet","Other","Other","Outro","Nyingine","Tanzania","Pwani","Kibiti DC","Bungu","Bungu B"
"hamlet","Azimio","Azimio","Azimio","Azimio","Tanzania","Pwani","Kibiti DC","Bungu","Mangombela"
"hamlet","Nyamango","Nyamango","Nyamango","Nyamango","Tanzania","Pwani","Kibiti DC","Bungu","Mangombela"
"hamlet","Other","Other","Outro","Nyingine","Tanzania","Pwani","Kibiti DC","Bungu","Mangombela"
"hamlet","Bungu 'B'","Bungu 'B'","Bungu 'B'","Bungu 'B'","Tanzania","Pwani","Kibiti DC","Bungu","Msafiri"
"hamlet","Msafiri","Msafiri","Msafiri","Msafiri","Tanzania","Pwani","Kibiti DC","Bungu","Msafiri"
"hamlet","Ngongoloka","Ngongoloka","Ngongoloka","Ngongoloka","Tanzania","Pwani","Kibiti DC","Bungu","Msafiri"
"hamlet","Nyakilo","Nyakilo","Nyakilo","Nyakilo","Tanzania","Pwani","Kibiti DC","Bungu","Msafiri"
"hamlet","Zumbe","Zumbe","Zumbe","Zumbe","Tanzania","Pwani","Kibiti DC","Bungu","Msafiri"
"hamlet","Other","Other","Outro","Nyingine","Tanzania","Pwani","Kibiti DC","Bungu","Msafiri"
"hamlet","Dungutu","Dungutu","Dungutu","Dungutu","Tanzania","Pwani","Kibiti DC","Bungu","Nyambili"
"hamlet","Nyambili Kaskazini","Nyambili Kaskazini","Nyambili Kaskazini","Nyambili Kaskazini","Tanzania","Pwani","Kibiti DC","Bungu","Nyambili"
"hamlet","Nyambili Kusini","Nyambili Kusini","Nyambili Kusini","Nyambili Kusini","Tanzania","Pwani","Kibiti DC","Bungu","Nyambili"
"hamlet","Other","Other","Outro","Nyingine","Tanzania","Pwani","Kibiti DC","Bungu","Nyambili"
"hamlet","Besabu","Besabu","Besabu","Besabu","Tanzania","Pwani","Kibiti DC","Bungu","Nyambunda"
"hamlet","Mkwandara","Mkwandara","Mkwandara","Mkwandara","Tanzania","Pwani","Kibiti DC","Bungu","Nyambunda"
"hamlet","Nangundu","Nangundu","Nangundu","Nangundu","Tanzania","Pwani","Kibiti DC","Bungu","Nyambunda"
"hamlet","Other","Other","Outro","Nyingine","Tanzania","Pwani","Kibiti DC","Bungu","Nyambunda"
"hamlet","Lugome","Lugome","Lugome","Lugome","Tanzania","Pwani","Kibiti DC","Bungu","Pagae"
"hamlet","Mkale","Mkale","Mkale","Mkale","Tanzania","Pwani","Kibiti DC","Bungu","Pagae"
"hamlet","Nyameku","Nyameku","Nyameku","Nyameku","Tanzania","Pwani","Kibiti DC","Bungu","Pagae"
"hamlet","Undembo","Undembo","Undembo","Undembo","Tanzania","Pwani","Kibiti DC","Bungu","Pagae"
"hamlet","Other","Other","Outro","Nyingine","Tanzania","Pwani","Kibiti DC","Bungu","Pagae"
"hamlet","Other","Other","Outro","Nyingine","Tanzania","Pwani","Kibiti DC","Bungu","Other"
"hamlet","Bondeni","Bondeni","Bondeni","Bondeni","Tanzania","Pwani","Kibiti DC","Dimani","Bondeni"
"hamlet","Other","Other","Outro","Nyingine","Tanzania","Pwani","Kibiti DC","Dimani","Bondeni"
"hamlet","Dimani","Dimani","Dimani","Dimani","Tanzania","Pwani","Kibiti DC","Dimani","Dimani"
"hamlet","Other","Other","Outro","Nyingine","Tanzania","Pwani","Kibiti DC","Dimani","Dimani"
"hamlet","Dimani A","Dimani A","Dimani A","Dimani A","Tanzania","Pwani","Kibiti DC","Dimani","Dimani A"
"hamlet","Other","Other","Outro","Nyingine","Tanzania","Pwani","Kibiti DC","Dimani","Dimani A"
"hamlet","Dimani B","Dimani B","Dimani B","Dimani B","Tanzania","Pwani","Kibiti DC","Dimani","Dimani B"
"hamlet","Other","Other","Outro","Nyingine","Tanzania","Pwani","Kibiti DC","Dimani","Dimani B"
"hamlet","Kilimbili","Kilimbili","Kilimbili","Kilimbili","Tanzania","Pwani","Kibiti DC","Dimani","Kilimbili"
"hamlet","Other","Other","Outro","Nyingine","Tanzania","Pwani","Kibiti DC","Dimani","Kilimbili"
"hamlet","Kimbuga","Kimbuga","Kimbuga","Kimbuga","Tanzania","Pwani","Kibiti DC","Dimani","Kimbuga"
"hamlet","Other","Other","Outro","Nyingine","Tanzania","Pwani","Kibiti DC","Dimani","Kimbuga"
"hamlet","Ng'ambo","Ng'ambo","Ng'ambo","Ng'ambo","Tanzania","Pwani","Kibiti DC","Dimani","Ng'ambo"
"hamlet","Other","Other","Outro","Nyingine","Tanzania","Pwani","Kibiti DC","Dimani","Ng'ambo"
"hamlet","Ngulakula","Ngulakula","Ngulakula","Ngulakula","Tanzania","Pwani","Kibiti DC","Dimani","Ngulakula"
"hamlet","Other","Other","Outro","Nyingine","Tanzania","Pwani","Kibiti DC","Dimani","Ngulakula"
"hamlet","Nyambangala","Nyambangala","Nyambangala","Nyambangala","Tanzania","Pwani","Kibiti DC","Dimani","Nyambangala"
"hamlet","Other","Other","Outro","Nyingine","Tanzania","Pwani","Kibiti DC","Dimani","Nyambangala"
"hamlet","Penda","Penda","Penda","Penda","Tanzania","Pwani","Kibiti DC","Dimani","Penda"
"hamlet","Other","Other","Outro","Nyingine","Tanzania","Pwani","Kibiti DC","Dimani","Penda"
"hamlet","Penda-Kimbuga","Penda-Kimbuga","Penda-Kimbuga","Penda-Kimbuga","Tanzania","Pwani","Kibiti DC","Dimani","Penda-kimbuga"
"hamlet","Other","Other","Outro","Nyingine","Tanzania","Pwani","Kibiti DC","Dimani","Penda-kimbuga"
"hamlet","Penda-Miwaga","Penda-Miwaga","Penda-Miwaga","Penda-Miwaga","Tanzania","Pwani","Kibiti DC","Dimani","Penda-miwaga"
"hamlet","Other","Other","Outro","Nyingine","Tanzania","Pwani","Kibiti DC","Dimani","Penda-miwaga"
"hamlet","Other","Other","Outro","Nyingine","Tanzania","Pwani","Kibiti DC","Dimani","Other"
"hamlet","Kibiti Kati","Kibiti Kati","Kibiti Kati","Kibiti Kati","Tanzania","Pwani","Kibiti DC","Kibiti","Kibiti Kati"
"hamlet","Other","Other","Outro","Nyingine","Tanzania","Pwani","Kibiti DC","Kibiti","Kibiti Kati"
"hamlet","Kibiti Kusini","Kibiti Kusini","Kibiti Kusini","Kibiti Kusini","Tanzania","Pwani","Kibiti DC","Kibiti","Kibiti Kusini"
"hamlet","Other","Other","Outro","Nyingine","Tanzania","Pwani","Kibiti DC","Kibiti","Kibiti Kusini"
"hamlet","Kingwira","Kingwira","Kingwira","Kingwira","Tanzania","Pwani","Kibiti DC","Kibiti","Kingwira"
"hamlet","Other","Other","Outro","Nyingine","Tanzania","Pwani","Kibiti DC","Kibiti","Kingwira"
"hamlet","Kitembo","Kitembo","Kitembo","Kitembo","Tanzania","Pwani","Kibiti DC","Kibiti","Kitembo"
"hamlet","Other","Other","Outro","Nyingine","Tanzania","Pwani","Kibiti DC","Kibiti","Kitembo"
"hamlet","Lumionzi","Lumionzi","Lumionzi","Lumionzi","Tanzania","Pwani","Kibiti DC","Kibiti","Lumionzi"
"hamlet","Other","Other","Outro","Nyingine","Tanzania","Pwani","Kibiti DC","Kibiti","Lumionzi"
"hamlet","Makaoni","Makaoni","Makaoni","Makaoni","Tanzania","Pwani","Kibiti DC","Kibiti","Makaoni"
"hamlet","Other","Other","Outro","Nyingine","Tanzania","Pwani","Kibiti DC","Kibiti","Makaoni"
"hamlet","Mbebetini","Mbebetini","Mbebetini","Mbebetini","Tanzania","Pwani","Kibiti DC","Kibiti","Mbebetini"
"hamlet","Other","Other","Outro","Nyingine","Tanzania","Pwani","Kibiti DC","Kibiti","Mbebetini"
"hamlet","Mkubuge","Mkubuge","Mkubuge","Mkubuge","Tanzania","Pwani","Kibiti DC","Kibiti","Mkubuge"
"hamlet","Other","Other","Outro","Nyingine","Tanzania","Pwani","Kibiti DC","Kibiti","Mkubuge"
"hamlet","Mkundi","Mkundi","Mkundi","Mkundi","Tanzania","Pwani","Kibiti DC","Kibiti","Mkundi"
"hamlet","Other","Other","Outro","Nyingine","Tanzania","Pwani","Kibiti DC","Kibiti","Mkundi"
"hamlet","Mkupuka","Mkupuka","Mkupuka","Mkupuka","Tanzania","Pwani","Kibiti DC","Kibiti","Mkupuka"
"hamlet","Other","Other","Outro","Nyingine","Tanzania","Pwani","Kibiti DC","Kibiti","Mkupuka"
"hamlet","Nyamakingili","Nyamakingili","Nyamakingili","Nyamakingili","Tanzania","Pwani","Kibiti DC","Kibiti","Nyamakingili"
"hamlet","Other","Other","Outro","Nyingine","Tanzania","Pwani","Kibiti DC","Kibiti","Nyamakingili"
"hamlet","Nyangwego","Nyangwego","Nyangwego","Nyangwego","Tanzania","Pwani","Kibiti DC","Kibiti","Nyangwego"
"hamlet","Other","Other","Outro","Nyingine","Tanzania","Pwani","Kibiti DC","Kibiti","Nyangwego"
"hamlet","Nyatanga","Nyatanga","Nyatanga","Nyatanga","Tanzania","Pwani","Kibiti DC","Kibiti","Nyatanga"
"hamlet","Other","Other","Outro","Nyingine","Tanzania","Pwani","Kibiti DC","Kibiti","Nyatanga"
"hamlet","Lumiozi","Lumiozi","Lumiozi","Lumiozi","Tanzania","Pwani","Kibiti DC","Kibiti","Runyozi"
"hamlet","Other","Other","Outro","Nyingine","Tanzania","Pwani","Kibiti DC","Kibiti","Runyozi"
"hamlet","Sokoni","Sokoni","Sokoni","Sokoni","Tanzania","Pwani","Kibiti DC","Kibiti","Sokoni"
"hamlet","Other","Other","Outro","Nyingine","Tanzania","Pwani","Kibiti DC","Kibiti","Sokoni"
"hamlet","Zimbwini","Zimbwini","Zimbwini","Zimbwini","Tanzania","Pwani","Kibiti DC","Kibiti","Zimbwini"
"hamlet","Other","Other","Outro","Nyingine","Tanzania","Pwani","Kibiti DC","Kibiti","Zimbwini"
"hamlet","Other","Other","Outro","Nyingine","Tanzania","Pwani","Kibiti DC","Kibiti","Other"
"hamlet","Bumbuamani","Bumbuamani","Bumbuamani","Bumbuamani","Tanzania","Pwani","Kibiti DC","Kiongoroni","Jaja"
"hamlet","Kitongani","Kitongani","Kitongani","Kitongani","Tanzania","Pwani","Kibiti DC","Kiongoroni","Jaja"
"hamlet","Mjimwema","Mjimwema","Mjimwema","Mjimwema","Tanzania","Pwani","Kibiti DC","Kiongoroni","Jaja"
"hamlet","Other","Other","Outro","Nyingine","Tanzania","Pwani","Kibiti DC","Kiongoroni","Jaja"
"hamlet","Bweni","Bweni","Bweni","Bweni","Tanzania","Pwani","Kibiti DC","Kiongoroni","Kiongoroni"
"hamlet","Makwende","Makwende","Makwende","Makwende","Tanzania","Pwani","Kibiti DC","Kiongoroni","Kiongoroni"
"hamlet","Nyaobe","Nyaobe","Nyaobe","Nyaobe","Tanzania","Pwani","Kibiti DC","Kiongoroni","Kiongoroni"
"hamlet","Other","Other","Outro","Nyingine","Tanzania","Pwani","Kibiti DC","Kiongoroni","Kiongoroni"
"hamlet","Kilambani","Kilambani","Kilambani","Kilambani","Tanzania","Pwani","Kibiti DC","Kiongoroni","Pombwe"
"hamlet","Mbungwi","Mbungwi","Mbungwi","Mbungwi","Tanzania","Pwani","Kibiti DC","Kiongoroni","Pombwe"
"hamlet","Pombwe kubwa","Pombwe kubwa","Pombwe kubwa","Pombwe kubwa","Tanzania","Pwani","Kibiti DC","Kiongoroni","Pombwe"
"hamlet","Suni","Suni","Suni","Suni","Tanzania","Pwani","Kibiti DC","Kiongoroni","Pombwe"
"hamlet","Other","Other","Outro","Nyingine","Tanzania","Pwani","Kibiti DC","Kiongoroni","Pombwe"
"hamlet","Bandarini","Bandarini","Bandarini","Bandarini","Tanzania","Pwani","Kibiti DC","Kiongoroni","Ruma"
"hamlet","Emelwa","Emelwa","Emelwa","Emelwa","Tanzania","Pwani","Kibiti DC","Kiongoroni","Ruma"
"hamlet","King'ongo","King'ongo","King'ongo","King'ongo","Tanzania","Pwani","Kibiti DC","Kiongoroni","Ruma"
"hamlet","Mtanga","Mtanga","Mtanga","Mtanga","Tanzania","Pwani","Kibiti DC","Kiongoroni","Ruma"
"hamlet","Nyamikamba","Nyamikamba","Nyamikamba","Nyamikamba","Tanzania","Pwani","Kibiti DC","Kiongoroni","Ruma"
"hamlet","Other","Other","Outro","Nyingine","Tanzania","Pwani","Kibiti DC","Kiongoroni","Ruma"
"hamlet","Other","Other","Outro","Nyingine","Tanzania","Pwani","Kibiti DC","Kiongoroni","Other"
"hamlet","Kimbogo","Kimbogo","Kimbogo","Kimbogo","Tanzania","Pwani","Kibiti DC","Mahege","Hanga"
"hamlet","Mkima","Mkima","Mkima","Mkima","Tanzania","Pwani","Kibiti DC","Mahege","Hanga"
"hamlet","Ngambe","Ngambe","Ngambe","Ngambe","Tanzania","Pwani","Kibiti DC","Mahege","Hanga"
"hamlet","Nyambwanda","Nyambwanda","Nyambwanda","Nyambwanda","Tanzania","Pwani","Kibiti DC","Mahege","Hanga"
"hamlet","Other","Other","Outro","Nyingine","Tanzania","Pwani","Kibiti DC","Mahege","Hanga"
"hamlet","Mawichi","Mawichi","Mawichi","Mawichi","Tanzania","Pwani","Kibiti DC","Mahege","Mahege"
"hamlet","Mtambwe","Mtambwe","Mtambwe","Mtambwe","Tanzania","Pwani","Kibiti DC","Mahege","Mahege"
"hamlet","Nyamkingia","Nyamkingia","Nyamkingia","Nyamkingia","Tanzania","Pwani","Kibiti DC","Mahege","Mahege"
"hamlet","Umba","Umba","Umba","Umba","Tanzania","Pwani","Kibiti DC","Mahege","Mahege"
"hamlet","Other","Other","Outro","Nyingine","Tanzania","Pwani","Kibiti DC","Mahege","Mahege"
"hamlet","Ngondae/Mlete","Ngondae/Mlete","Ngondae/Mlete","Ngondae/Mlete","Tanzania","Pwani","Kibiti DC","Mahege","Nyakinyo"
"hamlet","Soso/Nyakinyo","Soso/Nyakinyo","Soso/Nyakinyo","Soso/Nyakinyo","Tanzania","Pwani","Kibiti DC","Mahege","Nyakinyo"
"hamlet","Other","Other","Outro","Nyingine","Tanzania","Pwani","Kibiti DC","Mahege","Nyakinyo"
"hamlet","Mapinduzi","Mapinduzi","Mapinduzi","Mapinduzi","Tanzania","Pwani","Kibiti DC","Mahege","Nyanjati"
"hamlet","Mrema","Mrema","Mrema","Mrema","Tanzania","Pwani","Kibiti DC","Mahege","Nyanjati"
"hamlet","Mwinyi","Mwinyi","Mwinyi","Mwinyi","Tanzania","Pwani","Kibiti DC","Mahege","Nyanjati"
"hamlet","Nyerere","Nyerere","Nyerere","Nyerere","Tanzania","Pwani","Kibiti DC","Mahege","Nyanjati"
"hamlet","Saudia","Saudia","Saudia","Saudia","Tanzania","Pwani","Kibiti DC","Mahege","Nyanjati"
"hamlet","Sokoine","Sokoine","Sokoine","Sokoine","Tanzania","Pwani","Kibiti DC","Mahege","Nyanjati"
"hamlet","Other","Other","Outro","Nyingine","Tanzania","Pwani","Kibiti DC","Mahege","Nyanjati"
"hamlet","Halisi","Halisi","Halisi","Halisi","Tanzania","Pwani","Kibiti DC","Mahege","Tomoni"
"hamlet","Mibuyusaba","Mibuyusaba","Mibuyusaba","Mibuyusaba","Tanzania","Pwani","Kibiti DC","Mahege","Tomoni"
"hamlet","Mkali","Mkali","Mkali","Mkali","Tanzania","Pwani","Kibiti DC","Mahege","Tomoni"
"hamlet","Nyakikongo","Nyakikongo","Nyakikongo","Nyakikongo","Tanzania","Pwani","Kibiti DC","Mahege","Tomoni"
"hamlet","Other","Other","Outro","Nyingine","Tanzania","Pwani","Kibiti DC","Mahege","Tomoni"
"hamlet","Other","Other","Outro","Nyingine","Tanzania","Pwani","Kibiti DC","Mahege","Other"
"hamlet","Kati","Kati","Kati","Kati","Tanzania","Pwani","Kibiti DC","Maparoni","Kiechuru"
"hamlet","Kityanga","Kityanga","Kityanga","Kityanga","Tanzania","Pwani","Kibiti DC","Maparoni","Kiechuru"
"hamlet","Korongo","Korongo","Korongo","Korongo","Tanzania","Pwani","Kibiti DC","Maparoni","Kiechuru"
"hamlet","Mgambo","Mgambo","Mgambo","Mgambo","Tanzania","Pwani","Kibiti DC","Maparoni","Kiechuru"
"hamlet","Other","Other","Outro","Nyingine","Tanzania","Pwani","Kibiti DC","Maparoni","Kiechuru"
"hamlet","Gingi","Gingi","Gingi","Gingi","Tanzania","Pwani","Kibiti DC","Maparoni","Maparoni"
"hamlet","Mbangani","Mbangani","Mbangani","Mbangani","Tanzania","Pwani","Kibiti DC","Maparoni","Maparoni"
"hamlet","Tuwa","Tuwa","Tuwa","Tuwa","Tanzania","Pwani","Kibiti DC","Maparoni","Maparoni"
"hamlet","Usimbe kiwanjani","Usimbe kiwanjani","Usimbe kiwanjani","Usimbe kiwanjani","Tanzania","Pwani","Kibiti DC","Maparoni","Maparoni"
"hamlet","Usimbekidoga","Usimbekidoga","Usimbekidoga","Usimbekidoga","Tanzania","Pwani","Kibiti DC","Maparoni","Maparoni"
"hamlet","Other","Other","Outro","Nyingine","Tanzania","Pwani","Kibiti DC","Maparoni","Maparoni"
"hamlet","Other","Other","Outro","Nyingine","Tanzania","Pwani","Kibiti DC","Maparoni","Other"
"hamlet","Barabarani","Barabarani","Barabarani","Barabarani","Tanzania","Pwani","Kibiti DC","Mbuchi","Mbuchi"
"hamlet","Kipoka","Kipoka","Kipoka","Kipoka","Tanzania","Pwani","Kibiti DC","Mbuchi","Mbuchi"
"hamlet","Kitingi","Kitingi","Kitingi","Kitingi","Tanzania","Pwani","Kibiti DC","Mbuchi","Mbuchi"
"hamlet","Makongoro","Makongoro","Makongoro","Makongoro","Tanzania","Pwani","Kibiti DC","Mbuchi","Mbuchi"
"hamlet","Mikwang'ombe","Mikwang'ombe","Mikwang'ombe","Mikwang'ombe","Tanzania","Pwani","Kibiti DC","Mbuchi","Mbuchi"
"hamlet","Mnganje","Mnganje","Mnganje","Mnganje","Tanzania","Pwani","Kibiti DC","Mbuchi","Mbuchi"
"hamlet","Other","Other","Outro","Nyingine","Tanzania","Pwani","Kibiti DC","Mbuchi","Mbuchi"
"hamlet","Doka","Doka","Doka","Doka","Tanzania","Pwani","Kibiti DC","Mbuchi","Mbwera Magharibi"
"hamlet","Kibumburu","Kibumburu","Kibumburu","Kibumburu","Tanzania","Pwani","Kibiti DC","Mbuchi","Mbwera Magharibi"
"hamlet","Kiiongoro","Kiiongoro","Kiiongoro","Kiiongoro","Tanzania","Pwani","Kibiti DC","Mbuchi","Mbwera Magharibi"
"hamlet","Kumbacha","Kumbacha","Kumbacha","Kumbacha","Tanzania","Pwani","Kibiti DC","Mbuchi","Mbwera Magharibi"
"hamlet","Mkepa","Mkepa","Mkepa","Mkepa","Tanzania","Pwani","Kibiti DC","Mbuchi","Mbwera Magharibi"
"hamlet","Mkurumu","Mkurumu","Mkurumu","Mkurumu","Tanzania","Pwani","Kibiti DC","Mbuchi","Mbwera Magharibi"
"hamlet","Mtawatawa","Mtawatawa","Mtawatawa","Mtawatawa","Tanzania","Pwani","Kibiti DC","Mbuchi","Mbwera Magharibi"
"hamlet","Other","Other","Outro","Nyingine","Tanzania","Pwani","Kibiti DC","Mbuchi","Mbwera Magharibi"
"hamlet","Marongoni","Marongoni","Marongoni","Marongoni","Tanzania","Pwani","Kibiti DC","Mbuchi","Mbwera Mashariki"
"hamlet","Mbumburu","Mbumburu","Mbumburu","Mbumburu","Tanzania","Pwani","Kibiti DC","Mbuchi","Mbwera Mashariki"
"hamlet","Mdai","Mdai","Mdai","Mdai","Tanzania","Pwani","Kibiti DC","Mbuchi","Mbwera Mashariki"
"hamlet","Mkirika","Mkirika","Mkirika","Mkirika","Tanzania","Pwani","Kibiti DC","Mbuchi","Mbwera Mashariki"
"hamlet","Other","Other","Outro","Nyingine","Tanzania","Pwani","Kibiti DC","Mbuchi","Mbwera Mashariki"
"hamlet","Other","Other","Outro","Nyingine","Tanzania","Pwani","Kibiti DC","Mbuchi","Other"
"hamlet","Misimbo","Misimbo","Misimbo","Misimbo","Tanzania","Pwani","Kibiti DC","Mchukwi","Mangwi"
"hamlet","Mnyongoya","Mnyongoya","Mnyongoya","Mnyongoya","Tanzania","Pwani","Kibiti DC","Mchukwi","Mangwi"
"hamlet","Rondo","Rondo","Rondo","Rondo","Tanzania","Pwani","Kibiti DC","Mchukwi","Mangwi"
"hamlet","Other","Other","Outro","Nyingine","Tanzania","Pwani","Kibiti DC","Mchukwi","Mangwi"
"hamlet","Matimbwani","Matimbwani","Matimbwani","Matimbwani","Tanzania","Pwani","Kibiti DC","Mchukwi","Mchukwi A"
"hamlet","Nyakaumbanga","Nyakaumbanga","Nyakaumbanga","Nyakaumbanga","Tanzania","Pwani","Kibiti DC","Mchukwi","Mchukwi A"
"hamlet","Nyamanjenga","Nyamanjenga","Nyamanjenga","Nyamanjenga","Tanzania","Pwani","Kibiti DC","Mchukwi","Mchukwi A"
"hamlet","Ujongoni","Ujongoni","Ujongoni","Ujongoni","Tanzania","Pwani","Kibiti DC","Mchukwi","Mchukwi A"
"hamlet","Ukitomondo","Ukitomondo","Ukitomondo","Ukitomondo","Tanzania","Pwani","Kibiti DC","Mchukwi","Mchukwi A"
"hamlet","Other","Other","Outro","Nyingine","Tanzania","Pwani","Kibiti DC","Mchukwi","Mchukwi A"
"hamlet","Kichangani","Kichangani","Kichangani","Kichangani","Tanzania","Pwani","Kibiti DC","Mchukwi","Mchukwi B"
"hamlet","Mbinda","Mbinda","Mbinda","Mbinda","Tanzania","Pwani","Kibiti DC","Mchukwi","Mchukwi B"
"hamlet","Miembeni","Miembeni","Miembeni","Miembeni","Tanzania","Pwani","Kibiti DC","Mchukwi","Mchukwi B"
"hamlet","Msikitini","Msikitini","Msikitini","Msikitini","Tanzania","Pwani","Kibiti DC","Mchukwi","Mchukwi B"
"hamlet","Nyaubi","Nyaubi","Nyaubi","Nyaubi","Tanzania","Pwani","Kibiti DC","Mchukwi","Mchukwi B"
"hamlet","Songa","Songa","Songa","Songa","Tanzania","Pwani","Kibiti DC","Mchukwi","Mchukwi B"
"hamlet","Other","Other","Outro","Nyingine","Tanzania","Pwani","Kibiti DC","Mchukwi","Mchukwi B"
"hamlet","Bani","Bani","Bani","Bani","Tanzania","Pwani","Kibiti DC","Mchukwi","Mkupuka"
"hamlet","Mkupuka","Mkupuka","Mkupuka","Mkupuka","Tanzania","Pwani","Kibiti DC","Mchukwi","Mkupuka"
"hamlet","Nyunga","Nyunga","Nyunga","Nyunga","Tanzania","Pwani","Kibiti DC","Mchukwi","Mkupuka"
"hamlet","Other","Other","Outro","Nyingine","Tanzania","Pwani","Kibiti DC","Mchukwi","Mkupuka"
"hamlet","Other","Other","Outro","Nyingine","Tanzania","Pwani","Kibiti DC","Mchukwi","Other"
"hamlet","Jiweni","Jiweni","Jiweni","Jiweni","Tanzania","Pwani","Kibiti DC","Mjawa","Jaribu Magharibi"
"hamlet","Kibuyuni","Kibuyuni","Kibuyuni","Kibuyuni","Tanzania","Pwani","Kibiti DC","Mjawa","Jaribu Magharibi"
"hamlet","Mapinduzi","Mapinduzi","Mapinduzi","Mapinduzi","Tanzania","Pwani","Kibiti DC","Mjawa","Jaribu Magharibi"
"hamlet","Mkongoni","Mkongoni","Mkongoni","Mkongoni","Tanzania","Pwani","Kibiti DC","Mjawa","Jaribu Magharibi"
"hamlet","Other","Other","Outro","Nyingine","Tanzania","Pwani","Kibiti DC","Mjawa","Jaribu Magharibi"
"hamlet","Mikwala","Mikwala","Mikwala","Mikwala","Tanzania","Pwani","Kibiti DC","Mjawa","Jaribu Mpakani"
"hamlet","Motomoto","Motomoto","Motomoto","Motomoto","Tanzania","Pwani","Kibiti DC","Mjawa","Jaribu Mpakani"
"hamlet","Mtunda","Mtunda","Mtunda","Mtunda","Tanzania","Pwani","Kibiti DC","Mjawa","Jaribu Mpakani"
"hamlet","Muungano","Muungano","Muungano","Muungano","Tanzania","Pwani","Kibiti DC","Mjawa","Jaribu Mpakani"
"hamlet","Ujamaa","Ujamaa","Ujamaa","Ujamaa","Tanzania","Pwani","Kibiti DC","Mjawa","Jaribu Mpakani"
"hamlet","Other","Other","Outro","Nyingine","Tanzania","Pwani","Kibiti DC","Mjawa","Jaribu Mpakani"
"hamlet","Bonjo","Bonjo","Bonjo","Bonjo","Tanzania","Pwani","Kibiti DC","Mjawa","Mjawa"
"hamlet","Dutani","Dutani","Dutani","Dutani","Tanzania","Pwani","Kibiti DC","Mjawa","Mjawa"
"hamlet","Gosa","Gosa","Gosa","Gosa","Tanzania","Pwani","Kibiti DC","Mjawa","Mjawa"
"hamlet","Mtetani","Mtetani","Mtetani","Mtetani","Tanzania","Pwani","Kibiti DC","Mjawa","Mjawa"
"hamlet","Ngalemwa","Ngalemwa","Ngalemwa","Ngalemwa","Tanzania","Pwani","Kibiti DC","Mjawa","Mjawa"
"hamlet","Other","Other","Outro","Nyingine","Tanzania","Pwani","Kibiti DC","Mjawa","Mjawa"
"hamlet","Goloatanga","Goloatanga","Goloatanga","Goloatanga","Tanzania","Pwani","Kibiti DC","Mjawa","Motomoto"
"hamlet","Misogole","Misogole","Misogole","Misogole","Tanzania","Pwani","Kibiti DC","Mjawa","Motomoto"
"hamlet","Motomoto","Motomoto","Motomoto","Motomoto","Tanzania","Pwani","Kibiti DC","Mjawa","Motomoto"
"hamlet","Other","Other","Outro","Nyingine","Tanzania","Pwani","Kibiti DC","Mjawa","Motomoto"
"hamlet","Msega","Msega","Msega","Msega","Tanzania","Pwani","Kibiti DC","Mjawa","Ngalengwa"
"hamlet","Mtuluma","Mtuluma","Mtuluma","Mtuluma","Tanzania","Pwani","Kibiti DC","Mjawa","Ngalengwa"
"hamlet","Other","Other","Outro","Nyingine","Tanzania","Pwani","Kibiti DC","Mjawa","Ngalengwa"
"hamlet","Uchembe chini","Uchembe chini","Uchembe chini","Uchembe chini","Tanzania","Pwani","Kibiti DC","Mjawa","Uchembe"
"hamlet","Uchembe juu","Uchembe juu","Uchembe juu","Uchembe juu","Tanzania","Pwani","Kibiti DC","Mjawa","Uchembe"
"hamlet","Other","Other","Outro","Nyingine","Tanzania","Pwani","Kibiti DC","Mjawa","Uchembe"
"hamlet","Uchembe/Njianne","Uchembe/Njianne","Uchembe/Njianne","Uchembe/Njianne","Tanzania","Pwani","Kibiti DC","Mjawa","Uponda"
"hamlet","Uponda Chini","Uponda Chini","Uponda Chini","Uponda Chini","Tanzania","Pwani","Kibiti DC","Mjawa","Uponda"
"hamlet","Uponda Juu","Uponda Juu","Uponda Juu","Uponda Juu","Tanzania","Pwani","Kibiti DC","Mjawa","Uponda"
"hamlet","Other","Other","Outro","Nyingine","Tanzania","Pwani","Kibiti DC","Mjawa","Uponda"
"hamlet","Other","Other","Outro","Nyingine","Tanzania","Pwani","Kibiti DC","Mjawa","Other"
"hamlet","Kibuni","Kibuni","Kibuni","Kibuni","Tanzania","Pwani","Kibiti DC","Mlanzi","Machipi"
"hamlet","Mangimbwage","Mangimbwage","Mangimbwage","Mangimbwage","Tanzania","Pwani","Kibiti DC","Mlanzi","Machipi"
"hamlet","Msikitini","Msikitini","Msikitini","Msikitini","Tanzania","Pwani","Kibiti DC","Mlanzi","Machipi"
"hamlet","Ngonja","Ngonja","Ngonja","Ngonja","Tanzania","Pwani","Kibiti DC","Mlanzi","Machipi"
"hamlet","Ruanda","Ruanda","Ruanda","Ruanda","Tanzania","Pwani","Kibiti DC","Mlanzi","Machipi"
"hamlet","Other","Other","Outro","Nyingine","Tanzania","Pwani","Kibiti DC","Mlanzi","Machipi"
"hamlet","Bora","Bora","Bora","Bora","Tanzania","Pwani","Kibiti DC","Mlanzi","Mlanzi"
"hamlet","Kikimbili","Kikimbili","Kikimbili","Kikimbili","Tanzania","Pwani","Kibiti DC","Mlanzi","Mlanzi"
"hamlet","Kimbindu","Kimbindu","Kimbindu","Kimbindu","Tanzania","Pwani","Kibiti DC","Mlanzi","Mlanzi"
"hamlet","Kingweti","Kingweti","Kingweti","Kingweti","Tanzania","Pwani","Kibiti DC","Mlanzi","Mlanzi"
"hamlet","Like","Like","Like","Like","Tanzania","Pwani","Kibiti DC","Mlanzi","Mlanzi"
"hamlet","Milonzi","Milonzi","Milonzi","Milonzi","Tanzania","Pwani","Kibiti DC","Mlanzi","Mlanzi"
"hamlet","Mkwajuni","Mkwajuni","Mkwajuni","Mkwajuni","Tanzania","Pwani","Kibiti DC","Mlanzi","Mlanzi"
"hamlet","Mlanzi Magharibi","Mlanzi Magharibi","Mlanzi Magharibi","Mlanzi Magharibi","Tanzania","Pwani","Kibiti DC","Mlanzi","Mlanzi"
"hamlet","Mlanzi Mashariki","Mlanzi Mashariki","Mlanzi Mashariki","Mlanzi Mashariki","Tanzania","Pwani","Kibiti DC","Mlanzi","Mlanzi"
"hamlet","Other","Other","Outro","Nyingine","Tanzania","Pwani","Kibiti DC","Mlanzi","Mlanzi"
"hamlet","Bora","Bora","Bora","Bora","Tanzania","Pwani","Kibiti DC","Mlanzi","Ngondai"
"hamlet","Kilonji","Kilonji","Kilonji","Kilonji","Tanzania","Pwani","Kibiti DC","Mlanzi","Ngondai"
"hamlet","Ngondai","Ngondai","Ngondai","Ngondai","Tanzania","Pwani","Kibiti DC","Mlanzi","Ngondai"
"hamlet","Other","Other","Outro","Nyingine","Tanzania","Pwani","Kibiti DC","Mlanzi","Ngondai"
"hamlet","Malenda","Malenda","Malenda","Malenda","Tanzania","Pwani","Kibiti DC","Mlanzi","Nyamwimbe"
"hamlet","Malenda Halisi","Malenda Halisi","Malenda Halisi","Malenda Halisi","Tanzania","Pwani","Kibiti DC","Mlanzi","Nyamwimbe"
"hamlet","Miparani","Miparani","Miparani","Miparani","Tanzania","Pwani","Kibiti DC","Mlanzi","Nyamwimbe"
"hamlet","Nyelelo","Nyelelo","Nyelelo","Nyelelo","Tanzania","Pwani","Kibiti DC","Mlanzi","Nyamwimbe"
"hamlet","Umtanga","Umtanga","Umtanga","Umtanga","Tanzania","Pwani","Kibiti DC","Mlanzi","Nyamwimbe"
"hamlet","Other","Other","Outro","Nyingine","Tanzania","Pwani","Kibiti DC","Mlanzi","Nyamwimbe"
"hamlet","Other","Other","Outro","Nyingine","Tanzania","Pwani","Kibiti DC","Mlanzi","Other"
"hamlet","Nunu","Nunu","Nunu","Nunu","Tanzania","Pwani","Kibiti DC","Msala","Kiasi"
"hamlet","Nyunguni","Nyunguni","Nyunguni","Nyunguni","Tanzania","Pwani","Kibiti DC","Msala","Kiasi"
"hamlet","Plot","Plot","Plot","Plot","Tanzania","Pwani","Kibiti DC","Msala","Kiasi"
"hamlet","Uwandani","Uwandani","Uwandani","Uwandani","Tanzania","Pwani","Kibiti DC","Msala","Kiasi"
"hamlet","Other","Other","Outro","Nyingine","Tanzania","Pwani","Kibiti DC","Msala","Kiasi"
"hamlet","Majaliwa","Majaliwa","Majaliwa","Majaliwa","Tanzania","Pwani","Kibiti DC","Msala","Msala"
"hamlet","Mbaleni","Mbaleni","Mbaleni","Mbaleni","Tanzania","Pwani","Kibiti DC","Msala","Msala"
"hamlet","Mbomboni","Mbomboni","Mbomboni","Mbomboni","Tanzania","Pwani","Kibiti DC","Msala","Msala"
"hamlet","Ukongoro","Ukongoro","Ukongoro","Ukongoro","Tanzania","Pwani","Kibiti DC","Msala","Msala"
"hamlet","Wasamade","Wasamade","Wasamade","Wasamade","Tanzania","Pwani","Kibiti DC","Msala","Msala"
"hamlet","Other","Other","Outro","Nyingine","Tanzania","Pwani","Kibiti DC","Msala","Msala"
"hamlet","Domwe","Domwe","Domwe","Domwe","Tanzania","Pwani","Kibiti DC","Msala","Twasalie"
"hamlet","Kisimbya","Kisimbya","Kisimbya","Kisimbya","Tanzania","Pwani","Kibiti DC","Msala","Twasalie"
"hamlet","Nyahimba","Nyahimba","Nyahimba","Nyahimba","Tanzania","Pwani","Kibiti DC","Msala","Twasalie"
"hamlet","Plot","Plot","Plot","Plot","Tanzania","Pwani","Kibiti DC","Msala","Twasalie"
"hamlet","Taracho","Taracho","Taracho","Taracho","Tanzania","Pwani","Kibiti DC","Msala","Twasalie"
"hamlet","Other","Other","Outro","Nyingine","Tanzania","Pwani","Kibiti DC","Msala","Twasalie"
"hamlet","Other","Other","Outro","Nyingine","Tanzania","Pwani","Kibiti DC","Msala","Other"
"hamlet","Bumba","Bumba","Bumba","Bumba","Tanzania","Pwani","Kibiti DC","Mtawanya","Bumba"
"hamlet","Other","Other","Outro","Nyingine","Tanzania","Pwani","Kibiti DC","Mtawanya","Bumba"
"hamlet","Kilimbili","Kilimbili","Kilimbili","Kilimbili","Tanzania","Pwani","Kibiti DC","Mtawanya","Kilimbili"
"hamlet","Other","Other","Outro","Nyingine","Tanzania","Pwani","Kibiti DC","Mtawanya","Kilimbili"
"hamlet","Kinyanya Kati","Kinyanya Kati","Kinyanya Kati","Kinyanya Kati","Tanzania","Pwani","Kibiti DC","Mtawanya","Kinyanya Kati"
"hamlet","Other","Other","Outro","Nyingine","Tanzania","Pwani","Kibiti DC","Mtawanya","Kinyanya Kati"
"hamlet","Magogo matatu","Magogo matatu","Magogo matatu","Magogo matatu","Tanzania","Pwani","Kibiti DC","Mtawanya","Magogo Matatu"
"hamlet","Other","Other","Outro","Nyingine","Tanzania","Pwani","Kibiti DC","Mtawanya","Magogo Matatu"
"hamlet","Matumbi","Matumbi","Matumbi","Matumbi","Tanzania","Pwani","Kibiti DC","Mtawanya","Matumbi"
"hamlet","Other","Other","Outro","Nyingine","Tanzania","Pwani","Kibiti DC","Mtawanya","Matumbi"
"hamlet","Mikendo","Mikendo","Mikendo","Mikendo","Tanzania","Pwani","Kibiti DC","Mtawanya","Mikendo"
"hamlet","Other","Other","Outro","Nyingine","Tanzania","Pwani","Kibiti DC","Mtawanya","Mikendo"
"hamlet","Msoro","Msoro","Msoro","Msoro","Tanzania","Pwani","Kibiti DC","Mtawanya","Msoro"
"hamlet","Other","Other","Outro","Nyingine","Tanzania","Pwani","Kibiti DC","Mtawanya","Msoro"
"hamlet","Mulandecha","Mulandecha","Mulandecha","Mulandecha","Tanzania","Pwani","Kibiti DC","Mtawanya","Mulandecha"
"hamlet","Other","Other","Outro","Nyingine","Tanzania","Pwani","Kibiti DC","Mtawanya","Mulandecha"
"hamlet","Ndechamula","Ndechamula","Ndechamula","Ndechamula","Tanzania","Pwani","Kibiti DC","Mtawanya","Ndechamula"
"hamlet","Other","Other","Outro","Nyingine","Tanzania","Pwani","Kibiti DC","Mtawanya","Ndechamula"
"hamlet","Nyamlani","Nyamlani","Nyamlani","Nyamlani","Tanzania","Pwani","Kibiti DC","Mtawanya","Nyamlani"
"hamlet","Other","Other","Outro","Nyingine","Tanzania","Pwani","Kibiti DC","Mtawanya","Nyamlani"
"hamlet","Roja","Roja","Roja","Roja","Tanzania","Pwani","Kibiti DC","Mtawanya","Roja"
"hamlet","Other","Other","Outro","Nyingine","Tanzania","Pwani","Kibiti DC","Mtawanya","Roja"
"hamlet","Ugezi","Ugezi","Ugezi","Ugezi","Tanzania","Pwani","Kibiti DC","Mtawanya","Ugezi"
"hamlet","Other","Other","Outro","Nyingine","Tanzania","Pwani","Kibiti DC","Mtawanya","Ugezi"
"hamlet","Umikendo","Umikendo","Umikendo","Umikendo","Tanzania","Pwani","Kibiti DC","Mtawanya","Umikendo"
"hamlet","Other","Other","Outro","Nyingine","Tanzania","Pwani","Kibiti DC","Mtawanya","Umikendo"
"hamlet","Umkunama","Umkunama","Umkunama","Umkunama","Tanzania","Pwani","Kibiti DC","Mtawanya","Umkunama"
"hamlet","Other","Other","Outro","Nyingine","Tanzania","Pwani","Kibiti DC","Mtawanya","Umkunama"
"hamlet","Unyamlani","Unyamlani","Unyamlani","Unyamlani","Tanzania","Pwani","Kibiti DC","Mtawanya","Unyamlani"
"hamlet","Other","Other","Outro","Nyingine","Tanzania","Pwani","Kibiti DC","Mtawanya","Unyamlani"
"hamlet","Upazi","Upazi","Upazi","Upazi","Tanzania","Pwani","Kibiti DC","Mtawanya","Upazi"
"hamlet","Other","Other","Outro","Nyingine","Tanzania","Pwani","Kibiti DC","Mtawanya","Upazi"
"hamlet","Zomboko","Zomboko","Zomboko","Zomboko","Tanzania","Pwani","Kibiti DC","Mtawanya","Zomboko"
"hamlet","Other","Other","Outro","Nyingine","Tanzania","Pwani","Kibiti DC","Mtawanya","Zomboko"
"hamlet","Other","Other","Outro","Nyingine","Tanzania","Pwani","Kibiti DC","Mtawanya","Other"
"hamlet","Kikale","Kikale","Kikale","Kikale","Tanzania","Pwani","Kibiti DC","Mtunda","Kikale"
"hamlet","Kikalemtandu","Kikalemtandu","Kikalemtandu","Kikalemtandu","Tanzania","Pwani","Kibiti DC","Mtunda","Kikale"
"hamlet","Makoge","Makoge","Makoge","Makoge","Tanzania","Pwani","Kibiti DC","Mtunda","Kikale"
"hamlet","Other","Other","Outro","Nyingine","Tanzania","Pwani","Kibiti DC","Mtunda","Kikale"
"hamlet","Mbogolo","Mbogolo","Mbogolo","Mbogolo","Tanzania","Pwani","Kibiti DC","Mtunda","Mtunda A"
"hamlet","Mbumi","Mbumi","Mbumi","Mbumi","Tanzania","Pwani","Kibiti DC","Mtunda","Mtunda A"
"hamlet","Mikunguni","Mikunguni","Mikunguni","Mikunguni","Tanzania","Pwani","Kibiti DC","Mtunda","Mtunda A"
"hamlet","Mtunda A","Mtunda A","Mtunda A","Mtunda A","Tanzania","Pwani","Kibiti DC","Mtunda","Mtunda A"
"hamlet","Nguaro","Nguaro","Nguaro","Nguaro","Tanzania","Pwani","Kibiti DC","Mtunda","Mtunda A"
"hamlet","Other","Other","Outro","Nyingine","Tanzania","Pwani","Kibiti DC","Mtunda","Mtunda A"
"hamlet","Beta","Beta","Beta","Beta","Tanzania","Pwani","Kibiti DC","Mtunda","Mtunda B"
"hamlet","Mchikichini","Mchikichini","Mchikichini","Mchikichini","Tanzania","Pwani","Kibiti DC","Mtunda","Mtunda B"
"hamlet","Mtunda B","Mtunda B","Mtunda B","Mtunda B","Tanzania","Pwani","Kibiti DC","Mtunda","Mtunda B"
"hamlet","Nganyaga","Nganyaga","Nganyaga","Nganyaga","Tanzania","Pwani","Kibiti DC","Mtunda","Mtunda B"
"hamlet","Nyafeda","Nyafeda","Nyafeda","Nyafeda","Tanzania","Pwani","Kibiti DC","Mtunda","Mtunda B"
"hamlet","Other","Other","Outro","Nyingine","Tanzania","Pwani","Kibiti DC","Mtunda","Mtunda B"
"hamlet","Magomeni","Magomeni","Magomeni","Magomeni","Tanzania","Pwani","Kibiti DC","Mtunda","Muyuyu"
"hamlet","Misuguri","Misuguri","Misuguri","Misuguri","Tanzania","Pwani","Kibiti DC","Mtunda","Muyuyu"
"hamlet","Mkata","Mkata","Mkata","Mkata","Tanzania","Pwani","Kibiti DC","Mtunda","Muyuyu"
"hamlet","Muyuyu","Muyuyu","Muyuyu","Muyuyu","Tanzania","Pwani","Kibiti DC","Mtunda","Muyuyu"
"hamlet","Njianne","Njianne","Njianne","Njianne","Tanzania","Pwani","Kibiti DC","Mtunda","Muyuyu"
"hamlet","Nyambele","Nyambele","Nyambele","Nyambele","Tanzania","Pwani","Kibiti DC","Mtunda","Muyuyu"
"hamlet","Sonywe","Sonywe","Sonywe","Sonywe","Tanzania","Pwani","Kibiti DC","Mtunda","Muyuyu"
"hamlet","Other","Other","Outro","Nyingine","Tanzania","Pwani","Kibiti DC","Mtunda","Muyuyu"
"hamlet","Other","Other","Outro","Nyingine","Tanzania","Pwani","Kibiti DC","Mtunda","Other"
"hamlet","Mkole","Mkole","Mkole","Mkole","Tanzania","Pwani","Kibiti DC","Mwambao","Kigunguli"
"hamlet","Mpafuni","Mpafuni","Mpafuni","Mpafuni","Tanzania","Pwani","Kibiti DC","Mwambao","Kigunguli"
"hamlet","Mselema","Mselema","Mselema","Mselema","Tanzania","Pwani","Kibiti DC","Mwambao","Kigunguli"
"hamlet","Other","Other","Outro","Nyingine","Tanzania","Pwani","Kibiti DC","Mwambao","Kigunguli"
"hamlet","Kariakoo","Kariakoo","Kariakoo","Kariakoo","Tanzania","Pwani","Kibiti DC","Mwambao","Kivinja A"
"hamlet","Kigunguli","Kigunguli","Kigunguli","Kigunguli","Tanzania","Pwani","Kibiti DC","Mwambao","Kivinja A"
"hamlet","Kisanjani kaya","Kisanjani kaya","Kisanjani kaya","Kisanjani kaya","Tanzania","Pwani","Kibiti DC","Mwambao","Kivinja A"
"hamlet","Masakwi","Masakwi","Masakwi","Masakwi","Tanzania","Pwani","Kibiti DC","Mwambao","Kivinja A"
"hamlet","Other","Other","Outro","Nyingine","Tanzania","Pwani","Kibiti DC","Mwambao","Kivinja A"
"hamlet","Mfenesini","Mfenesini","Mfenesini","Mfenesini","Tanzania","Pwani","Kibiti DC","Mwambao","Kivinja B"
"hamlet","Mkegetoni","Mkegetoni","Mkegetoni","Mkegetoni","Tanzania","Pwani","Kibiti DC","Mwambao","Kivinja B"
"hamlet","Mweyubaruti","Mweyubaruti","Mweyubaruti","Mweyubaruti","Tanzania","Pwani","Kibiti DC","Mwambao","Kivinja B"
"hamlet","Other","Other","Outro","Nyingine","Tanzania","Pwani","Kibiti DC","Mwambao","Kivinja B"
"hamlet","Mititimbo","Mititimbo","Mititimbo","Mititimbo","Tanzania","Pwani","Kibiti DC","Mwambao","Mchungu"
"hamlet","Mpekeso","Mpekeso","Mpekeso","Mpekeso","Tanzania","Pwani","Kibiti DC","Mwambao","Mchungu"
"hamlet","Other","Other","Outro","Nyingine","Tanzania","Pwani","Kibiti DC","Mwambao","Mchungu"
"hamlet","Kikombe","Kikombe","Kikombe","Kikombe","Tanzania","Pwani","Kibiti DC","Mwambao","Mkenda"
"hamlet","Mkenda","Mkenda","Mkenda","Mkenda","Tanzania","Pwani","Kibiti DC","Mwambao","Mkenda"
"hamlet","Ngungule","Ngungule","Ngungule","Ngungule","Tanzania","Pwani","Kibiti DC","Mwambao","Mkenda"
"hamlet","Other","Other","Outro","Nyingine","Tanzania","Pwani","Kibiti DC","Mwambao","Mkenda"
"hamlet","Genju","Genju","Genju","Genju","Tanzania","Pwani","Kibiti DC","Mwambao","Msindaji"
"hamlet","Madukani","Madukani","Madukani","Madukani","Tanzania","Pwani","Kibiti DC","Mwambao","Msindaji"
"hamlet","Other","Other","Outro","Nyingine","Tanzania","Pwani","Kibiti DC","Mwambao","Msindaji"
"hamlet","Other","Other","Outro","Nyingine","Tanzania","Pwani","Kibiti DC","Mwambao","Other"
"hamlet","Kilula Kati","Kilula Kati","Kilula Kati","Kilula Kati","Tanzania","Pwani","Kibiti DC","Ruaruke","Kilulatambwe"
"hamlet","Mbusi","Mbusi","Mbusi","Mbusi","Tanzania","Pwani","Kibiti DC","Ruaruke","Kilulatambwe"
"hamlet","Milonzi Mtonga","Milonzi Mtonga","Milonzi Mtonga","Milonzi Mtonga","Tanzania","Pwani","Kibiti DC","Ruaruke","Kilulatambwe"
"hamlet","Other","Other","Outro","Nyingine","Tanzania","Pwani","Kibiti DC","Ruaruke","Kilulatambwe"
"hamlet","Mkopi","Mkopi","Mkopi","Mkopi","Tanzania","Pwani","Kibiti DC","Ruaruke","Nyamatanga"
"hamlet","Mtomboloka","Mtomboloka","Mtomboloka","Mtomboloka","Tanzania","Pwani","Kibiti DC","Ruaruke","Nyamatanga"
"hamlet","Nyamatanga","Nyamatanga","Nyamatanga","Nyamatanga","Tanzania","Pwani","Kibiti DC","Ruaruke","Nyamatanga"
"hamlet","Other","Other","Outro","Nyingine","Tanzania","Pwani","Kibiti DC","Ruaruke","Nyamatanga"
"hamlet","Kindande","Kindande","Kindande","Kindande","Tanzania","Pwani","Kibiti DC","Ruaruke","Ruaruke A Nyamatimba"
"hamlet","Kiwaga","Kiwaga","Kiwaga","Kiwaga","Tanzania","Pwani","Kibiti DC","Ruaruke","Ruaruke A Nyamatimba"
"hamlet","Mbawa","Mbawa","Mbawa","Mbawa","Tanzania","Pwani","Kibiti DC","Ruaruke","Ruaruke A Nyamatimba"
"hamlet","Mwenge","Mwenge","Mwenge","Mwenge","Tanzania","Pwani","Kibiti DC","Ruaruke","Ruaruke A Nyamatimba"
"hamlet","Nyambalapi","Nyambalapi","Nyambalapi","Nyambalapi","Tanzania","Pwani","Kibiti DC","Ruaruke","Ruaruke A Nyamatimba"
"hamlet","Other","Other","Outro","Nyingine","Tanzania","Pwani","Kibiti DC","Ruaruke","Ruaruke A Nyamatimba"
"hamlet","Aangweni Matosa","Aangweni Matosa","Aangweni Matosa","Aangweni Matosa","Tanzania","Pwani","Kibiti DC","Ruaruke","Ruaruke B"
"hamlet","Famiti Kimbwele","Famiti Kimbwele","Famiti Kimbwele","Famiti Kimbwele","Tanzania","Pwani","Kibiti DC","Ruaruke","Ruaruke B"
"hamlet","Kimbwere famiti","Kimbwere famiti","Kimbwere famiti","Kimbwere famiti","Tanzania","Pwani","Kibiti DC","Ruaruke","Ruaruke B"
"hamlet","Mbawa","Mbawa","Mbawa","Mbawa","Tanzania","Pwani","Kibiti DC","Ruaruke","Ruaruke B"
"hamlet","Mfule Mkumbini","Mfule Mkumbini","Mfule Mkumbini","Mfule Mkumbini","Tanzania","Pwani","Kibiti DC","Ruaruke","Ruaruke B"
"hamlet","Mgelezini","Mgelezini","Mgelezini","Mgelezini","Tanzania","Pwani","Kibiti DC","Ruaruke","Ruaruke B"
"hamlet","Nyanindi - Makoge","Nyanindi - Makoge","Nyanindi - Makoge","Nyanindi - Makoge","Tanzania","Pwani","Kibiti DC","Ruaruke","Ruaruke B"
"hamlet","Sangweni","Sangweni","Sangweni","Sangweni","Tanzania","Pwani","Kibiti DC","Ruaruke","Ruaruke B"
"hamlet","Sangweni Matosa","Sangweni Matosa","Sangweni Matosa","Sangweni Matosa","Tanzania","Pwani","Kibiti DC","Ruaruke","Ruaruke B"
"hamlet","Other","Other","Outro","Nyingine","Tanzania","Pwani","Kibiti DC","Ruaruke","Ruaruke B"
"hamlet","Garibovu","Garibovu","Garibovu","Garibovu","Tanzania","Pwani","Kibiti DC","Ruaruke","Rungungu"
"hamlet","Mbawa","Mbawa","Mbawa","Mbawa","Tanzania","Pwani","Kibiti DC","Ruaruke","Rungungu"
"hamlet","Miwaleni","Miwaleni","Miwaleni","Miwaleni","Tanzania","Pwani","Kibiti DC","Ruaruke","Rungungu"
"hamlet","Mkwende","Mkwende","Mkwende","Mkwende","Tanzania","Pwani","Kibiti DC","Ruaruke","Rungungu"
"hamlet","Mungutwa","Mungutwa","Mungutwa","Mungutwa","Tanzania","Pwani","Kibiti DC","Ruaruke","Rungungu"
"hamlet","Rungungu Mjini","Rungungu Mjini","Rungungu Mjini","Rungungu Mjini","Tanzania","Pwani","Kibiti DC","Ruaruke","Rungungu"
"hamlet","Other","Other","Outro","Nyingine","Tanzania","Pwani","Kibiti DC","Ruaruke","Rungungu"
"hamlet","Other","Other","Outro","Nyingine","Tanzania","Pwani","Kibiti DC","Ruaruke","Other"
"hamlet","Kiomboni Pwani","Kiomboni Pwani","Kiomboni Pwani","Kiomboni Pwani","Tanzania","Pwani","Kibiti DC","Salale","Kiomboni"
"hamlet","Twana","Twana","Twana","Twana","Tanzania","Pwani","Kibiti DC","Salale","Kiomboni"
"hamlet","Urongoni","Urongoni","Urongoni","Urongoni","Tanzania","Pwani","Kibiti DC","Salale","Kiomboni"
"hamlet","Other","Other","Outro","Nyingine","Tanzania","Pwani","Kibiti DC","Salale","Kiomboni"
"hamlet","Kilwani","Kilwani","Kilwani","Kilwani","Tanzania","Pwani","Kibiti DC","Salale","Mchinga"
"hamlet","Mchinga","Mchinga","Mchinga","Mchinga","Tanzania","Pwani","Kibiti DC","Salale","Mchinga"
"hamlet","Salale","Salale","Salale","Salale","Tanzania","Pwani","Kibiti DC","Salale","Mchinga"
"hamlet","Saninga","Saninga","Saninga","Saninga","Tanzania","Pwani","Kibiti DC","Salale","Mchinga"
"hamlet","Simba Ulanga","Simba Ulanga","Simba Ulanga","Simba Ulanga","Tanzania","Pwani","Kibiti DC","Salale","Mchinga"
"hamlet","Other","Other","Outro","Nyingine","Tanzania","Pwani","Kibiti DC","Salale","Mchinga"
"hamlet","Mfisini A","Mfisini A","Mfisini A","Mfisini A","Tanzania","Pwani","Kibiti DC","Salale","Mfisini"
"hamlet","Mfisini B","Mfisini B","Mfisini B","Mfisini B","Tanzania","Pwani","Kibiti DC","Salale","Mfisini"
"hamlet","Mfisini kati","Mfisini kati","Mfisini kati","Mfisini kati","Tanzania","Pwani","Kibiti DC","Salale","Mfisini"
"hamlet","Other","Other","Outro","Nyingine","Tanzania","Pwani","Kibiti DC","Salale","Mfisini"
"hamlet","Kihingi Shule","Kihingi Shule","Kihingi Shule","Kihingi Shule","Tanzania","Pwani","Kibiti DC","Salale","Nyamisati"
"hamlet","Kihingipwani","Kihingipwani","Kihingipwani","Kihingipwani","Tanzania","Pwani","Kibiti DC","Salale","Nyamisati"
"hamlet","Mjengea","Mjengea","Mjengea","Mjengea","Tanzania","Pwani","Kibiti DC","Salale","Nyamisati"
"hamlet","Other","Other","Outro","Nyingine","Tanzania","Pwani","Kibiti DC","Salale","Nyamisati"
"hamlet","Other","Other","Outro","Nyingine","Tanzania","Pwani","Kibiti DC","Salale","Other"
"hamlet","Golani","Golani","Golani","Golani","Tanzania","Pwani","Rufiji DC","Chemchem","Golani"
"hamlet","Other","Other","Outro","Nyingine","Tanzania","Pwani","Rufiji DC","Chemchem","Golani"
"hamlet","Kindwiti","Kindwiti","Kindwiti","Kindwiti","Tanzania","Pwani","Rufiji DC","Chemchem","Kindwiti"
"hamlet","Other","Other","Outro","Nyingine","Tanzania","Pwani","Rufiji DC","Chemchem","Kindwiti"
"hamlet","Kipei","Kipei","Kipei","Kipei","Tanzania","Pwani","Rufiji DC","Chemchem","Kipei"
"hamlet","Other","Other","Outro","Nyingine","Tanzania","Pwani","Rufiji DC","Chemchem","Kipei"
"hamlet","Nyandakatundu","Nyandakatundu","Nyandakatundu","Nyandakatundu","Tanzania","Pwani","Rufiji DC","Chemchem","Nyandakatundu"
"hamlet","Other","Other","Outro","Nyingine","Tanzania","Pwani","Rufiji DC","Chemchem","Nyandakatundu"
"hamlet","Nyandumbi","Nyandumbi","Nyandumbi","Nyandumbi","Tanzania","Pwani","Rufiji DC","Chemchem","Nyandumbi"
"hamlet","Other","Other","Outro","Nyingine","Tanzania","Pwani","Rufiji DC","Chemchem","Nyandumbi"
"hamlet","Nyangwai","Nyangwai","Nyangwai","Nyangwai","Tanzania","Pwani","Rufiji DC","Chemchem","Nyangwai"
"hamlet","Other","Other","Outro","Nyingine","Tanzania","Pwani","Rufiji DC","Chemchem","Nyangwai"
"hamlet","Nyawanje/ngwembele","Nyawanje/ngwembele","Nyawanje/ngwembele","Nyawanje/ngwembele","Tanzania","Pwani","Rufiji DC","Chemchem","Nyawanje/Ngwembele"
"hamlet","Other","Other","Outro","Nyingine","Tanzania","Pwani","Rufiji DC","Chemchem","Nyawanje/Ngwembele"
"hamlet","Other","Other","Outro","Nyingine","Tanzania","Pwani","Rufiji DC","Chemchem","Other"
"hamlet","Ipengo","Ipengo","Ipengo","Ipengo","Tanzania","Pwani","Rufiji DC","Chumbi","Chumbi A"
"hamlet","Kiegele","Kiegele","Kiegele","Kiegele","Tanzania","Pwani","Rufiji DC","Chumbi","Chumbi A"
"hamlet","Kigogo","Kigogo","Kigogo","Kigogo","Tanzania","Pwani","Rufiji DC","Chumbi","Chumbi A"
"hamlet","Tangini","Tangini","Tangini","Tangini","Tanzania","Pwani","Rufiji DC","Chumbi","Chumbi A"
"hamlet","Other","Other","Outro","Nyingine","Tanzania","Pwani","Rufiji DC","Chumbi","Chumbi A"
"hamlet","Boto","Boto","Boto","Boto","Tanzania","Pwani","Rufiji DC","Chumbi","Chumbi B"
"hamlet","Kilindi","Kilindi","Kilindi","Kilindi","Tanzania","Pwani","Rufiji DC","Chumbi","Chumbi B"
"hamlet","Kipoka","Kipoka","Kipoka","Kipoka","Tanzania","Pwani","Rufiji DC","Chumbi","Chumbi B"
"hamlet","Kipoka msomeni","Kipoka msomeni","Kipoka msomeni","Kipoka msomeni","Tanzania","Pwani","Rufiji DC","Chumbi","Chumbi B"
"hamlet","Mikorwa","Mikorwa","Mikorwa","Mikorwa","Tanzania","Pwani","Rufiji DC","Chumbi","Chumbi B"
"hamlet","Msikitini","Msikitini","Msikitini","Msikitini","Tanzania","Pwani","Rufiji DC","Chumbi","Chumbi B"
"hamlet","Other","Other","Outro","Nyingine","Tanzania","Pwani","Rufiji DC","Chumbi","Chumbi B"
"hamlet","Chumbi Magharibi","Chumbi Magharibi","Chumbi Magharibi","Chumbi Magharibi","Tanzania","Pwani","Rufiji DC","Chumbi","Chumbi C"
"hamlet","Kanga","Kanga","Kanga","Kanga","Tanzania","Pwani","Rufiji DC","Chumbi","Chumbi C"
"hamlet","Magharibi","Magharibi","Magharibi","Magharibi","Tanzania","Pwani","Rufiji DC","Chumbi","Chumbi C"
"hamlet","Ngalo","Ngalo","Ngalo","Ngalo","Tanzania","Pwani","Rufiji DC","Chumbi","Chumbi C"
"hamlet","Nyakipande","Nyakipande","Nyakipande","Nyakipande","Tanzania","Pwani","Rufiji DC","Chumbi","Chumbi C"
"hamlet","Other","Other","Outro","Nyingine","Tanzania","Pwani","Rufiji DC","Chumbi","Chumbi C"
"hamlet","Other","Other","Outro","Nyingine","Tanzania","Pwani","Rufiji DC","Chumbi","Other"
"hamlet","Kaunda","Kaunda","Kaunda","Kaunda","Tanzania","Pwani","Rufiji DC","Ikwiriri","Ikwiriri Kaskazini"
"hamlet","Kazamoyo","Kazamoyo","Kazamoyo","Kazamoyo","Tanzania","Pwani","Rufiji DC","Ikwiriri","Ikwiriri Kaskazini"
"hamlet","Mparange","Mparange","Mparange","Mparange","Tanzania","Pwani","Rufiji DC","Ikwiriri","Ikwiriri Kaskazini"
"hamlet","Mtakuja","Mtakuja","Mtakuja","Mtakuja","Tanzania","Pwani","Rufiji DC","Ikwiriri","Ikwiriri Kaskazini"
"hamlet","Mwenge","Mwenge","Mwenge","Mwenge","Tanzania","Pwani","Rufiji DC","Ikwiriri","Ikwiriri Kaskazini"
"hamlet","Ujamaa","Ujamaa","Ujamaa","Ujamaa","Tanzania","Pwani","Rufiji DC","Ikwiriri","Ikwiriri Kaskazini"
"hamlet","Other","Other","Outro","Nyingine","Tanzania","Pwani","Rufiji DC","Ikwiriri","Ikwiriri Kaskazini"
"hamlet","Msikitini","Msikitini","Msikitini","Msikitini","Tanzania","Pwani","Rufiji DC","Ikwiriri","Ikwiriri Kati"
"hamlet","Mwenge","Mwenge","Mwenge","Mwenge","Tanzania","Pwani","Rufiji DC","Ikwiriri","Ikwiriri Kati"
"hamlet","SIDO","SIDO","SIDO","SIDO","Tanzania","Pwani","Rufiji DC","Ikwiriri","Ikwiriri Kati"
"hamlet","Sisi kwa Sisi","Sisi kwa Sisi","Sisi kwa Sisi","Sisi kwa Sisi","Tanzania","Pwani","Rufiji DC","Ikwiriri","Ikwiriri Kati"
"hamlet","Tangimoja","Tangimoja","Tangimoja","Tangimoja","Tanzania","Pwani","Rufiji DC","Ikwiriri","Ikwiriri Kati"
"hamlet","Ujirani Mwema","Ujirani Mwema","Ujirani Mwema","Ujirani Mwema","Tanzania","Pwani","Rufiji DC","Ikwiriri","Ikwiriri Kati"
"hamlet","Umoja","Umoja","Umoja","Umoja","Tanzania","Pwani","Rufiji DC","Ikwiriri","Ikwiriri Kati"
"hamlet","Upendo","Upendo","Upendo","Upendo","Tanzania","Pwani","Rufiji DC","Ikwiriri","Ikwiriri Kati"
"hamlet","Other","Other","Outro","Nyingine","Tanzania","Pwani","Rufiji DC","Ikwiriri","Ikwiriri Kati"
"hamlet","Karume","Karume","Karume","Karume","Tanzania","Pwani","Rufiji DC","Ikwiriri","Ikwiriri Kusini"
"hamlet","Kawawa","Kawawa","Kawawa","Kawawa","Tanzania","Pwani","Rufiji DC","Ikwiriri","Ikwiriri Kusini"
"hamlet","Malemba","Malemba","Malemba","Malemba","Tanzania","Pwani","Rufiji DC","Ikwiriri","Ikwiriri Kusini"
"hamlet","Mpima","Mpima","Mpima","Mpima","Tanzania","Pwani","Rufiji DC","Ikwiriri","Ikwiriri Kusini"
"hamlet","Muungano","Muungano","Muungano","Muungano","Tanzania","Pwani","Rufiji DC","Ikwiriri","Ikwiriri Kusini"
"hamlet","Nyerere","Nyerere","Nyerere","Nyerere","Tanzania","Pwani","Rufiji DC","Ikwiriri","Ikwiriri Kusini"
"hamlet","P/Kisumo","P/Kisumo","P/Kisumo","P/Kisumo","Tanzania","Pwani","Rufiji DC","Ikwiriri","Ikwiriri Kusini"
"hamlet","Posta","Posta","Posta","Posta","Tanzania","Pwani","Rufiji DC","Ikwiriri","Ikwiriri Kusini"
"hamlet","Tangimbili Kusini","Tangimbili Kusini","Tangimbili Kusini","Tangimbili Kusini","Tanzania","Pwani","Rufiji DC","Ikwiriri","Ikwiriri Kusini"
"hamlet","Uhuru","Uhuru","Uhuru","Uhuru","Tanzania","Pwani","Rufiji DC","Ikwiriri","Ikwiriri Kusini"
"hamlet","Ujamaa","Ujamaa","Ujamaa","Ujamaa","Tanzania","Pwani","Rufiji DC","Ikwiriri","Ikwiriri Kusini"
"hamlet","Other","Other","Outro","Nyingine","Tanzania","Pwani","Rufiji DC","Ikwiriri","Ikwiriri Kusini"
"hamlet","Other","Other","Outro","Nyingine","Tanzania","Pwani","Rufiji DC","Ikwiriri","Other"
"hamlet","Mawilo","Mawilo","Mawilo","Mawilo","Tanzania","Pwani","Rufiji DC","Kipugira","Kipo"
"hamlet","Mgohori","Mgohori","Mgohori","Mgohori","Tanzania","Pwani","Rufiji DC","Kipugira","Kipo"
"hamlet","Mpande","Mpande","Mpande","Mpande","Tanzania","Pwani","Rufiji DC","Kipugira","Kipo"
"hamlet","Nyikanza","Nyikanza","Nyikanza","Nyikanza","Tanzania","Pwani","Rufiji DC","Kipugira","Kipo"
"hamlet","Other","Other","Outro","Nyingine","Tanzania","Pwani","Rufiji DC","Kipugira","Kipo"
"hamlet","Kipugira","Kipugira","Kipugira","Kipugira","Tanzania","Pwani","Rufiji DC","Kipugira","Kipugira"
"hamlet","Pangapanga","Pangapanga","Pangapanga","Pangapanga","Tanzania","Pwani","Rufiji DC","Kipugira","Kipugira"
"hamlet","Other","Other","Outro","Nyingine","Tanzania","Pwani","Rufiji DC","Kipugira","Kipugira"
"hamlet","Tetema","Tetema","Tetema","Tetema","Tanzania","Pwani","Rufiji DC","Kipugira","Ndundunyikanza"
"hamlet","Other","Other","Outro","Nyingine","Tanzania","Pwani","Rufiji DC","Kipugira","Ndundunyikanza"
"hamlet","Mtalula","Mtalula","Mtalula","Mtalula","Tanzania","Pwani","Rufiji DC","Kipugira","Nyaminywili"
"hamlet","Nyaminywili","Nyaminywili","Nyaminywili","Nyaminywili","Tanzania","Pwani","Rufiji DC","Kipugira","Nyaminywili"
"hamlet","Other","Other","Outro","Nyingine","Tanzania","Pwani","Rufiji DC","Kipugira","Nyaminywili"
"hamlet","Other","Other","Outro","Nyingine","Tanzania","Pwani","Rufiji DC","Kipugira","Other"
"hamlet","Kitapi Magharibi","Kitapi Magharibi","Kitapi Magharibi","Kitapi Magharibi","Tanzania","Pwani","Rufiji DC","Mbwara","Kitapi"
"hamlet","Kitapi Mashariki","Kitapi Mashariki","Kitapi Mashariki","Kitapi Mashariki","Tanzania","Pwani","Rufiji DC","Mbwara","Kitapi"
"hamlet","Namahamba","Namahamba","Namahamba","Namahamba","Tanzania","Pwani","Rufiji DC","Mbwara","Kitapi"
"hamlet","Other","Other","Outro","Nyingine","Tanzania","Pwani","Rufiji DC","Mbwara","Kitapi"
"hamlet","Mbwara magharibi","Mbwara magharibi","Mbwara magharibi","Mbwara magharibi","Tanzania","Pwani","Rufiji DC","Mbwara","Mbwara"
"hamlet","Mbwara Mashariki","Mbwara Mashariki","Mbwara Mashariki","Mbwara Mashariki","Tanzania","Pwani","Rufiji DC","Mbwara","Mbwara"
"hamlet","Misimbo","Misimbo","Misimbo","Misimbo","Tanzania","Pwani","Rufiji DC","Mbwara","Mbwara"
"hamlet","Other","Other","Outro","Nyingine","Tanzania","Pwani","Rufiji DC","Mbwara","Mbwara"
"hamlet","Kikibu","Kikibu","Kikibu","Kikibu","Tanzania","Pwani","Rufiji DC","Mbwara","Nambunju"
"hamlet","Miangalaya","Miangalaya","Miangalaya","Miangalaya","Tanzania","Pwani","Rufiji DC","Mbwara","Nambunju"
"hamlet","Namakono","Namakono","Namakono","Namakono","Tanzania","Pwani","Rufiji DC","Mbwara","Nambunju"
"hamlet","Nambunju Magharibi","Nambunju Magharibi","Nambunju Magharibi","Nambunju Magharibi","Tanzania","Pwani","Rufiji DC","Mbwara","Nambunju"
"hamlet","Nambunju mashariki","Nambunju mashariki","Nambunju mashariki","Nambunju mashariki","Tanzania","Pwani","Rufiji DC","Mbwara","Nambunju"
"hamlet","Other","Other","Outro","Nyingine","Tanzania","Pwani","Rufiji DC","Mbwara","Nambunju"
"hamlet","Nyamwage Magharibi","Nyamwage Magharibi","Nyamwage Magharibi","Nyamwage Magharibi","Tanzania","Pwani","Rufiji DC","Mbwara","Nyamwage"
"hamlet","Nyamwage Mashariki","Nyamwage Mashariki","Nyamwage Mashariki","Nyamwage Mashariki","Tanzania","Pwani","Rufiji DC","Mbwara","Nyamwage"
"hamlet","Shauri moyo","Shauri moyo","Shauri moyo","Shauri moyo","Tanzania","Pwani","Rufiji DC","Mbwara","Nyamwage"
"hamlet","Other","Other","Outro","Nyingine","Tanzania","Pwani","Rufiji DC","Mbwara","Nyamwage"
"hamlet","Gege","Gege","Gege","Gege","Tanzania","Pwani","Rufiji DC","Mbwara","Tawi"
"hamlet","Kikobo","Kikobo","Kikobo","Kikobo","Tanzania","Pwani","Rufiji DC","Mbwara","Tawi"
"hamlet","Mkukiki","Mkukiki","Mkukiki","Mkukiki","Tanzania","Pwani","Rufiji DC","Mbwara","Tawi"
"hamlet","Mkwiri","Mkwiri","Mkwiri","Mkwiri","Tanzania","Pwani","Rufiji DC","Mbwara","Tawi"
"hamlet","Other","Other","Outro","Nyingine","Tanzania","Pwani","Rufiji DC","Mbwara","Tawi"
"hamlet","Other","Other","Outro","Nyingine","Tanzania","Pwani","Rufiji DC","Mbwara","Other"
"hamlet","Jitegemee","Jitegemee","Jitegemee","Jitegemee","Tanzania","Pwani","Rufiji DC","Mgomba","Mgomba Kaskazini"
"hamlet","Mpima","Mpima","Mpima","Mpima","Tanzania","Pwani","Rufiji DC","Mgomba","Mgomba Kaskazini"
"hamlet","Sekondari","Sekondari","Sekondari","Sekondari","Tanzania","Pwani","Rufiji DC","Mgomba","Mgomba Kaskazini"
"hamlet","Ujamaa","Ujamaa","Ujamaa","Ujamaa","Tanzania","Pwani","Rufiji DC","Mgomba","Mgomba Kaskazini"
"hamlet","Other","Other","Outro","Nyingine","Tanzania","Pwani","Rufiji DC","Mgomba","Mgomba Kaskazini"
"hamlet","Kiapo (Mope)","Kiapo (Mope)","Kiapo (Mope)","Kiapo (Mope)","Tanzania","Pwani","Rufiji DC","Mgomba","Mgomba Kati"
"hamlet","Malenda","Malenda","Malenda","Malenda","Tanzania","Pwani","Rufiji DC","Mgomba","Mgomba Kati"
"hamlet","Masenda","Masenda","Masenda","Masenda","Tanzania","Pwani","Rufiji DC","Mgomba","Mgomba Kati"
"hamlet","Mtupa","Mtupa","Mtupa","Mtupa","Tanzania","Pwani","Rufiji DC","Mgomba","Mgomba Kati"
"hamlet","Other","Other","Outro","Nyingine","Tanzania","Pwani","Rufiji DC","Mgomba","Mgomba Kati"
"hamlet","Kijonjo","Kijonjo","Kijonjo","Kijonjo","Tanzania","Pwani","Rufiji DC","Mgomba","Mgomba Kusini"
"hamlet","Kingwande","Kingwande","Kingwande","Kingwande","Tanzania","Pwani","Rufiji DC","Mgomba","Mgomba Kusini"
"hamlet","Malipia","Malipia","Malipia","Malipia","Tanzania","Pwani","Rufiji DC","Mgomba","Mgomba Kusini"
"hamlet","Nongwa","Nongwa","Nongwa","Nongwa","Tanzania","Pwani","Rufiji DC","Mgomba","Mgomba Kusini"
"hamlet","Other","Other","Outro","Nyingine","Tanzania","Pwani","Rufiji DC","Mgomba","Mgomba Kusini"
"hamlet","Other","Other","Outro","Nyingine","Tanzania","Pwani","Rufiji DC","Mgomba","Other"
"hamlet","Mbunju","Mbunju","Mbunju","Mbunju","Tanzania","Pwani","Rufiji DC","Mkongo","Mbunju Mvuleni"
"hamlet","Mvuleni","Mvuleni","Mvuleni","Mvuleni","Tanzania","Pwani","Rufiji DC","Mkongo","Mbunju Mvuleni"
"hamlet","Other","Other","Outro","Nyingine","Tanzania","Pwani","Rufiji DC","Mkongo","Mbunju Mvuleni"
"hamlet","Karakana","Karakana","Karakana","Karakana","Tanzania","Pwani","Rufiji DC","Mkongo","Mkongo Kaskazini"
"hamlet","Nyipara","Nyipara","Nyipara","Nyipara","Tanzania","Pwani","Rufiji DC","Mkongo","Mkongo Kaskazini"
"hamlet","Rusende","Rusende","Rusende","Rusende","Tanzania","Pwani","Rufiji DC","Mkongo","Mkongo Kaskazini"
"hamlet","Other","Other","Outro","Nyingine","Tanzania","Pwani","Rufiji DC","Mkongo","Mkongo Kaskazini"
"hamlet","Kitundu","Kitundu","Kitundu","Kitundu","Tanzania","Pwani","Rufiji DC","Mkongo","Mkongo Kusini"
"hamlet","Kiwili","Kiwili","Kiwili","Kiwili","Tanzania","Pwani","Rufiji DC","Mkongo","Mkongo Kusini"
"hamlet","Makoge","Makoge","Makoge","Makoge","Tanzania","Pwani","Rufiji DC","Mkongo","Mkongo Kusini"
"hamlet","Mkunga","Mkunga","Mkunga","Mkunga","Tanzania","Pwani","Rufiji DC","Mkongo","Mkongo Kusini"
"hamlet","Other","Other","Outro","Nyingine","Tanzania","Pwani","Rufiji DC","Mkongo","Mkongo Kusini"
"hamlet","Beta","Beta","Beta","Beta","Tanzania","Pwani","Rufiji DC","Mkongo","Ruwe"
"hamlet","Kipera","Kipera","Kipera","Kipera","Tanzania","Pwani","Rufiji DC","Mkongo","Ruwe"
"hamlet","Nyaringwe","Nyaringwe","Nyaringwe","Nyaringwe","Tanzania","Pwani","Rufiji DC","Mkongo","Ruwe"
"hamlet","Other","Other","Outro","Nyingine","Tanzania","Pwani","Rufiji DC","Mkongo","Ruwe"
"hamlet","Other","Other","Outro","Nyingine","Tanzania","Pwani","Rufiji DC","Mkongo","Other"
"hamlet","Chayonge","Chayonge","Chayonge","Chayonge","Tanzania","Pwani","Rufiji DC","Mohoro","King'ong'o"
"hamlet","King'ong'o","King'ong'o","King'ong'o","King'ong'o","Tanzania","Pwani","Rufiji DC","Mohoro","King'ong'o"
"hamlet","Kisangi","Kisangi","Kisangi","Kisangi","Tanzania","Pwani","Rufiji DC","Mohoro","King'ong'o"
"hamlet","Kwampakwila","Kwampakwila","Kwampakwila","Kwampakwila","Tanzania","Pwani","Rufiji DC","Mohoro","King'ong'o"
"hamlet","Mpilipili","Mpilipili","Mpilipili","Mpilipili","Tanzania","Pwani","Rufiji DC","Mohoro","King'ong'o"
"hamlet","Other","Other","Outro","Nyingine","Tanzania","Pwani","Rufiji DC","Mohoro","King'ong'o"
"hamlet","Kiwanga","Kiwanga","Kiwanga","Kiwanga","Tanzania","Pwani","Rufiji DC","Mohoro","Kiwanga"
"hamlet","Londondo","Londondo","Londondo","Londondo","Tanzania","Pwani","Rufiji DC","Mohoro","Kiwanga"
"hamlet","Mihiru","Mihiru","Mihiru","Mihiru","Tanzania","Pwani","Rufiji DC","Mohoro","Kiwanga"
"hamlet","Other","Other","Outro","Nyingine","Tanzania","Pwani","Rufiji DC","Mohoro","Kiwanga"
"hamlet","Mwanani","Mwanani","Mwanani","Mwanani","Tanzania","Pwani","Rufiji DC","Mohoro","Mohoro Magharibi"
"hamlet","Nyakikai","Nyakikai","Nyakikai","Nyakikai","Tanzania","Pwani","Rufiji DC","Mohoro","Mohoro Magharibi"
"hamlet","Nyandote","Nyandote","Nyandote","Nyandote","Tanzania","Pwani","Rufiji DC","Mohoro","Mohoro Magharibi"
"hamlet","Oldmohoro","Oldmohoro","Oldmohoro","Oldmohoro","Tanzania","Pwani","Rufiji DC","Mohoro","Mohoro Magharibi"
"hamlet","Sunga Bara","Sunga Bara","Sunga Bara","Sunga Bara","Tanzania","Pwani","Rufiji DC","Mohoro","Mohoro Magharibi"
"hamlet","Sungapwani","Sungapwani","Sungapwani","Sungapwani","Tanzania","Pwani","Rufiji DC","Mohoro","Mohoro Magharibi"
"hamlet","Other","Other","Outro","Nyingine","Tanzania","Pwani","Rufiji DC","Mohoro","Mohoro Magharibi"
"hamlet","Chamwenge","Chamwenge","Chamwenge","Chamwenge","Tanzania","Pwani","Rufiji DC","Mohoro","Mohoro Mashariki"
"hamlet","Nyamidege","Nyamidege","Nyamidege","Nyamidege","Tanzania","Pwani","Rufiji DC","Mohoro","Mohoro Mashariki"
"hamlet","Nyampaku bara","Nyampaku bara","Nyampaku bara","Nyampaku bara","Tanzania","Pwani","Rufiji DC","Mohoro","Mohoro Mashariki"
"hamlet","Nyampaku mashariki","Nyampaku mashariki","Nyampaku mashariki","Nyampaku mashariki","Tanzania","Pwani","Rufiji DC","Mohoro","Mohoro Mashariki"
"hamlet","Nyampaku pwani","Nyampaku pwani","Nyampaku pwani","Nyampaku pwani","Tanzania","Pwani","Rufiji DC","Mohoro","Mohoro Mashariki"
"hamlet","Nyautika","Nyautika","Nyautika","Nyautika","Tanzania","Pwani","Rufiji DC","Mohoro","Mohoro Mashariki"
"hamlet","Other","Other","Outro","Nyingine","Tanzania","Pwani","Rufiji DC","Mohoro","Mohoro Mashariki"
"hamlet","Makenzi","Makenzi","Makenzi","Makenzi","Tanzania","Pwani","Rufiji DC","Mohoro","Ndundutawa"
"hamlet","Msikitini","Msikitini","Msikitini","Msikitini","Tanzania","Pwani","Rufiji DC","Mohoro","Ndundutawa"
"hamlet","Ndundutawa","Ndundutawa","Ndundutawa","Ndundutawa","Tanzania","Pwani","Rufiji DC","Mohoro","Ndundutawa"
"hamlet","Nyalindi","Nyalindi","Nyalindi","Nyalindi","Tanzania","Pwani","Rufiji DC","Mohoro","Ndundutawa"
"hamlet","Nyarindi","Nyarindi","Nyarindi","Nyarindi","Tanzania","Pwani","Rufiji DC","Mohoro","Ndundutawa"
"hamlet","Other","Other","Outro","Nyingine","Tanzania","Pwani","Rufiji DC","Mohoro","Ndundutawa"
"hamlet","Kindwitwi","Kindwitwi","Kindwitwi","Kindwitwi","Tanzania","Pwani","Rufiji DC","Mohoro","Shela"
"hamlet","Mikorwa","Mikorwa","Mikorwa","Mikorwa","Tanzania","Pwani","Rufiji DC","Mohoro","Shela"
"hamlet","Rangitatu","Rangitatu","Rangitatu","Rangitatu","Tanzania","Pwani","Rufiji DC","Mohoro","Shela"
"hamlet","Stendi","Stendi","Stendi","Stendi","Tanzania","Pwani","Rufiji DC","Mohoro","Shela"
"hamlet","Other","Other","Outro","Nyingine","Tanzania","Pwani","Rufiji DC","Mohoro","Shela"
"hamlet","Other","Other","Outro","Nyingine","Tanzania","Pwani","Rufiji DC","Mohoro","Other"
"hamlet","Kwangazi","Kwangazi","Kwangazi","Kwangazi","Tanzania","Pwani","Rufiji DC","Mwaseni","Mloka"
"hamlet","Mkange","Mkange","Mkange","Mkange","Tanzania","Pwani","Rufiji DC","Mwaseni","Mloka"
"hamlet","Mpanganya","Mpanganya","Mpanganya","Mpanganya","Tanzania","Pwani","Rufiji DC","Mwaseni","Mloka"
"hamlet","Nyakisiku","Nyakisiku","Nyakisiku","Nyakisiku","Tanzania","Pwani","Rufiji DC","Mwaseni","Mloka"
"hamlet","Other","Other","Outro","Nyingine","Tanzania","Pwani","Rufiji DC","Mwaseni","Mloka"
"hamlet","Bizi","Bizi","Bizi","Bizi","Tanzania","Pwani","Rufiji DC","Mwaseni","Mtanza /Msona"
"hamlet","Msiga","Msiga","Msiga","Msiga","Tanzania","Pwani","Rufiji DC","Mwaseni","Mtanza /Msona"
"hamlet","Mtanza","Mtanza","Mtanza","Mtanza","Tanzania","Pwani","Rufiji DC","Mwaseni","Mtanza /Msona"
"hamlet","Mturuma","Mturuma","Mturuma","Mturuma","Tanzania","Pwani","Rufiji DC","Mwaseni","Mtanza /Msona"
"hamlet","Other","Other","Outro","Nyingine","Tanzania","Pwani","Rufiji DC","Mwaseni","Mtanza /Msona"
"hamlet","Mibuyusaba","Mibuyusaba","Mibuyusaba","Mibuyusaba","Tanzania","Pwani","Rufiji DC","Mwaseni","Mwaseni"
"hamlet","Mwaseni","Mwaseni","Mwaseni","Mwaseni","Tanzania","Pwani","Rufiji DC","Mwaseni","Mwaseni"
"hamlet","Zombe","Zombe","Zombe","Zombe","Tanzania","Pwani","Rufiji DC","Mwaseni","Mwaseni"
"hamlet","Other","Other","Outro","Nyingine","Tanzania","Pwani","Rufiji DC","Mwaseni","Mwaseni"
"hamlet","Other","Other","Outro","Nyingine","Tanzania","Pwani","Rufiji DC","Mwaseni","Other"
"hamlet","Kungulwe","Kungulwe","Kungulwe","Kungulwe","Tanzania","Pwani","Rufiji DC","Ngarambe","Kungulwe"
"hamlet","Other","Other","Outro","Nyingine","Tanzania","Pwani","Rufiji DC","Ngarambe","Kungulwe"
"hamlet","Namakono","Namakono","Namakono","Namakono","Tanzania","Pwani","Rufiji DC","Ngarambe","Namakono"
"hamlet","Other","Other","Outro","Nyingine","Tanzania","Pwani","Rufiji DC","Ngarambe","Namakono"
"hamlet","Ngarambe Mashariki","Ngarambe Mashariki","Ngarambe Mashariki","Ngarambe Mashariki","Tanzania","Pwani","Rufiji DC","Ngarambe","Ngarambe Mashariki"
"hamlet","Other","Other","Outro","Nyingine","Tanzania","Pwani","Rufiji DC","Ngarambe","Ngarambe Mashariki"
"hamlet","NgarambeMagharibi","NgarambeMagharibi","NgarambeMagharibi","NgarambeMagharibi","Tanzania","Pwani","Rufiji DC","Ngarambe","Ngarambemagharibi"
"hamlet","Other","Other","Outro","Nyingine","Tanzania","Pwani","Rufiji DC","Ngarambe","Ngarambemagharibi"
"hamlet","Tapika","Tapika","Tapika","Tapika","Tanzania","Pwani","Rufiji DC","Ngarambe","Tapika"
"hamlet","Other","Other","Outro","Nyingine","Tanzania","Pwani","Rufiji DC","Ngarambe","Tapika"
"hamlet","Other","Other","Outro","Nyingine","Tanzania","Pwani","Rufiji DC","Ngarambe","Other"
"hamlet","Gefu","Gefu","Gefu","Gefu","Tanzania","Pwani","Rufiji DC","Ngorongo","Kilimani Magharibi"
"hamlet","Kikongono","Kikongono","Kikongono","Kikongono","Tanzania","Pwani","Rufiji DC","Ngorongo","Kilimani Magharibi"
"hamlet","Kilombero","Kilombero","Kilombero","Kilombero","Tanzania","Pwani","Rufiji DC","Ngorongo","Kilimani Magharibi"
"hamlet","Kisagai","Kisagai","Kisagai","Kisagai","Tanzania","Pwani","Rufiji DC","Ngorongo","Kilimani Magharibi"
"hamlet","Mbuyuni","Mbuyuni","Mbuyuni","Mbuyuni","Tanzania","Pwani","Rufiji DC","Ngorongo","Kilimani Magharibi"
"hamlet","Mpanganya","Mpanganya","Mpanganya","Mpanganya","Tanzania","Pwani","Rufiji DC","Ngorongo","Kilimani Magharibi"
"hamlet","Tangini","Tangini","Tangini","Tangini","Tanzania","Pwani","Rufiji DC","Ngorongo","Kilimani Magharibi"
"hamlet","Other","Other","Outro","Nyingine","Tanzania","Pwani","Rufiji DC","Ngorongo","Kilimani Magharibi"
"hamlet","Gefu","Gefu","Gefu","Gefu","Tanzania","Pwani","Rufiji DC","Ngorongo","Kilimani Mashariki"
"hamlet","Ginnery","Ginnery","Ginnery","Ginnery","Tanzania","Pwani","Rufiji DC","Ngorongo","Kilimani Mashariki"
"hamlet","Mbuyuni","Mbuyuni","Mbuyuni","Mbuyuni","Tanzania","Pwani","Rufiji DC","Ngorongo","Kilimani Mashariki"
"hamlet","Mkongeni","Mkongeni","Mkongeni","Mkongeni","Tanzania","Pwani","Rufiji DC","Ngorongo","Kilimani Mashariki"
"hamlet","Mkunga","Mkunga","Mkunga","Mkunga","Tanzania","Pwani","Rufiji DC","Ngorongo","Kilimani Mashariki"
"hamlet","Unyonge","Unyonge","Unyonge","Unyonge","Tanzania","Pwani","Rufiji DC","Ngorongo","Kilimani Mashariki"
"hamlet","Other","Other","Outro","Nyingine","Tanzania","Pwani","Rufiji DC","Ngorongo","Kilimani Mashariki"
"hamlet","Kikongono","Kikongono","Kikongono","Kikongono","Tanzania","Pwani","Rufiji DC","Ngorongo","Ngorongo Magharibi"
"hamlet","Mbuyuni","Mbuyuni","Mbuyuni","Mbuyuni","Tanzania","Pwani","Rufiji DC","Ngorongo","Ngorongo Magharibi"
"hamlet","Nyasungwi","Nyasungwi","Nyasungwi","Nyasungwi","Tanzania","Pwani","Rufiji DC","Ngorongo","Ngorongo Magharibi"
"hamlet","Tangini","Tangini","Tangini","Tangini","Tanzania","Pwani","Rufiji DC","Ngorongo","Ngorongo Magharibi"
"hamlet","Other","Other","Outro","Nyingine","Tanzania","Pwani","Rufiji DC","Ngorongo","Ngorongo Magharibi"
"hamlet","Kilombelo","Kilombelo","Kilombelo","Kilombelo","Tanzania","Pwani","Rufiji DC","Ngorongo","Ngorongo Mashariki"
"hamlet","Kipenda moyo","Kipenda moyo","Kipenda moyo","Kipenda moyo","Tanzania","Pwani","Rufiji DC","Ngorongo","Ngorongo Mashariki"
"hamlet","Mkongeni","Mkongeni","Mkongeni","Mkongeni","Tanzania","Pwani","Rufiji DC","Ngorongo","Ngorongo Mashariki"
"hamlet","Nyalwiru","Nyalwiru","Nyalwiru","Nyalwiru","Tanzania","Pwani","Rufiji DC","Ngorongo","Ngorongo Mashariki"
"hamlet","Nyarwilu","Nyarwilu","Nyarwilu","Nyarwilu","Tanzania","Pwani","Rufiji DC","Ngorongo","Ngorongo Mashariki"
"hamlet","Other","Other","Outro","Nyingine","Tanzania","Pwani","Rufiji DC","Ngorongo","Ngorongo Mashariki"
"hamlet","Other","Other","Outro","Nyingine","Tanzania","Pwani","Rufiji DC","Ngorongo","Other"
"hamlet","Kilwa road","Kilwa road","Kilwa road","Kilwa road","Tanzania","Pwani","Rufiji DC","Umwe","Umwe Kaskazini"
"hamlet","Mchikichini","Mchikichini","Mchikichini","Mchikichini","Tanzania","Pwani","Rufiji DC","Umwe","Umwe Kaskazini"
"hamlet","Mjimwema","Mjimwema","Mjimwema","Mjimwema","Tanzania","Pwani","Rufiji DC","Umwe","Umwe Kaskazini"
"hamlet","Mpalange","Mpalange","Mpalange","Mpalange","Tanzania","Pwani","Rufiji DC","Umwe","Umwe Kaskazini"
"hamlet","Mparange","Mparange","Mparange","Mparange","Tanzania","Pwani","Rufiji DC","Umwe","Umwe Kaskazini"
"hamlet","Msikitini","Msikitini","Msikitini","Msikitini","Tanzania","Pwani","Rufiji DC","Umwe","Umwe Kaskazini"
"hamlet","Viwandani","Viwandani","Viwandani","Viwandani","Tanzania","Pwani","Rufiji DC","Umwe","Umwe Kaskazini"
"hamlet","Other","Other","Outro","Nyingine","Tanzania","Pwani","Rufiji DC","Umwe","Umwe Kaskazini"
"hamlet","Amani","Amani","Amani","Amani","Tanzania","Pwani","Rufiji DC","Umwe","Umwe Kati"
"hamlet","Azimio","Azimio","Azimio","Azimio","Tanzania","Pwani","Rufiji DC","Umwe","Umwe Kati"
"hamlet","Msikitini","Msikitini","Msikitini","Msikitini","Tanzania","Pwani","Rufiji DC","Umwe","Umwe Kati"
"hamlet","Siasa","Siasa","Siasa","Siasa","Tanzania","Pwani","Rufiji DC","Umwe","Umwe Kati"
"hamlet","Sokoni","Sokoni","Sokoni","Sokoni","Tanzania","Pwani","Rufiji DC","Umwe","Umwe Kati"
"hamlet","Ujamaa","Ujamaa","Ujamaa","Ujamaa","Tanzania","Pwani","Rufiji DC","Umwe","Umwe Kati"
"hamlet","Umoja","Umoja","Umoja","Umoja","Tanzania","Pwani","Rufiji DC","Umwe","Umwe Kati"
"hamlet","Umwe","Umwe","Umwe","Umwe","Tanzania","Pwani","Rufiji DC","Umwe","Umwe Kati"
"hamlet","Other","Other","Outro","Nyingine","Tanzania","Pwani","Rufiji DC","Umwe","Umwe Kati"
"hamlet","Makarafati","Makarafati","Makarafati","Makarafati","Tanzania","Pwani","Rufiji DC","Umwe","Umwe Kusini"
"hamlet","Makombe","Makombe","Makombe","Makombe","Tanzania","Pwani","Rufiji DC","Umwe","Umwe Kusini"
"hamlet","Makumbusho","Makumbusho","Makumbusho","Makumbusho","Tanzania","Pwani","Rufiji DC","Umwe","Umwe Kusini"
"hamlet","Mbuyuni","Mbuyuni","Mbuyuni","Mbuyuni","Tanzania","Pwani","Rufiji DC","Umwe","Umwe Kusini"
"hamlet","Msikitini","Msikitini","Msikitini","Msikitini","Tanzania","Pwani","Rufiji DC","Umwe","Umwe Kusini"
"hamlet","Mtanange","Mtanange","Mtanange","Mtanange","Tanzania","Pwani","Rufiji DC","Umwe","Umwe Kusini"
"hamlet","Mwembe Muhoro","Mwembe Muhoro","Mwembe Muhoro","Mwembe Muhoro","Tanzania","Pwani","Rufiji DC","Umwe","Umwe Kusini"
"hamlet","Ngasinda","Ngasinda","Ngasinda","Ngasinda","Tanzania","Pwani","Rufiji DC","Umwe","Umwe Kusini"
"hamlet","Njogoro","Njogoro","Njogoro","Njogoro","Tanzania","Pwani","Rufiji DC","Umwe","Umwe Kusini"
"hamlet","Other","Other","Outro","Nyingine","Tanzania","Pwani","Rufiji DC","Umwe","Umwe Kusini"
"hamlet","Other","Other","Outro","Nyingine","Tanzania","Pwani","Rufiji DC","Umwe","Other"
"hamlet","Kitundu","Kitundu","Kitundu","Kitundu","Tanzania","Pwani","Rufiji DC","Utete","Kitundu"
"hamlet","Other","Other","Outro","Nyingine","Tanzania","Pwani","Rufiji DC","Utete","Kitundu"
"hamlet","Kiwili","Kiwili","Kiwili","Kiwili","Tanzania","Pwani","Rufiji DC","Utete","Kiwili"
"hamlet","Other","Other","Outro","Nyingine","Tanzania","Pwani","Rufiji DC","Utete","Kiwili"
"hamlet","Siasa","Siasa","Siasa","Siasa","Tanzania","Pwani","Rufiji DC","Utete","Siasa"
"hamlet","Other","Other","Outro","Nyingine","Tanzania","Pwani","Rufiji DC","Utete","Siasa"
"hamlet","Other","Other","Outro","Nyingine","Tanzania","Pwani","Rufiji DC","Utete","Other"
"country","Mozambique","Mozambique","Mozambique","Mozambique","NA","NA","NA","NA","NA"
"country","Tanzania","Tanzania","Tanzania","Tanzania","NA","NA","NA","NA","NA"
